,Name,Street,City,State,ZIP,Phone
0,107 Tap,107 Water Street,Worcester,MA,01604,5083205333
1,10x Self Storage,10X Self Storage,Worcester,MA,01606,(508) 459-6900
2,110 Grill,123 Front St.,Worcester,MA,01608,(774) 420-2733
3,145 Front at City Square,145 Front Street,Worcester,MA,01608,774-420-2207
4,2 Chefs Italian Bar & Restaurant,317 West Boylston Street,Worcester,MA,01606,(508) 459-9229
5,2Gether We Eat,120 Cataract St,Worcester,MA,01602,(508) 450-9268
6,3 Kings Restaurant,118 Cambridge Street,Worcester,MA,01603,(508) 425-9872
7,308 Lakeside,308 Lakeside,East Brookfield,MA,01515,(774) 449-8333
8,33 BOXING CLUB,1017 Southbridge st,Worcester,MA,01610,(774) 502-6766
9,4th Generation Electric,375 Harvard Street,Leominster,MA,01453,(978) 489-5092
10,4U Bridal and Prom,269 Lincoln Street,Worcester,MA,01605,(508) 831-3508
11,508 Design & Build LLC,172 Massasoit Road,Worcester,MA,01604-3342,(774) 253-6133
12,511 Financial Group,8 Lake Street,Webster,MA,01570,(508) 949-8500
13,5M Commercial LLC,351 Main Street,Oxford,MA,01540,(617) 519-1871
14,9Round Fitness Worcester - Shrewsbury...,218 Shrewsbury St,Worcester,MA,01604,(774) 275-3297
15,A Better Path to Wellness LLC,,,,,(774) 253-4934
16,A New Rose,5 Wedgewood Rd,Worcester,MA,01602,(508) 612-1543
17,A Tribe Called Black,12 Chrome St,worcester,MA,01604,1-413-561-3462
18,A&M Tool and Design,64 Mill Street,Southbridge,MA,01550,(508) 764-3241
19,"A. Arsenault & Sons, Inc.",16 West Main Street,Spencer,MA,01562,(508) 885-5589
20,"A. F. Amorello & Sons, Inc.",P.O. Box 277,Worcester,MA,01613,(508) 791-8778
21,A.A. Beardsley,55 Hosmer Street,West Boylston,MA,01583,(508) 852-0513
22,"A.J. Letourneau, Inc.",Box 70573,Worcester,MA,01607,(508) 791-4239
23,A-1 Realty of MA LLC,P.O. Box 2297,Worcester,MA,01613,(508) 868-4662
24,AB Aesthetics LLC,110 High street,Clinton ,MA,01510,(978) 868-7543
25,AbbVie ,100 Research Drive,Worcester,MA,01605-4314,(508) 849-2501
26,Abby Kelley Foster Charter Public Sch...,10 New Bond Street,Worcester,MA,01606,(508) 854-8400
27,"Abby's House, Inc.",52 High Street,Worcester,MA,01609,(508) 756-5486
28,ABC CHILD CARE BILINGUAL PROGRAM INC,24 Norrback Avenue,Worcester,MA,01606,(774) 578-6991
29,ABG Real Estate,78  Pleasant Street,Worcester,MA,01609,(508) 414-8305
30,Abigail's Nest,94 Five Bridge Road,Brimfield,MA,01010,(508) 887-3674
31,Absolute Blacktop (Foley & Son Enterp...,186 Fairmont Avenue Unit #1,Worcester,MA,01604,(508) 981-0960
32,AC Hotel by Marriott Worcester,125 Front Street,Worcester,MA,01608,774-420-7555
33,Access Fixtures,40 Jackson Street,Worcester,MA,01608,(508) 340-4192
34,Accessible Home Health,319 Southbridge Street,Auburn,MA,01501,(508) 859-1644
35,Accord Adult Day Health Center,10 Cudworth Road,Webster,MA,01570,(508) 949-3598
36,Accord Dental,82 Worcester Street #C,North Grafton,MA,01536,(508) 839-6464
37,Accra Girls Restaurant,1280 Grafton Street,Worcester,MA,01608,(508) 459-0054
38,Accurate Metal Sales & Fabrication,"A Division of Industrial Transfer and Storage, Inc.",Southbridge,MA,01550,(508) 765-9178
39,Ace's,30 Reservoir Street,Marlborough,MA,01752,(774) 520-7104
40,Achieve Mental Health and Wellness,579 Pleasant St,Paxton,MA,01612,(508) 978-1945
41,ACRISURE,10 Institute Road,Worcester,MA,01609,(508) 754-1767
42,Acrisure (Wachusett),10 Institute Road,Worcester,MA,01609,(508) 829-2912
43,Acura Of Auburn,476 Southbridge Street,Auburn,MA,01501,(508) 832-0444
44,Adams Rib Shipping & Logistics LLC,30C Milton Street,Worcester,MA,01605,(774) 242-5012
45,"AdCare Hospital of Worcester, Inc.",107 Lincoln Street,Worcester,MA,01605,(508) 799-9000
46,Adobe,345 Park Avenue,San Jose,CA,95110-2704,
47,Advantage Truck Group (ATG),411 Hartford Turnpike,Shrewsbury,MA,01545,1-800-395-8494
48,Advocates,1881 Worcester Road,Framingham,MA,01701,(508) 628-6300
49,"Advocates, Inc.(BV)",1881 Worcester Rd,Framingham,MA,01701,(508) 628-6300
50,AECOM Tishman,1 Federal Street,Boston,MA,02110,617-723-2050
51,Aetna,151 Farmington Ave,Hartford,CT,06156,(917) 747-6333
52,AFC Urgent Care,117 Stafford St,Worcester,MA,01603,(508) 755-4010
53,Aflac,23 Pratt Lane,Shrewsbury,MA,01545,(617) 800-3911
54,Aframe & Barnhill,390 Main St.,Worcester,Massachusetts,01608,5087566940
55,AG Signs & Graphics,"139 Southbridge Street, Unit B",Auburn,MA,01501,(508) 283-7398
56,AHA Consulting Engineers,77 So. Bedford Street,Burlington,MA,01803,(781) 372-3000
57,ahp Architects,116 John Street,Lowell,MA,01852,(978) 244-1100
58,"Aimtek, Inc.",201 Washington Street,Auburn,MA,01501-3224,(508) 832-5035
59,Airport Hertz Dollar & Thrifty Car Re...,375 Airport Drive,Worcester,MA,01602,(508) 792-0537
60,AIS,25 Tucker Drive,Leominster ,MA,01453,(616) 560-2502
61,"Aisling Partners Insurance Brokerage,...",25 Harvard Street,Worcester,MA,01609,(508) 799-9100
62,Ajeh Business Solutions Inc,360 W.Boylston St,West Boylston,MA,01583,(508) 635-5223
63,AKROS Development,20 Franklin Street,Worcester,MA,01608,(774) 239-0886
64,Akyeampong Associates LLC,44 Bearfoot Rd,Northborough,MA,01532,(401) 217-3692
65,Albert Surabian REALTOR,92 Town Farm Road,Barre,MA,01005,(508) 981-7227
66,"AlcComply, LLC",,Mendon,MA,01756,(508) 561-1190
67,"Alfred L. Brown Associates, Inc.",P.O. Box 309,Auburn,MA,01501,(508) 754-5382
68,Alicia's Spice Co.,12 Aitchison Street,Worcester,MA,01604,(508) 762-9108
69,All One Credit Union,910 West Boylston Street,Worcester,MA,01606,1-800-649-4646
70,All One Credit Union (CLIN),159 Mechanic St,Clinton,MA,01510,(978) 466-7350
71,All One Credit Union (Hol),715 Main Street,Holden,MA,01520,(978) 537-8021
72,All One Credit Union (Wor),137 Shrewsbury Street,Worcester,MA,01604,(978) 466-7208
73,All Points Limousine ,31 River St.,Millbury,MA,01527,(800) 400-1900
74,All Star Incentive Marketing,660 Main Street,Fiskdale,MA,01518,(508) 347-7672
75,All Steel Fabricating Inc.,84 Creeper Hill Road,North Grafton,MA,01536,(508) 839-4471
76,Allan Dines Photography,32 Oak Hill Rd,Wayland,MA,01778-2918,(617) 593-7777
77,Allcare Medical Supply,30 Grafton Street,Millbury,MA,01527-3918,(508) 865-4857
78,AllCom Credit Union,36 Park Avenue,Worcester,MA,01609,(508) 754-9980
79,Allen Creative Group,"22 West Street, #1",Millbury,MA,01527,(508) 865-1255
80,"Allison Engineering Associates, Inc.","71 Dudley Road, Unit A",Sutton,MA,01590-0304,(508) 581-9100
81,Allstate Insurance,71 Main Street,Sturbridge,MA,01608,(508) 909-6784
82,AlmaMamaCoach,58 Birchwood Dr,Holden,MA,01520,(774) 464-9072
83,"ALPHA TRAVEL AGENCY, INC.",525 MAIN ST,WORCESTER,MA,01608,(508) 753-2242
84,Alphacare Staffing Co,11g Goldthwaite Rd 2,Worcester ,MA,01605,(774) 312-6358
85,AlphaGraphics,184 Main Street,Worcester,Massachusetts,01608,1-508-793-0956
86,"Alpha-Omega Direct Primary Care, LLC",111 Elm Street,Worcester,MA,01609,(508) 753-7700
87,Alpine Cleaners,P.O. Box 623,Fiskdale,MA,01518,(508) 347-8085
88,Alta on the Row,22 Mount Carmel Way,Worcester,MA,01605,(508) 762-1026
89,Altea's Eatery,259 Park Avenue,Worcester,MA,01609,(508) 767-1639
90,Alternatives for Health,426 Main Street,Sturbridge,MA,01566,(508) 347-2111
91,Alzheimer's Association MA/NH Chapter,100 North Parkway,Worcester,MA,01605,6173932147
92,Amazon,601 New Jersey Ave NW,Washington,DC,20001,(508) 397-4358
93,"Ambassador Recruiting Services, Inc.",210 Park Avenue,Worcester,MA,01609,(508) 233-0764
94,"American Alarm & Communications, Inc.",489 Washington Street,Auburn,MA,01501,(508) 453-2720
95,American Antiquarian Society,185 Salisbury Street,Worcester,MA,01609,(508) 755-5221
96,American Heart Association,"300 5th Avenue, Suite 6","Waltham, MA 02451-8750",MA,01507,(351) 213-9594
97,American Legion Chester P. Tuttle Pos...,88 Bancroft Street,Auburn,MA,01501,(508) 832-2701
98,American Red Cross of Central MA,2000 Century Drive,Worcester,MA,01606,(508) 595-3700
99,Andy's Neighborhood Canteen,9 Frederick Street,Webster,MA,01570,(856) 905-5028
100,Angel House Designs,24 Fiskdale Road,Brookfield,MA,01506,(508) 867-2517
101,"Angel-GUARD Products, Inc.",120 Goddard Memorial Drive,Worcester,MA,01603,(508) 791-1073
102,Anna Maria College,50 Sunset Lane,Paxton,MA,01612,(508) 849-3333
103,Anna Maria College (Wach),50 Sunset Lane,Paxton ,MA,01612,(617) 448-7153
104,Anokye Krom,687 Millbury Street,Worcester,MA,01607,(508) 753-8471
105,ANTHONY FERRANTE,406 Sterling Rd,Jefferson,MA,01522,(774) 253-4056
106,Antonio's Pizza by the Slice,286 Chander Street,Worcester,MA,01602,(774) 530-6000
107,Anytime Fitness,386 Shrewsbury Street,Worcester,MA,01604,508-796-5941
108,APEX ENTERTAINMENT,21 APEX DRIVE,MARLBOROUGH,MA,01752,(508) 251-8666
109,Aponi Aesthetics,99 Prescott Street,Worcester,MA,01605,(508) 791-2900
110,Apple,"700 K Street, NW, 7th Floor",Washington,DC,2001,(202) 486-5516
111,Apple Homecare and Rehab,41 Redemption Rock Trail,Sterling,MA,01564,(978) 422-0000
112,Appleton Corporation,800 Kelly Way,Holyoke,MA,01040,(413) 536-8048
113,Arcade Snacks ,P.O. Box 375,Auburn,MA,01501,(508) 832-6300
114,Architectural Heritage Foundation,525 Western Avenue,Brighton,MA,02135,(508) 769-3825
115,ARCO NATIONAL CONSTRUCTION - NEW ENGL...,30 Speen Street,Framingham,MA,01707,(617) 908-9734
116,ARCpoint Labs of Worcester,324 Grove Street,Worcester,MA,01605,(508) 796-5303
117,Ardent Staffing Solutions,5 Mount Royal Avenue,Marlborough,MA,01752,(508) 530-7209
118,ARS Technical Sales Corp,75 Sterling St,West Boylston,MA,01583,774-261-8698
119,Arthur Cole Painting Corporation,39 Mason Street,Worcester,MA,01610,(508) 799-9019
120,Arthur J. Gallagher Insurance Co.,145 Otis Street,Northborough,MA,01532,(914) 523-4988
121,Asa Waters Mansion,123 Elm Street,Millbury,MA,01527,(508) 865-0855
122,Ascentria Care Alliance,11 Shattuck Street,Worcester,MA,01605,(774) 243-3900
123,Asher Home Care,"3 Park Street, Suite 200",Leominster,MA,01453,(508) 366-8802
124,Asher Law Office,800 Main Street,Holden,MA,01520,(508) 829-6500
125,Assabet Advisors,P.O. Box 8,Holden,MA,01520,(508) 351-9666
126,Associated Foot Specialists,795 Main Street,Holden,MA,01520,(508) 829-6645
127,Associated General Contractors of MA,888 Worcester St.,Wellesley,MA,02482,(781) 786-8914
128,Associated Industries of Mass.,290 Donald Lynch Blvd.,Marlboro,MA,01752,(508) 786-9494
129,Associated Industries of Massachusett...,PO Box 961979,Boston,MA,02196-0134,(617) 488-8378
130,Associates in Otolaryngology Head & N...,100 MLK Jr. Blvd.,Worcester,MA,01608,(508) 757-0330
131,Assumption University,500 Salisbury Street,Worcester,MA,01609-1296,(508) 767-7323
132,AT&T Services Inc.,"492 Old Connecticut Path, Ste 210",Framingham,MA,01701,(617) 283-0210
133,Athol Savings Bank,388 Main Street,Athol,MA,01331,(978) 721-7030
134,Athy Memorial Home,111 Lancaster Street,Worcester,MA,01609,(508) 756-4689
135,Atlantic Fruit & Produce,P.O. Box 373,Bellingham,MA,02019,(508) 883-8326
136,"Atlas Distributing, Inc.",44 Southbridge Street,Auburn,MA,01501,(508) 791-6221
137,"Atlas Event Group, Inc.",50 Howe Ave.,Millbury,MA,01527,(508) 459-2011
138,"ATM Associates, LLC",P.O. Box 775,Sturbridge,MA,01566,(508) 347-3368
139,Atmosphere,2043 S Lamar Blvd,Austin,TX,78704,(617) 851-4313
140,Aubuchon Hardware (WDO),70 Worcester Road,Webster,MA,01570,(508) 949-2500
141,Auburn Industrial Development Corp.(A...,33 Elm Street,Clinton,MA,01510,(978) 365-4585
142,Auburn Industrial Development Corp.(C...,33 Elm Street,Clinton,MA,01510,(978) 365-4585
143,Auburn Lodge of Elks #2118,754 Southbridge Street,Auburn,MA,01501,(508) 832-9575
144,Auburn Mall,385 Southbridge Street,Auburn,MA,01501,(508) 832-2314
145,Auburn Media Group,336 South St,Auburn,MA,01501,(774) 633-9515
146,Auburn Pharmacy & Home Health Care,689 Southbridge Street,Auburn,MA,01501,508-832-6511
147,Auburn Primary Care and Aesthetics,489 Washington Street,Auburn,MA,01501-5709,(508) 796-9211
148,Auburn Public Schools,5 West Street,Auburn,MA,01501,(508) 832-7755
149,Auburn Youth & Family Services,21 Pheasant Court,Auburn,MA,01501,(508) 832-5707
150,Aucoin Ryan Realty,201 South Street,Southbridge,MA,01550,(508) 765-9155
151,"Audio Journal, Inc.",799 West Boylston St.,Worcester,MA,01606,(508) 797-1117
152,Austin & Stanovich Risk Managers LLC,1174 Main Street,Holden,MA,01520,(508) 829-8844
153,Autism Therapeutic Services,691 Grafton Street Suite 2,Worcester,MA,01604,(508) 304-9804
154,Automated Business Solutions,415 Kilbert Street,Warwick,RI,02886,(508) 764-1413
155,"AVIASNUG, INC","50 Prescott Street, Floor 1 Suite",Worcester,MA,01605,(774) 225-4074
156,Avidia Bank,1073 Main Street,Clinton,MA,01510,(978) 567-3611
157,Axe to Grind Barbershop & Supply Co.,174 Shrewsbury Street,Worcester,MA,01604,(774) 243-9259
158,"Ayacht Technology Solutions, LLC",P.O. Box 955,Bolton,MA,01740,(978) 779-7970
159,B2B MyToGo Source,168 Sutton Street,Uxbridge,MA,01569,(508) 839-6144
160,Baba Sushi ,309 Park Avenue,,,,(774) 304-1068
161,Backbone Broadcast,"290 Turnpike Rd, #5-321",Westborough,MA,01581,(844) 422-2526
162,Baja Munchies ,25 Francis Street,Worcester,MA,01606,(774) 366-4421
163,Bala Consulting Engineers,52 Temple Place,Boston,MA,02111,(617) 357-6060
164,"Ball Consulting Group, LLC",One Gateway Center,Newton,MA,02458,(617) 243-9950
165,Ballard Truck Center,442 Southwest  Cutoff,Worcester,MA,01604,(508) 753-1403
166,Ballybreen Ventures LLC,613 Main Street,Hingham,MA,02043,(617) 212-1048
167,Bancroft School,110 Shore Drive,Worcester,MA,01605,(508) 853-2640
168,Bank of America (Wor),100 Front Street,Worcester,MA,01608,(508) 770-7080
169,bankHometown,109 Elm Street,Millbury,MA,01527,(508) 865-5811
170,bankHometown (Aub),569 Southbridge Street,Auburn,MA,01501,(508) 721-7623
171,bankHometown (CMS),331 Main Street,Sturbridge,MA,01566,(508) 347-3312
172,bankHometown (WDO),31 Sutton Ave,Oxford,MA,01540,(508) 987-1200
173,bankHometown (WDO),4 Gore Road,Webster,MA,01570,(508) 943-6062
174,bankHometown (Wor),270 Grove Street,Worcester,MA,01605,(888) 307-5887
175,Barnum Financial Group,200 Crossing Blvd,Warwick,RI,02886,(401) 243-8811
176,"Barr & Barr, Inc.",446 Main Street,Worcester,MA,01608,(508) 879-5750
177,Barrows Hardware,15 Webster Street,Worcester,MA,01603,(508) 752-7191
178,"Bartholomew & Company, Inc.","370 Main Street, Suite 1000",Worcester,MA,01608,(508) 753-8807
179,"Bartholomew & Company, Inc.(Wach)",370 Main Street,Worcester,MA,01608,(508) 753-8807
180,Bartlett Tree Experts,3 Westec Drive,Auburn,MA,01501,(508) 756-2600
181,Bay Colony Development Corp.,230 3rd Ave,Waltham,MA,02451,(508) 735-5171
182,Bay Equity Home Loans,1355 Central Street,Leominster,MA,01453,(978) 235-0267
183,Bay Path Regional Vocational Technica...,57 Old Muggett Hill Road,Charlton,MA,01507,(508) 248-5971
184,Bay Path Regional Vocational Technica...,57 Old Muggett Hill Road,Charlton,MA,01507,(508) 248-5971
185,"Bay State Brewery & Tap Room, LLC",112 Harding Street,Worcester,MA,01604,(508) 353-9272
186,Bay State Savings Bank (Aub),123 Auburn Street,Auburn,MA,01501,(508) 890-8980
187,Bay State Savings Bank (Hol),628 Main Street,Holden,MA,01520,(508) 890-8960
188,Bay State Savings Bank (Wor),28 Franklin Street,Worcester,MA,01608,(508) 890-9000
189,Bay State Steel,23 Charlotte Street,Lancaster,MA,01523,(518) 812-1268
190,Bayberry Bowling Center,326 Main Street,Spencer,MA,01562,(508) 885-4876
191,Baystate Dental of Sturbridge,"100 Charlton Road, Suite 25",Sturbridge,MA,01566,(774) 490-9099
192,Baystate Marketing,220 Fortune Blvd,Milford,MA,01757,(508) 488-4165
193,BB & R Design Build,95 Prescott Street,Worcester,MA,01605,(508) 829-1900
194,"BBB of Central N.E., Inc. (BV)",400 Grove Street,Worcester,MA,01605,(508) 755-3340
195,"BBB of Central N.E., Inc. (CMS)",400 Grove Street,Worcester,MA,01605,(508) 755-3340
196,"BBB of Central N.E., Inc. (HOL)",400 Grove Street,Worcester,MA,01605,(508) 755-3340
197,"BBB of Central N.E., Inc. (Wor)",400 Grove Street,Worcester,MA,01605,(866) 566-9222
198,"BBB of Central N.E., Inc.(WDO)",400 Grove Street,Worcester,MA,01605,(508) 755-3340
199,Be or Become,1031 Providence Rd,Whitinsville,MA,01588,(508) 722-4400
200,"Beals and Thomas, Inc.",144 Turnpike Road,Southborough,MA,01772,508-366-0560
201,Bean Counter Bakery Cafe,270 Grove Street,Worcester,MA,01605,(508) 754-0505
202,Bearingstar Insurance Agency,200 Friberg Pkwy,Westborough,MA,01581,(508) 948-9476
203,Beechwood Hotel ,363 Plantation Street,Worcester,MA,01605,(508) 453-1112
204,Benchmark Strategies,1 Boston Place,Boston,Ma,02108,(617) 733-1290
205,"Benedict Canyon Equities, Inc.","10100 Santa Monica Blvd., Suite 420",Los Angeles,CA,90067,(310) 431-5690
206,"Bennett & Forts, P.C.",1093 Main Street,Holden,MA,01520,(508) 829-6901
207,Benoit Design Group,645 Chandler Street,Worcester,MA,01602,(508) 421-3900
208,Berkshire Bank (Hol),1055 Main Street,Holden,MA,01520,(508) 829-7733
209,Berkshire Bank (WDO),25 Worcester Road,Webster,MA,01570,(508) 943-4408
210,Berkshire Bank (Wor),386 Main Street,Worcester,MA,01615-0020,(508) 797-6800
211,Berthiaume & Berthiaume,P.O. Box190,North Brookfield,MA,01535,(508) 867-6885
212,Best Buddies International,51 Union Street,Worcester,MA,01608,(617) 778-0522
213,"Beta Group, Inc.",701 George Washington Highway,Lincoln,RI,02865,(401) 333-2382
214,Bethel Law Group,44 Bearfoot Road,Northborough,MA,01532,(508) 439-4445
215,Better Homes,6 Trottier Street,Worcester,MA,01606,(508) 340-3960
216,Better Life with Yoga,351 Main Street-1st Floor,Oxford,MA,01540,(774) 446-9898
217,Between The Lines Copywriting,57 Walnut Street,Holden,MA,01520,(774) 364-2766
218,"Beveridge & Diamond, P.C.",155 Federal Street,Boston,MA,02110,(617) 419-2300
219,BeYOUtiful,PO Box 20428,Worcester,MA,01602,(860) 938-0187
220,"Big Belly Cafe, Inc",101 Lakeside Ave,Webster,MA,01570,(508) 380-7697
221,Big Brothers Big Sisters Central Mass...,18 Chestnut Street,Worcester,MA,01608,(508) 752-7868
222,Big Bunny Market,"942 Main Street, Big Bunny Plaza",Southbridge,MA,01550,(508) 765-9824
223,Bigelow Free Public Library,54 Walnut St,Clinton,MA,01510,(978) 365-4160
224,Binh An Market,64 Green Street,Worcester,MA,01604,(508) 798-6960
225,BioLife Plasma Services,68 Stafford St.,Worcester,MA,01603,(508) 713-0133
226,Biomere,57 Union Street,Worcester,MA,01608,508-459-7544
227,"Biondolillo Associates, LLC ",P.O. Box 812120,Wellesley,MA,02482,(781) 254-0044
228,Bio-One Worcester,119 Boston Turnpike,Shrewsbury,MA,01545,(774) 224-6251
229,Biotech Builders Group,833 New West Townsend Rd,Lunenburg,MA,01462,(617) 862-8682
230,Birch Tree Bread Company,138 Green Street,Worcester,MA,01604,(774) 243-6944
231,Bistro Eighty Ates,172 Gore Road,Webster,MA,01570,(508) 949-8888
232,Blackstone Heritage Corridor,"670 Linwood Avenue, Suite 10",Whitinsville,MA,01588,(508) 234-4242
233,Blackstone Management & Consulting,372 Boston Road,Sutton,MA,01590,(508) 865-1444
234,Blackstone National Golf Club,227 Putnam Hill Road,Sutton,MA,01590,(508) 865-2111
235,Blackstone Senior Center,15 St. Paul Street,Blackstone,MA,01504,(508) 876-5135
236,Blackstone Valley Hub For Workforce,"670 Linwood Ave, Suite 5",WHITINSVILLE,MA,01588,(508) 266-7158
237,Blackstone Valley Physical Therapy Se...,"670 Linwood Avenue, Suite 2",Whitinsville,MA,01588,(508) 234-7544
238,Blackstone Valley Regional Vocational...,65 Pleasant Street,Upton,MA,01568,(508) 529-7758
239,Blackstone Valley Rotary Club,P.O. Box 4,Whitinsville,MA,01588,(978) 387-8252
240,BLESSFUL CATERING AND EVENTS ,25 Francis street,Worcester ,MA,01606,(774) 239-2698
241,Blissful Meadows Golf Club/Meadowview...,801 Chockalog Road,Uxbridge,MA,01569,(508) 278-6110
242,"Bloom By JLouise, LLC",222 Brooks Street,Worcester,MA,01606,(508) 579-4316
243,Blooming  Staffing Agency,65 James Street,Worcester,MA,01603,(774) 535-6838
244,Blue Cross Blue Shield of MA,"101 Huntington Avenue, Suite 1300",Boston,MA,02199,(617) 246-5000
245,BlueHive Exhibits,7 Coppage Drive,Worcester,MA,01603,(508) 581-9560
246,Bluestone Residential Inc,35 Norwood Ave,Newton,MA,02459,(508) 635-4356
247,Bogey Lanes,199 North Brookfield Road,E. Brookfield,MA,01515,(508) 867-6629
248,Bohio Clean,11 Apex Drive Suite 300 A,Marlboro,MA,01752,(978) 615-9894
249,Bohler Engineering,352 Turnpike Road,Southborough,MA,01772,(508) 480-9900
250,Boisset Collection Independent Ambass...,23 Lindsey Way,Lancaster,MA,01523,(978) 257-1142
251,Boland's Bar and Patio,81 Water Street,Worcester,MA,01604,(508) 459-2207
252,"Bollus Lynch, LLP","89 Shrewsbury Street, Suite 200",Worcester,MA,01604,(508) 755-7107
253,Bolton Orchards,125 Still River Road,Bolton,MA,01740,(978) 779-2733
254,"Bond Building Construction, Inc.","10 Cabot Road, Suite 300",Medford,MA,02155,(617) 387-3400
255,Bond Construction Corp.,98 North Spencer Road,Spencer,MA,01562,(508) 885-2480
256,"Boniface Tool & Die, Inc.",181 Southbridge Road,Dudley,MA,01571-6925,(508) 764-3248
257,"Boston Document Systems, Inc.",417 South St. Suite 9,Worcester,MA,01752,(617) 532-0901
258,Boston Graphic Design Studio LLC,Greater Boston Area,,,,(508) 838-9385
259,Boston Hides Limited Company,24 Jolma Road,Worcester,MA,01604-2010,(617) 884-1566
260,"Botany Bay Construction Co., Inc.",55 Botany Bay Road,Worcester,MA,01602,508-756-2147
261,"Boucher Energy Systems, Inc.",88 Millville Street,Mendon,MA,01756,(508) 473-6648
262,Bowditch & Dewey,311 Main Street,Worcester,MA,01615-0156,(508) 791-3511
263,Bowditch Attorneys (BV),311 Main Street,Worcester,MA,01615-0156,(508) 791-3511
264,Bowdoin Construction Corp.,Worcester Business Center,Worcester,MA,01606,(781) 444-6302
265,Boyle Shaughnessy Law PC,100 Front Street,Worcester,Massachusetts,01608,617-451-2000
266,Boys & Girls Club of Webster Dudley,55 Oxford Avenue,Dudley,MA,01571,5089430037
267,Boys & Girls Club of Worcester,65 Tainter Street,Worcester,MA,01610-2520,(508) 754-2686
268,Bozzuto Construction Company,60 Mall Road,Burlington,MA,01803,(301) 220-0100
269,Brad's Powerwashing & Window Washing,12 Duncannon Ave,Worcester,MA,01604,(774) 545-5859
270,Brady Sullivan Properties,670 North Commercial Street,Manchester,NH,03101,(603) 622-6223
271,Braley & Wellington Insurance Agency,P.O. Box 15127,Worcester,MA,01615-0127,(508) 754-7255
272,Braman Termite & Pest Elimination,275 Washington Street,Auburn,MA,01501,(508) 755-5410
273,Breezelands Orchards,1791 Southbridge Road,Warren,MA,01083-0689,(413) 436-7100
274,Breezy Picnic Grounds Waterslides,538 N.W. Main Street,Douglas,MA,01516,(508) 476-2664
275,"Brenda M. Bianculli, CPA, LLC",114 Masonic Home Road,Charlton,MA,01507,(508) 248-2727
276,Briarwood Retirement Community,65 Briarwood Circle,Worcester,MA,01606,1-508-852-2670
277,Brick Marketing,101 Federal Street,Boston,MA,02110,(781) 999-1222
278,Bright Feeds,5 Brussels Street,Worcester,MA,01610,(508) 459-2434
279,Bright Future Financial LLC,975 Merriam Ave,Leominster,MA,01453,(978) 534-0130
280,Brimfield Antiques Center,P.O. Box 714,Fiskdale,MA,01518,(508) 347-3929
281,Brimfield Promoters' Association,P.O. Box 332,Brimfield,MA,01010-0332,(413) 626-0927
282,Bri's Sweet Treats,31 Carleton Road,Rochdale,MA,01542,(774) 253-0472
283,"Britton Funeral Homes, Inc.",P.O. Box 198,Auburn,MA,01501-0198,(508) 832-4420
284,Broadway Enterprise Inc.,100 Water Street,Worcester,MA,01604,(508) 753-7121
285,Broadway in Worcester,2 Lauf Street,Worcester,MA,01602,(508) 517-6718
286,Brookdale at Eddy Pond,667/669 Washington Street,Auburn,MA,01501,(508) 832-2200
287,"Brookfield Orchards, Inc",12 Lincoln Road,North Brookfield,MA,01535-0408,(508) 867-6858
288,Brookside Rehabilitation and Healthca...,11 Pontiac Ave,Webster,MA,01570,(508) 943-3889
289,Brown Brothers Harriman,14 Ridge Street,Worcester,MA,01604,(508) 685-0723
290,Brush It Off LLC,"559 Main Street, Suite 103-104",Sturbridge,MA,01518,(413) 636-5628
291,Bryley Systems Inc.,200 Union Street,Clinton,MA,01510-2938,(978) 562-6077
292,BT's Smokehouse and Catering,38 Westwood Drive,Sturbridge,MA,01566-1397,(413) 245-1095
293,BUDGET AUTO DEAL AND MORE SERVICES IN...,224 A S CUTOFF,WORCESTER,MA,01604,(508) 731-5996
294,Budget Blinds of Leominster and Sterl...,129 Pine Street,Clinton,MA,01510,(508) 581-0640
295,Budget Blinds of Worcester & Holden,41 Keith Hill Road,Grafton,MA,01519,(774) 670-8161
296,Budget Solution Services,1 A Rice Square,Worcester,MA,01604,(508) 731-5996
297,Bud's Goods & Provisions Corp,64 West Boylston St,Worcester,MA,01606,
298,BuildBak Central Mass,,,,,(508) 736-2322
299,Building Evolution Corporation,138 Green Street,Worcester,Massachusetts,01604,(508) 475-9016
300,"Building Operations, LLC",434 Mammoth Road,Pelham,NH,03076,(617) 799-4341
301,Bull God Lawn Care,33 Sibley Rd,Barre,MA,01005,(978) 355-4610
302,Buma Funeral Homes,480 Church Street,Whitinsville,MA,01588,(508) 234-2362
303,"Burbs and Boroughs Boutique,LLC",45 Sterling St,West Boylston,MA,01583,(774) 261-8033
304,Burgess Consulting,19 South Cove Road,Hubbardston,MA,01452,(978) 479-9904
305,Burnham & Nale Insurance Agency,19 Everett Street,Southbridge,MA,01550-2619,(508) 765-0651
306,Burnham Landscape & Maintenance Co.,789 Wachusett Street,Holden,MA,01520,(508) 829-3809
307,"Burr Insurance Agency, Inc.","40 Southbridge Street, Suite 215",Worcester,MA,01608,(508) 753-4784
308,"Business Development Strategies, Inc.",P.O. Box 26,Medway,MA,02053,508-966-4300
309,"Business Improvement Group, LLC",354 Barre Road,Petersham,MA,01366,617-803-9433
310,Busy Bee Nursery & Landscape Construc...,Route 68,Holden,MA,01522,(508) 829-5380
311,BWT LLC (Transport & Logistics),291 Main st,Northborough,MA,01532,(774) 386-1026
312,ByteMorph.ai,62 High Point Drive,NORTH GRAFTON,MA,01536,(617) 583-3145
313,C.B. Blair Real Estate,87 Main Street,Rutland,MA,01543,(508) 886-4832
314,"C.D. Whitney Insurance Agency, Inc.",P.O. Box 15127,Worcester,MA,01615,(508) 762-3860
315,"C/W MARS, Inc.","67 Millbrook Street, Suite 201",Worcester,MA,01606,(508) 755-3323
316,"Cafe Neelu, Inc.",100 Grove Street,Worcester,MA,01605,(508) 944-6135
317,Cafe Neo,97 Millbury Street,Worcester,MA,01610,
318,Cake Shop Cafe,22a West Street,Millbury,MA,01527,(508) 865-9866
319,Calabria Ristorante,7 South Main Street,Millbury,MA,01527,(508) 581-9700
320,Callahan-Fay and Caswell Funeral Home,61 Myrtle Street,Worcester,MA,01608,(508) 755-1500
321,Camosse Masonry Supply,64 Southwest Cutoff,Worcester,MA,01604-01517,(508) 755-6193
322,"Cam's Oil Service, Inc.",3 Old Worcester Road,Webster,MA,01570,(508) 943-0415
323,Cancelmo CPA LLC,159 Main Street,Spencer,MA,01562,(508) 885-5308
324,Canterbury Vision Care,"67 West Boylston Street, Suite 11",West Boylston,MA,01583,(508) 854-0595
325,"Capital Strategic Solutions, LLC",11 Apex Drive,Marlborough,MA,01752,(508) 690-0046
326,Capitol Siding & Home Improvement (Au...,30 Auburn Street,Auburn,MA,01501,(508) 832-5981
327,Capitol Siding & Home Improvement (BV...,30 Auburn Street,Auburn,MA,01501,(508) 832-5981
328,Carbonneau Bridal and Formalwear,60 Shrewsbury Street,Worcester,MA,01604,(774) 222-3414
329,"Care Central VNA & Hospice, Inc.",34 Pearly Lane,Gardner,MA,01440,(978) 632-1230
330,CareSource,230 N Main St,Dayton,OH,45402,(937) 224-3300
331,"Caring Medical Staffing, LLC",1350 Main Street,Springfield,MA,01103,(413) 435-0226
332,Carpenters Union Local 336,29 Endicott St,Worcester,MA,01610,(508) 886-5950
333,Carr Financial Group,20 Park Ave,Worcester,MA,01605,(508) 795-0264
334,Carr Funeral Home,24 Hill Street,Whitinsville,MA,01588,(508) 234-2330
335,CASA Project Worcester,100 Grove Street,Worcester,Massachusetts,01605,(508) 757-9877
336,"Casella Waste Services, Inc. (Wach)",49 Sword Street,Auburn,MA,01501,(508) 860-2131
337,Cataldo Ambulance Service Inc,79 May Street,Worcester,MA,01602,(617) 625-0126
338,Catholic Charities Worcester County,10 Hammond Street,Worcester,MA,01610,508-798-0191
339,CCR Wealth Management,1800 West Park Drive,Westborough,MA,01581,(508) 475-3855
340,Cecil's Bite,14 Arbutus Rd,WORCESTER,MA,01606,(915) 262-7389
341,Center for Applied Behavioral Instruc...,345 Greenwood Street,"Worcester , Ma 01607",MA,01607,(774) 573-0291
342,Center for Health Impact,35 Harvard St.,Worcester,MA,01609,(508) 756-6676
343,Center for Living & Working,18 Chestnut Street,Worcester,MA-Massachusetts,01608,(508) 798-0350
344,Center of Hope,100 Foster Street,Southbridge,MA,01550-0066,(508) 764-4085
345,Central Mass Nephrology LLC,123 Summer St,Worcester,MA,01608,(508) 363-6008
346,"Central Mass. Oil Co., Inc.",P.O. Box 276,Rutland,MA,01543-0276,(508) 886-6823
347,Central Mass. Regional Planning Comm.,"1 Mercantile Street, Suite 520",Worcester,MA,01608,(508) 756-7717
348,Central Massachusetts Collaborative,14 New Bond Street,Worcester,MA,01606,(508) 538-9100
349,Central Massachusetts Housing Allianc...,6 Institute Road,Worcester,MA,01609,(508) 752-5519
350,Central One Federal Credit Union,714 Main Street,Shrewsbury,Massachusetts,01545,(508) 527-1017
351,"Centro Las Americas, Inc.",11 Sycamore Street,Worcester,MA,01608,(508) 798-1900
352,Century 21 XSELL REALTY,203 Southbridge Street,Auburn,MA,01501,1-508-335-5339
353,Century Homecare,65 Water Street,Worcester,MA,01604,(888) 292-1809
354,Century Tool Company,P.O. Box 314,Thompson,CT,06277,(860) 923-9523
355,"Cerrone, Graham & Shepherd, P.C.","446 Main Street, 10th Floor",Worcester,MA,01608,(508) 754-8512
356,Chacharone Properties,"One West Boylston Street, Suite LL05",Worcester,MA,01605,(508) 853-5066
357,Challahbat,7 Hartshorn Avenue,Worcester,MA,01602,(774) 670-8593
358,Challenge Yourself Fitness,589 Main st,Cherry Valley,MA,01611,(774) 823-2659
359,chamilton_studios,857 Hampton Road,Pomfret Center,CT,06259,(860) 634-7671
360,"Chapman Education, LLC",17 Shepard Lane,Shrewsbury,MA,01545,(617) 823-5403
361,"charCUTErie woo, LLC",20 Crowningshield Drive,Paxton,MA,01612,(508) 450-5561
362,"Charles M. Moran Plumbing & Heating, ...",54 Allen Street,Clinton,MA,01510,(978) 368-0355
363,Charles Street Strategies,10 Derne Street,Boston,MA,02114,(617) 759-8917
364,Charlton Chiropractic Center,"35 Trolley Crossing Road, Suite 2",Charlton,MA,01507,(508) 248-6336
365,Charniak Insurance Agency,274 Main Street,Webster,MA,01570,(508) 943-0938
366,Charter Communications (Wor),301 Barber Avenue,Worcester,MA,01606,(774) 243-9739
367,Charter Oak Country Club,394 Chestnut St.,Hudson ,MA,01749,978-562-0800
368,Chashu Ramen,38 Franklin Street,Worcester,MA,01608,(508) 304-8704
369,Che Empanada,19 Kelley Sq,Worcester,MA,01610,1-781-268-7782
370,Chickadee Tax Services LLC,316 Main Street,Sturbridge ,MA,01566,(774) 452-5710
371,Chickee's Dance World,Worcester Business Center,Worcester,MA,01606,(508) 792-0959
372,Chick-fil-A Worcester,80 Gold Star Blvd.,Worcester,MA,01606,(508) 459-9852
373,Chocksett Inn,59 Laurelwood Road,Sterling,MA,01564,(978) 422-3355
374,Chocksett Inn (CLIN),59 Laurelwood Road,Sterling,MA,01564,(978) 422-3355
375,Choice Words/Chisolm & Co.,"100 Front Street, Suite 400",Worcester,MA,01608,(508) 856-7207
376,Choice1Graphics,505 South Main Street,Webster,MA,01570,(508) 949-2024
377,Choice1Temps,505 South Main Street,Webster,MA,01570,(508) 943-3867
378,Chop Chop Convenience,2 Mount Royal Ave.,Marlborough,MA,01752,(508) 930-8085
379,Christopher Group,490 Shrewsbury St,Worcester,MA,01608,(617) 980-6845
380,Christopher Heights of Webster (CMS),338 Thompson Road,Webster,MA,01570,(508) 949-0400
381,Christopher Heights of Webster (WDO),338 Thompson Road,Webster,MA,01570,(508) 949-0400
382,Christopher Heights of Worcester,20 Mary Scano Drive,Worcester,MA,01605,(508) 792-1456
383,Christopher House of Worcester,10 Mary Scano Drive,Worcester,MA,01605,(508) 754-3800
384,Christopher House of Worcester (Wach),10 Mary Scano Drive,Worcester,MA,01605,(508) 754-3800
385,"Christopher, Hays, Wojcik & Mavricos,...","370 Main Street, Suite 970",Worcester,MA,01608,(508) 792-2800
386,"Christopher's Homemade Ice Cream, LLC",22 West Street,Millbury,MA,01527,(508) 277-8782
387,Cinch I.T.,27 West Mountain Street,Worcester,MA,01606,(508) 425-4714
388,Citadel Company LLC,131 E. Main Street,Webster,MA,01570,(508) 943-1685
389,"Citizens Disability, LLC",1050 Winter Street,Waltham,MA,02451,(508) 449-4892
390,Citrin Cooperman,"100 Front Street, 16th Floor",Worcester,MA,01608,(508) 757-2322
391,Cityblock Health,100 Grove Street,Worcester,MA,01605,1-833-904-2273
392,CkSmithSuperior,99 Crescent Street,Worcester,MA,01605,(508) 753-1475
393,CLA (CliftonLarsonAllen LLP),100 Front Street,Worcester,MA,01608,(508) 713-6900
394,"Clarendon Early Education Services, I...",370 Merrimack Street,Lawrence,MA,01843,(781) 275-2720
395,Clark Mailing Service,41 Jackson Street,Worcester,MA,01608,(508) 752-1953
396,Clark University,950 Main Street,Worcester,MA,01610,(508) 793-7615
397,Clark's Dog Kennel,425 School Street,Northbridge,MA,01534,(774) 644-1480
398,Clash Physical Therapy and Health Ser...,3 Brussels St,"WORCESTER, MA",MA,01601,(774) 314-2487
399,Classic Concrete,800 Main St,Holden,MA,01520,(508) 922-4937
400,Classic Suites & Inns,181 West Boylston Street,West Boylston,MA,01583,(508) 835-4234
401,"Clear Channel Outdoor, LLC",89 Maple St.,Stoneham,MA,02180,(781) 438-8880
402,Clear Vision Alliance LLC,600 North Liberty Street,Belchertown,MA,01007,(413) 283-7091
403,ClearPath Financial Partners,1 E. Main Street,Northborough,MA,01532,(508) 219-7221
404,Clearway Clinic,358 Shrewsbury Street,Worcester,MA,01608,(508) 438-0144
405,"Clifford & Rano Associates, Inc.",57 Cedar Street,Worcester,MA,01609,(508) 752-8284
406,Clinton Community TV,242 Church St,Clinton,MA,01501,(978) 365-4233
407,Clinton Dental,1175 Main Street,Clinton,MA,01510,(978) 733-0045
408,"Clinton Greenway Conservation Trust, ...",16 Harbor Street,Clinton,MA,01510-1818,(978) 549-5686
409,Clinton Historical Society,PO Box 286/Holder Memorial,Clinton ,MA,01510,(978) 368-0084
410,Clinton Offset Printers,472 High Street,Clinton,MA,01510,(978) 365-4396
411,Clinton Public Schools,150 School St.,Clinton,MA,01510,(978) 365-4200
412,Clinton Savings Bank (CLIN),200 Church Street,Clinton,MA,01510,(978) 365-3444
413,Clintons Bar And Grille,27 High Street,Clinton,MA,01510,(978) 598-7002
414,Clisbee Welding,715 Millbury Street,Worcester,MA,01607,(508) 926-8041
415,"Closet & Storage Systems, Inc.",81 Pinehurst Avenue,Auburn,MA,01510,(508) 832-4044
416,"CLS MOLD TESTING, LLC",635 Arnold Road,Coventry,RI,02816,(401) 524-5259
417,CMEA - The Employers Association,"182 Turnpike Road, Suite 227",Westborough,MA,01581,(508) 481-5244
418,Coastal Medical Transportation System...,111 Brook Road,Quincy,MA,02169,(617) 745-9999
419,Coastline EAP,931 Jefferson Blvd.,Warwick,RI,02886,(401) 732-9444
420,Coghlin Companies,27 Otis Street,Westborough,MA,01581,(508) 753-2354
421,"Coghlin Electrical Contractors, Inc.",100 Prescott Street,Worcester,MA,01605,(508) 793-0300
422,"Cogswell Sprinkler Co., Inc.",22 Canterbury Street,Worcester,MA,01610,(508) 753-0015
423,Cohasse Country Club,393 Eastford Road,Southbridge,MA,01550-0567,(508) 764-6801
424,ColBro First Aid & Safety Training (W...,107 New Braintree Road,Oakham,MA,01068,(508) 882-1111
425,ColBro Scale Services,107 New Braintree Road,Oakham,MA,01068,(508) 882-1111
426,College of the Holy Cross,1 College Street,Worcester,MA,01610,(508) 793-3995
427,Colliers Project Leaders,100 Federal Street,Boston,MA,02110,
428,Colony Liquors,683 Southbridge Street,Auburn,MA,01501,(508) 832-9454
429,Colony Retirement Homes,101 Chadwick St,Worcester,MA,01605-1273,(508) 755-0444
430,Combined Ins a Chubb Company ,1 Fairview Ave,Dudley ,MA,01571,(508) 395-2653
431,Combined Insurance Company of America,44 Bearfoot Rd,Northborough,MA,01532,(978) 697-5247
432,Comfort Inn & Suites,215 Charlton Road,Sturbridge,MA,01566,(508) 347-3306
433,Comfort Inn & Suites (CMS),426 Southbridge Street,Auburn,MA,01501,(508) 832-8300
434,Comfort Inn (Aub),426 Southbridge Street,Auburn,MA,01501,(508) 832-8300
435,Comm. Health Awareness Network Grows ...,51 Gage Street,Worcester,MA,01605,(774) 253-0534
436,Commerce Associates,332 Main Street,Worcester,MA,01608-1604,(508) 791-9258
437,Commercial Energy Management,P.O. Box 30006,Worcester,MA,01603-0006,(508) 752-1322
438,"Commercial Graphics, Inc.",PO Box 20323,Worcester,MA,01602,(508) 615-5117
439,Commodore Builders,404 Wyman Street,Waltham,MA,02451,(617) 614-3500
440,"Commonwealth Consulting Group, LLC",1 Mercantile St.,Worcester,MA,01608,(800) 866-3944
441,"Commonwealth Dermatology, LLC",100 MLK Jr. BLVD,Worcester,MA,01608,(774) 389-0887
442,Community Creations Studio,1320 Wachusett Street,Jefferson,MA,01522,(508) 829-1775
443,Community EMS Inc. (CEMS),53 Glennie Street,Worcester,MA,01606,(508) 485-4544
444,Community Foundation of North Central...,649 John Fitch Hwy,Fitchburg,MA,01420,(978) 230-1001
445,Community Harvest Project Inc.,37 Wheeler Road,No. Grafton,MA,01536,(774) 551-6544
446,Complete Pest Solutions of Central Ma...,914 Barre Road,New Braintree,MA,01531,(978) 660-3345
447,Computer Central,PO Box 20339,Worcester,MA,01602,(508) 829-0000
448,Concierge Physical Therapy,64 Worcester Providence Turnpike,Sutton,MA,01590,(774) 275-0891
449,Concordia Exchange,8 Norwich St.,Worcester,MA,01608,(508) 308-1160
450,CONEXMEDIA SERVICES,90 Madison Street,Worcester,MA,01608,(508) 372-0626
451,Coney Island Hot Dogs,158 Southbridge Street,Worcester,MA,01608,(508) 753-4362
452,Connectivity Point Design & Installat...,803 Main Street,Leicester,MA,01524,(508) 797-6612
453,ConnectPay Payroll Services,10 Groton Place,Worcester,MA,01604,(617) 866-8410
454,"Consigli Construction Co., Inc.",72 Sumner Street,Milford,MA,01757,(508) 473-2580
455,Conte Insurance Agency,579 Pleasant Street,Paxton,MA,01612,(508) 757-6401
456,Control Point Heating & Air Condition...,155 Memorial Drive Suite D,Shrewsbury,MA,01545,(508) 845-4822
457,ConvenientMD Urgent Care,70 Gold Star Blvd,Worcester,MA,01606,(508) 426-9002
458,Cook Prof. Resources DBA Safety Train...,12 Bylund Ave,Auburn,MA,01501,(508) 799-2857
459,Cook's Farm Orchards,106 Haynes Hill Road,Brimfield,MA,01010,(413) 245-3241
460,Coolbawn Road Productions,182 Chester Street,Worcester,MA,01605,(508) 868-7552
461,Cordials Catering and Beverages,360 West Boylston Street,West Boylston,MA,01583,(508) 864-1570
462,"Core Business XP Solutions, Inc.",600 North Liberty Street,Belchertown,MA,01007,(413) 283-7091
463,Cornerstone Bank (CMS),253-257 Main Street,Southbridge,MA,01550,(800) 939-9103
464,Cornerstone Bank (Hol),1073 Main Street,Holden,MA,01520,(508) 829-0865
465,Cornerstone Bank (Wach),93 Main Street,Rutland,MA,01543,(508) 886-2291
466,Cornerstone Bank (WDO),86 Worcester Road,Webster,MA,01570,(800) 939-9103
467,Cornerstone Bank (Wor),70 West Boylston Street,Worcester,MA,01605,(800)939-9103 x71750
468,Cornerstone Bank (Wor),176 Main Street,Spencer,MA,01562,(800) 939-9103
469,Corporate Benefit Plans,195 Park Avenue,Worcester,Massachusetts,01609,(800) 417-6353
470,Corporate Benefit Plans (WDO),195 Park Avenue,Worcester,MA,01609,(508) 770-0207
471,Corporate Financial Consulting LLC,P.O. Box 491,Whitinsville,MA,01588,(508) 234-4591
472,Corry Associates LLC,6 Beacon Street,Boston,MA,02108,(617) 429-7555
473,Country Bank (WACH),687 Pleasant Street,Paxton,MA,01612,(800) 322-8233
474,Country Bank (Wor),15 South Street,Ware,MA,01082,(413) 967-6221
475,"Country Folk Art Shows, Inc.",15045 Dixie Highway,Holly,MI,48442-9770,(248) 634-4151
476,Country Montessori Inc,30 Burbank Rd.,Sutton ,MA,01590,(508) 865-4223
477,Courthouse Lofts,2 Main Street,Worcester,MA,01608,(857) 239-1470
478,Courtney Taylor,4 Cheever St,Worcester,MA,01610,(508) 344-8420
479,Courtyard Marriott & Hampton Inn Worc...,72 Grove Street,Worcester,MA,01605,(508) 363-0300
480,Creative Office Resources,14A East Worcester St.,Worcester,MA,01604,(508) 752-8008
481,Creative Pulse,36 Cudworth Road,Webster,MA,01570,(617) 356-8002
482,Criterion Group,28-18 Steinway Street,Astoria,NY,11103,(718) 204-0300
483,Crocker Architectural Sheet Metal,129 Southbridge Road,North Oxford,MA,01537-1210,(508) 987-9900
484,CrossFit Charlton,168 Worcester Road,Charlton,MA,01507,(508) 769-2308
485,Crown Trophy (Wor),265 Main Street,Northborough,MA,01532,(508) 393-4929
486,Cruise Planners,210 Park Avenue,Worcester,MA,01609,(774) 261-8160
487,Cruz Realty Group with C21 North East,364 Boston Turnpike Rd,Shrewsbury,MA,01545,(508) 769-3532
488,"Cryogenic Institute of New England, I...",78 Chilmark Street,Worcester,MA,01604,(508) 459-7447
489,CS2 Computers Inc.,PO Box 436,Holden,MA,01520,(508) 755-9540
490,"CSX Transportation, Inc",One Bell Crossing Road,Selkirk,NY,12158,
491,"Culture Builders Cooperative, LLC",15 Van Winkle Street,Boston,MA,02124,(774) 274-0709
492,Culture Redesigned LLC,44 Portland st,Worcester,MA,01604,(774) 287-9782
493,Cultured Health,5 Cedar Street,Hopkinton,MA,01748,(508) 382-2999
494,"Cummings Well & Pump Services, Inc.",1040 Princeton Street,Jefferson,MA,01522,(508) 829-0080
495,Cumulus Broadcasting (Wor),WXLO / The Pike WWFX & WORC FM,Worcester,MA,01608,(508) 752-1045
496,Cumulus Media (WACH),250 Commercial St,Worcester,MA,01608,(774) 249-0024
497,Cunningham Equities,500 Main Street,Clinton,MA,01510,(774) 364-1129
498,Currie Legal Nurse Consulting,199 Jackson St,Jefferson,MA,01522,(508) 210-0011
499,Curry Printing (Wor),190 Turnpike Road,Westborough,MA,01581,(508) 751-6600
500,"Custom Insulation Co., Inc.",16 Jacques Street (Rear),Worcester,MA,01603-1901,(508) 755-2315
501,Cutler Management Corp.,43 Harvard Street,Worcester,MA,01609,(508) 792-1111
502,Cynthia Klocek Realtor - Coldwell Ban...,41 January Lane,Holden,MA,01520,(617) 877-7793
503,Cyprian Keyes Golf Club,P.O. Box 1999,Boylston,MA,01505,(508) 869-9900
504,D&A Wear LLC,16C Kennebec Street,Worcester,MA,01606,(774) 225-7168
505,"D&S Manufacturing Co, Inc.",14 Sword St # 4,Auburn,MA,01501,(413) 569-5688
506,"D.A. Sullivan & Sons, Inc.",82-84 North St.,Northampton,MA,01060,(413) 584-0310
507,D2L Productions,,Worcester,MA,01510,(774) 708-2946
508,Dan Amorello Services,1069 Millbury St,Worcester,MA,01607,(508) 798-6717
509,Daniel T. Morrill Funeral Home,130 Hamilton Street,Southbridge,MA,01550,(508) 764-7922
510,Data Source Inc.,3-15 E. Mountain Street,Worcester,MA,01606-3038,(508) 852-8563
511,David Clark Company Inc.,360 Franklin Street,Worcester,MA,01604,(508) 751-5800
512,David L. Johnson & Company,100 Doyle Road,Holden,MA,01520,(508) 853-9638
513,"Davis Advertising, Inc.",1331 Grafton Street,Worcester,MA,01604,(508) 752-4615
514,Davis Publications,50 Portland Street,Worcester,MA,01608,(508) 754-7201
515,DCM-Marketing,27 Hurtle Ave,Worcester,MA,01604,(508) 479-3332
516,DCU,853  Donald Lynch Blvd,Marlborough,Massachusetts,01752,(508) 263-6340
517,DCU (Clin),220 Donald Lynch Blvd,Marlboro,MA,01752,(800) 328-8797
518,DCU Center/ASM Global - Arena and Con...,50 Foster Street,Worcester,MA,01608,(508) 755-6800
519,DDS Acoustical Specialties,54 Mainline Drive,Westfield,MA,01085,(413) 348-8178
520,Deb K Hypnosis,511 Main Street,Sturbridge,MA,01566,(508) 579-6314
521,Decorum Lighting & Home Design       ...,300 West Main Street,Northborough,MA,01532,(508) 466-2000
522,DeJordy Contracting,237 Main Street,Oxford,MA,01540,(774) 293-2961
523,Delivered Inc.,75 Green Street,Clinton,MA,01510,(508) 450-4512
524,"Delta Consulting Group, LLC","321 Billerica Road, Suite 30",Chelmsford,MA,01824,(978) 939-1194
525,Depietri Group,275 Grove Street,Newton,MA,02466,(617) 712-6270
526,DetecTogether,53 Otis Street,Westborough,MA,01581,(508) 869-5200
527,Devereux,P.O. Box 219,Rutland,MA,01543-0219,(508) 886-4746
528,Dewey Square Group,"100 Cambridge Street, Suite 1301",Boston,MA,02114,(617) 367-9929
529,"Dexter-Russell, Inc.",44 River Street,Southbridge,MA,01550-1834,(508) 765-0201
530,"Diane Casey-Luong, RE/MAX Vision (WAC...",25 Union St,Worcester,MA,01608,(774) 239-2937
531,die Wurste Sausage Company ,25 Francis Street,Worcester,MA,01606,(508) 450-4546
532,DiMeco's Nursery & Landscape,374 Sterling Street,Lancaster,MA,01523,(978) 368-7676
533,Dipody Woo Child Learning & Developme...,446 Main Street,Worcester,MA,01608,(508) 373-2173
534,DiPrete Engineering,321 Fortune Blvd,Milford,MA,01757,(508) 278-3897
535,"Direnzo Towing & Recovery, Inc.",139 Providence Turnpike,Millbury,MA,01527,(508) 865-1802
536,DiRoberto Property Management Inc.,25 Union St,Worcester,MA,01608,(508) 579-8983
537,Discover Cleaning Corp.,"390 Main Street, Suite 700",Worcester,MA,01608,(508) 796-5335
538,Dismas House of Massachusetts,P.O. Box 30125/30 Richards Street,Worcester,MA,01603,(508) 579-9249
539,District V House,356 Manchaug Toad,Sutton ,MA,01590,(774) 314-0022
540,"DivineTouch Home Health Care, LLC",95 Vernon Street,Worcester,MA,01610,(508) 304-6950
541,"Dixon Salo Architects, Inc. (Wor)","300 Main Street, 1st Floor",Worcester,MA,01608,(508) 755-0533
542,DME Design LLC,470 James Street,New Haven,CT,06513,(860) 704-9082
543,Dodge Park Rest Home,101 Randolph Road,Worcester,MA,01606,(508) 853-8180
544,"Dog Orphans, Inc.",90 Webster Street,Douglas,MA,01516,(508) 476-1855
545,Dogtopia of North Worcester,71 Pullman St.,Worcester,MA,01606,(508) 964-3636
546,Dolphin Resource Group Inc.,114 West Boylston Street,Worcester,MA,01606,(508) 831-7393
547,DoorDash,303 2nd St Suite 800,San Francisco,CA,94107,(310) 418-0340
548,Dorfman Capital,,,,,(508) 930-8900
549,Dosco Sheet Metal & Manufacturing,Six Grafton Street,Millbury,MA,01527,(508) 865-9998
550,"Dot Joyce Consulting, LLC",50 Franklin Street,Boston,MA,02110,(617) 592-2967
551,Doucette & French P.C.,251 Main Street,Oxford,MA,01540,(508) 987-9944
552,Doudoukare LLC,25 Shaffner Street,Worcester,MA,01605,(774) 545-6807
553,Doug17 Consulting,27 Condon Drive,Spencer,MA,01562,(508) 212-7591
554,Douglas Orchard & Farm,36 Locust Street,Douglas,MA,01516,(508) 864-2878
555,Downtown Worcester Business Improveme...,"44 Portland Street, 3rd floor",Worcester,MA,01608,508-622-3050
556,"Dream Big Wealth Strategies, LLC",12 East Worcester St,WORCESTER,MA,01604,(508) 470-4848
557,Dream Ride Luxury Sprinter Transporta...,1359 SW 21st Terrace DreamRide,Fort Lauderdale,FL,33312,(954) 716-7778
558,Dress for Success Worcester,120 Stafford Street,Worcester,MA,01603,508-796-5660
559,DryZone Basement Systems,143 Greenland Rd,Sterling,MA,01564,(508) 822-1811
560,Dube Construction Management,3 Runaway Brook Road,Sterling,MA,01564,(978) 793-1489
561,"Dubrrey, Culliton & Fanning, LLC",P.O. Box 83,Sturbridge,MA,01566,(508) 347-3495
562,Dudley Police Department,71 West Main Street,Dudley,MA,01571,(508) 949-8023
563,"Dudley-Charlton Education Foundation,...",P.O. Box 92,Dudley,MA,01571,(774) 217-1247
564,Dunkin',"72 Shrewsbury Street, Suite 7",Worcester,MA,01604,(508) 757-6168
565,Duquette Refrigeration,104 Blackstone River Road,Worcester,MA,01607-1488,(508) 755-8247
566,Dynamic Partnerships,6 Tanglewood Drive,Framingham,MA,01701,(508) 692-5249
567,E.A.R.T.H. Limited,2 Southwick Street,Mendon,MA,01756,(508) 883-4440
568,"E.G. Fisher Construction, Inc",39 Brewer Street,Worcester,MA,01609,(508) 754-8315
569,E.J.'s Painting,70 Walnut Terrace,Holden,MA,01520,(508) 829-4363
570,EA Medical Aesthetics ,17 Converse Street,Worcester ,MA,01605,(508) 831-0400
571,Eagle Cleaning Corporation (Wor),"997 Millbury Street, Ste A",Worcester,MA,01607,(508) 799-0700
572,Eagle Eye Pictures,1569 Main St,Jefferson,MA,01522,(978) 286-0059
573,"Earl V. Atchue Jr. Insurance Agency, ...",190 Park Avenue,Worcester,MA,01609,(508) 755-5200
574,Early Steps / Autism Allies Inc.,18 B Oxford Street,Worcester,MA,01609,(508) 219-7275
575,Earth Solutions Excavating,39 Kent Road,Westminster,MA,01473,(978) 874-1106
576,"East Coast Renewable Energy, LLC",26 Metcalf Avenue,Milford,MA,01757,(508) 400-9236
577,Easterseals Massachusetts,"18 Chestnut Street, suite 200",Worcester,MA,01608,(508) 757-2756
578,"Eastland Partners, Inc. (BV)",997 Millbury Street,Worcester,MA,01607,(508) 647-1919
579,Eastridge Workforce Solutions,246 Boston Turnpike,Shrewsbury,MA,01545,(978) 937-8887
580,Eaton/Wright Line,160 Gold Star Blvd,Worcester,MA,01606,(508) 926-6092
581,EcoTarium,222 Harrington Way,Worcester,MA,01604,(508) 929-2700
582,"EcoTec, Inc.",102 Grove Street,Worcester,MA,01605,(855) 423-5197
583,Edge Benefit Partners,1174 Main St,Holden,MA,01520,(508) 713-2099
584,Edgemere Crossing at Flint Pond,100 Flint Pond Circle,Shrewsbury,MA,01545,(781) 393-0102
585,Edward Jones - Darren Parent,1097 Pleasant St,Worcester,MA,01602,(508) 459-0140
586,Edward Jones - Financial Advisor: Den...,5 Albert Street,Auburn,MA,01501,(508) 832-5385
587,Edward Jones - Hamilton Soriano,1 West Boylston St,Worcester,MA,01605,(508) 835-0006
588,Edward Jones - Jeff Burdick Financial...,419 Main Street,Sturbridge,MA,01566,(508) 347-1420
589,Edward Jones - The Office of Mark Ber...,108 Grove Street,Worcester,MA,01609,(508) 755-1213
590,Edward M. Kennedy Community Health Ce...,115 Northeast Cutoff,Worcester,MA,01606,(508) 854-2122
591,Edward Street,50 Portland Street,Worcester,MA,01608,(508) 792-0220
592,"Effective Grants, LLC",39 Duca Drive,Marlborough,MA,01752,(508) 460-1241
593,El Basha Restaurant,256 Park Avenue,Worcester,MA,01609,(508) 795-0222
594,El Buen Samaritano Food Program Inc.,39 Piedmont St,Worcester ,MA,01610,(508) 304-1501
595,El Punto Latino,25 Francis Street,Worcester,MA,01606,(774) 242-0398
596,El Sombrero Taqueria ,1 Kelley Square,Worcester,MA,01604,(978) 727-7972
597,El Tipico Frictufina,296 Pleasant St.,Worcester,MA,01602,(774) 329-7362
598,"Elder Services of Worcester Area, Inc...",67 Millbrook Street,Worcester,MA,01606,(508) 756-1545
599,"Elder Services of Worcester Area, Inc...","67 Millbrook Street, Suite 100",Worcester,MA,01606,(508) 756-1545
600,Elderwood Home Care,176 Worcester-Providence Turnpike,Sutton,MA,01590,508-865-2170
601,"Electrical Wholesalers, Inc.",393 East Main Street,Southbridge,MA,01550,(508) 347-1558
602,Elgon Inc.,65 Water Street,Worcester,MA,01604,(508) 762-4062
603,Elhouri's Cell Phone Repair,326 Shrewsbury Street,Worcester,MA,01604,(508) 762-8184
604,Eliot Community Human Services,14 John Street,Worcester,MA,01609,(508) 754-1127
605,ELM Wealth Management Group of Raymon...,"1 Mercantile St., Ste 720",Worcester,MA,01608,(508) 365-1050
606,Elms Cafe/DBA Simply Delicious,200 Westboro Rd.,N. Grafton,MA,01536,(508) 839-1911
607,Elvey Financial Services,283 Hamilton Street,Worcester,MA,01604,(646) 203-3735
608,Emerald Design Build,435 Lancaster Street,Leominster,MA,01453,(978) 870-8712
609,Emerald Meats,347 Chandler Street,Worcester,MA,01602,(508) 756-2700
610,Emerge Career,1 Washington Mall,Boston,MA,02108,(860) 983-4197
611,Emotionz Graphix & Apparel,72 High St,Clinton,MA,01510,(978) 612-6595
612,"empHowered PR, LLC",60 Hillery Road,Leominster,MA,01453,(978) 400-3036
613,"Empire Granite Co., Inc.",1325 Main Street,Worcester,MA,01603,(508) 757-3091
614,Empire Travel,98 West Main Street,Dudley,MA,01571,(508) 943-7870
615,"Employment Options, Inc.",82 Brigham Street,Marlborough,MA,01752,(508) 485-5051
616,"Enbridge, Inc. (US)","890 Winter Street, Suite 300",Waltham,MA,02451,(617) 560-1573
617,Enchanted Fireside,728 West Boylston Street,Worcester,MA,01606,(508) 856-9900
618,Encore Fire Protection,67 4th Ave,Needham,MA,02494,(774) 261-0123
619,Engravity Custom Engraving,285 New Boston Road,Sturbridge,MA,01566,(508) 612-0656
620,ENOSIS Graphic Solutions,14 Suburban Road,Worcester,MA,01602,(978) 505-2783
621,"Enroll Media Group, LLC",100 Grove St.,Worcester,MA,01605,(508) 556-1095
622,Enterprise Cleaning Corporation,P.O. Box 172,Boylston,MA,01505,(508) 890-1000
623,Entrepreneurs Forever,35 Shefford Street,Springfield,MA,01107,(412) 489-6183
624,ERA Key Realty Services,76 Church Street,Whitinsville,MA,01588,(508) 372-6206
625,ERA Key Realty/Terri Ricard,53 Beach Avenue,Sturbridge,MA,01566,(508) 615-5450
626,"Erin Zamarro, Real Estate Broker",6 Park Ave,Worcester,MA,01605,(508) 847-7100
627,"Erland Construction, Inc.",71 Third Avenue,Burlington,MA,01803,(781) 272-9440
628,"Ernest W. Foster, Jr. Co.",632 Cambridge st,Worcester,MA,01610,(508) 835-3136
629,Escape the Pike,179 Main Street,Sturbridge,MA,01566,(774) 241-0508
630,Euro-American Worldwide Logistics,375 Airport Drive,Worcester,MA,01602-2241,(508) 755-5050
631,Evershine Dental Group,100 MLK Jr Blvd,WORCESTER,MA,01608,(774) 243-7782
632,Eversource,One NSTAR Way - SW300,Westwood,MA,02090,(508) 305-6806
633,EverythingRobes,67 Frank Street,Worcester,MA,01604,(240) 478-5981
634,Evolve Recovery Center,29 North Main Street,Millbury,MA,01527,(774) 708-9313
635,"eWide Technology Solutions, In",110 Long Hill Rd,WEST BROOKFIELD,MA,01585,(774) 922-4556
636,Ewide Technology/The ECM Institute ,110 Long Hill Rd,West Brookfield,MA,01585,(774) 922-4556
637,"Exchange Authority, LLC",465 Shrewsbury Street,Worcester,MA,01604,(978) 433-6061
638,Exemplar Insurance Agency,131 Main St.,Lancaster,MA,01523,(508) 834-4966
639,Expense Reduction Analysts,385 Central Street,Milford,MA,01757,(508) 498-5780
640,Exsel Advertising Group (CMS),P.O. Box 1166,Sturbridge,MA,01566,(774) 241-0041
641,Exsel Advertising Group (Wor),420 MAIN ST,STURBRIDGE,MA,01566,(774) 241-0041
642,Extra Space Storage,245 Washington Street,Auburn,MA,01501,(508) 864-9352
643,"EZ Exec, LLC",867 Boylston St,Boston,MA,02116,(617) 820-6155
644,F & D Salvage Inc.,17 McCracken Road,Millbury,MA,01527,(508) 752-2800
645,"F & D Truck Company, Inc.",14 McCracken Road,Millbury,MA,01527,(508) 754-9572
646,"F.W. Madigan Company, Inc.",367 Chandler Street,Worcester,MA,01602,(508) 753-1459
647,Factor Level Nutrition,4 5th Avenue,Dudley,MA,01571,(508) 461-9268
648,Fairlawn Rehabilitation Hospital,189 May Street,Worcester,MA,01602,(508) 791-6351
649,Fairway Independent Mortgage Corp. (A...,783 Southbridge Street,Auburn,MA,01501,(508) 407-8300
650,Faithful Acts,86 cutler st,Worcester,MA,01604,(774) 242-5607
651,Fallon Health,One Mercantile Street,Worcester,MA,01608-2810,(508) 799-2100
652,"Family Grounds, Inc.",100 Grove Street,Worcester,MA,01605,(508) 755-4173
653,Family Health Center - Southbridge,29 Orchard Street,Southbridge,MA,01550,(774) 318-1445
654,"Family Health Center of Worcester, In...",26 Queen Street,Worcester,MA,01610,(508) 860-7975
655,Farm and Pet Copywriter,248 Purgatory Rd,Whitinsville,MA,01588,(508) 444-2584
656,FASTSIGNS,120 Stafford Street,Worcester,MA,01603,(508) 841-5800
657,Fatin Alkhaledi ,25 Francis Street,Worcester,MA,01606,(774) 578-3970
658,Faucher Direct Care,120 Thomas Street,Worcester,MA,01608,(508) 868-6869
659,Fay Brothers Funeral Home,1 West Boylston Street,West Boylston,MA,01583,(508) 835-6500
660,FEDDIZ,25 Francis Street,Worcester,MA,01606,(774) 329-7663
661,Feeney Brothers Utility Services,103 Clayton Street,Boston,MA,02122,(617) 287-1004
662,Feldman Land Surveyors,27 Mechanic Street,Worcester,MA,01608,6173579740
663,Fiber Technologies Inc.,603 West Sumner Ave.,Spokane,WASHINGTON,99204,(509) 744-0688
664,Fidelity Bank (BV),97 Elm Street,Millbury,MA,01527,(508) 762-3622
665,Fidelity Bank (Wach),206 Worcester Road,Princeton,MA,01541,(978) 355-4127
666,Fidelity Bank (Wach),713 Pleasant Street,Paxton,MA,01612,(508) 799-2274
667,Fidelity Bank (Wor),9 Leominster Connector,Leominster,MA,01453,(978) 870-1400
668,Fieldstone School,"90 Madison Street, Suite 200",Worcester,MA,01608,(508) 753-0778
669,Financial Square,195 Park Ave,Worcester,MA,01609,(800) 417-6353
670,Fine Lines,4 Old Stagecoach Road,Sturbridge,MA,01566,(508) 347-3645
671,Fins & Tales,858 Main Street,Southbridge,MA,01550,(508) 764-3340
672,Fire Equipment Inc. ,30 Glennie Street,Worcester ,MA,01605,(508) 418-3440
673,Firebrands Bar & Grill,8 Airport Road,Dudley,MA,01571,(508) 949-8881
674,"First American Realty, Inc.",P.O. Box 646,Worcester,MA,01613-0646,(508) 798-8844
675,Fisher Contracting Corporation,11 Webster Place,Worcester,MA,01603,(508) 421-6989
676,Fisher Tech Solutions LLC,14 Main St Apt 1R,Wales,MA,01081,(774) 452-5647
677,Fleet Electrical Service,303 Washington Street,Auburn,MA,01501,(508) 755-8666
678,Fletcher Tilton PC (BV),"370 Main Street, 12th Floor",Worcester,MA,01608,(508) 459-8021
679,Fletcher Tilton PC (WDO),"370 Main Street, 12th Floor",Worcester,MA,01608,(508) 459-8000
680,Fletcher Tilton PC Attorneys at Law,Mercantile Building,Worcester,MA,01608-1779,(508) 459-8000
681,Flexcon,1 Flexcon Industrial Park,Spencer,MA,01562,(508) 885-8200
682,Floods Automotive & Tire,93 Hamilton Street,Southbridge,MA,01550-1807,(508) 764-7965
683,Floor & Decor ,420 Boston Turnpike Bld #1,Shrewsbury,MA,01545,(774) 772-4650
684,Floor Source Inc.,65 West Street,Auburn,MA,01501,(508) 721-7777
685,Flying Rhino Cafe,278 Shrewsbury Street,Worcester,MA,01604,(508) 757-1450
686,Flynn Law,2 Millbury Blvd Unit 1,Oxford,MA,01540,(888) 994-6350
687,Flynn's Truck Plaza,307 Hartford Pike,Shrewsbury,MA,01545,(508) 756-7693
688,FocalPoint Business Coaching,147 Nourse Rd,Bolton,MA,01740,(617) 548-3863
689,Foley Hoag,155 Seaport Boulevard,Boston,MA,02210,(617) 832-1000
690,Foley Motorsports,894 Boston Turnpike,Shrewsbury,MA,01545,(508) 842-9300
691,Fontaine Brothers,12 E Worcester Street,Worcester,Massachusetts,01609,(774) 452-3905
692,Form First physical Therapy LLC ,48 Main St,Sturbridge,MA,01566,(774) 318-8272
693,Fortin's Barber Shop,879 Southbrdige St,Aubrun,MA,01501,(508) 832-3602
694,"Forward Financial Services, Inc.",645 Chandler Street,Worcester,MA,01602,(508) 796-5950
695,Foundation for Research of the Enzman...,70 North ST,Grafton,MA,01519,(508) 839-4929
696,Fountainhead Capital Management LLC,"10 River Road, Suite 205",Uxbridge,MA,01569,(508) 278-3840
697,Fox Pest Control,1296 Park Avenue B,Cranston,MA,02910,(508) 576-5662
698,Framingham State University,Framingham State University,Framingham,MA ,01701-9101,(508) 626-4034
699,Franklin Realty Advisors/Mercantile C...,100 Front Street,Worcester,MA,01608,(617) 350-8844
700,Free Play Bar Arcade,25 Union Street,Worcester ,MA,01608,(401) 316-4288
701,"Freedom Management, LLC",350 W Boylston St,Worcester,MA,01606,(781) 964-3200
702,Fresh Start The Moving Crew Inc.,70 James Street,Worcester,MA,01603,(508) 868-4291
703,Fresh Start Wellness Center ,16 Austin Street,Worcester ,MA,01609,(508) 796-5528
704,"Friendly Discount Liquors, Inc.",1167 Providence Road #7,Whitinsville,MA,01588-2119,(508) 234-7951
705,"Friendly House, Inc.",36 Wall Street,Worcester,MA,01604,(508) 755-4362
706,From Another Mother Co,25 Francis Street,Worcester,MA,01606,(508) 579-5887
707,"Fulcrum Acoustic, LLC","1 Main Street, Bldg. 14",Whitinsville,MA,01581,(866) 234-0678 x112
708,Fuller Automotive Companies of Auburn,505 Washington Street,Auburn,MA,01501,(508) 832-6352
709,G & O Construction Contractors Inc.,25 Kansas Street,Worcester,MA,01610,(508) 450-4316
710,G&L Plumbing and Drain-A-Way,140 Shrewsbury St.,Boylston,MA,01505,(508) 869-3100
711,G&L Plumbing and Drain-A-Way (WACH),140 Shrewsbury Street,Boylston,MA,01505,(508) 859-3100
712,"G&N TRANSPORT, LLC ",2 Main Street,Worcester ,MA,01608,(774) 525-7623
713,G9 Financial,7 S. Main Street,Millbury,MA,01527,(508) 865-9599
714,GACAL ENTERPRISE LLC,29 VERNON STREET,WORCESTER,MA,01610,(508) 796-3144
715,"Galaxy Development, LLC (WDO)",37 Sutton Road,Webster,MA,01570,(508) 721-0005
716,Gallagher Insurance,3 Blackthorn Rd,Shrewsbury,MA,01545,(508) 769-5987
717,"Gallo Builders, Inc.",31 Gallair Circle,Holden,MA,01520,(508) 829-0676
718,GAMEDAY MENS HEALTH WORCESTER,120 THOMAS STREET,WORCESTER,MA,01608,(508) 722-0360
719,Garage Force Central MA,240 Pleasantdale Road,Rutland,MA,01543,(508) 688-0353
720,Garden Fresh Courthouse Cafe,204 Main Street,Worcester,MA,01608,(508) 753-8500
721,Garden Fresh Deli & Catering,20 Worcester Center Blvd.,Worcester,MA,01608,(508) 752-0457
722,"Gary Moyer, Architect",P.O. Box 235,Linwood,MA,01525-0235,(508) 278-3707
723,Gateway Public Solutions,11 Wentworth Road,Natick,MA,01760,(617) 733-0918
724,"Gaudette Insurance Agency, Inc. (Aub)",One Plummers Corner,Whitinsville,MA,01588,(800) 922-8381
725,"Gaudette Insurance Agency, Inc. (BV)",One Plummers Corner,Whitinsville,MA,01588,(800) 922-8381
726,GDI Integrated Facilities Services,220 Reservoir St,Needham,MA,02494,(508) 395-2912
727,Geary Fence & Installer Services,18 Short Street,Holden,MA,01520,(774) 364-2694
728,"Geisel Software, Inc.",67 Millbrook Street,Worcester,MA,01606,(508) 936-5099
729,GEM Exhibits,14 Railroad Avenue,Webster,MA,01570,(508) 461-5522
730,GEM Exhibits,14 Railroad Avenue,Webster,MA,01570,(508) 461-5522
731,GEM Marketing Solutions,530 Main Street,Worcester,MA,01608,(508) 718-9303
732,Generations on the Move,"800 Main Street, Suite 156",Holden,MA,01520,(508) 210-0345
733,Genesis Club Inc.,274 Lincoln Street,Worcester,Massachusetts,01605,508 831 0100
734,Gentex Optics,183 West Main Street,Dudley,MA,01571,(508) 943-3860
735,Gentle Dental ,41 Park Avenue,Worcester,MA,01605,(508) 471-5050
736,George & Company,6 Lancaster County Road,Harvard,MA,01451,(508) 753-1400
737,GFA Credit Union,"229 Parker St., Gardner, MA",Gardner,MA,01440,(978) 877-9038
738,GFI Partners,133 Pearl Street,Boston,MA,02109,(617) 292-0101
739,"Gibbs Realty, Inc.",P.O. Box 610,Rutland,MA,01543,(508) 886-6100
740,Gilbane Building Company,"10 Channel Center Street, Suite 100",Boston,MA,02210,(617) 697-7601
741,Girl Scouts of Central & Western Mass...,115 Century Drive,Worcester,MA,01606,(508) 365-0115
742,Girls Inc. of Worcester,125 Providence Street,Worcester,MA,01604,(508) 755-6455
743,Girls on the Run Worcester County,670 Linwood Avenue,Whitinsville,MA,01588,(508) 266-7396
744,Girly Girl Soaps LLC,160 Green Street,WORCESTER,MA,01604,(508) 410-5367
745,Gld Mnd Cllctv,48 Gibbs Street,Worcester,MA,01607,(774) 437-8207
746,Goddard House,1199 Main Street,Worcester,MA,01603,(508) 753-4890
747,"Goedecke & Co., LLC",10 High Street,Boston,MA,02110,(617) 790-9000
748,Gois Broadcasting LLC,"122 Green Street, Suite 2L",Worcester,MA,01604,(508) 791-2111
749,Gold Star Builders Inc.,6 Jacques Street,Worcester,MA,01603,(508) 736-7944
750,Gong Cha ,24 Southbridge Street,Worcester,MA,01608,(508) 373-2100
751,Gong Cha (BV),70 Worcester Providence Turnpike,Millbury,MA,01527,(508) 865-2306
752,Good As Gold Coffee Systems,115 Green Street,Worcester,MA,01604-4124,(508) 756-1335
753,GOODHIRE HEALTHCARE STAFFING Inc.,"100 Front Street, Suite 401",Worcester,MA,01608,(774) 386-0746
754,Goretti's Supermarket,One Providence Street,Millbury,MA,01527,(508) 865-4422
755,Gorman Richardson Lewis Architects,239 South Street,Hopkinton,MA,01748,(508) 544-2600
756,"Goulet, Salvidio & Associates, P.C.",324 Grove Street,Worcester,MA,01605,(508) 753-4689
757,"Goventure Capital Group, LLC",1 Mercantile Street,Worcester,MA,01608,(774) 314-9540
758,Grafton Country Store,2 Grafton Common,Grafton,MA,01519,(508) 839-4898
759,Grafton Economic Development Commissi...,30 Providence Road,Grafton,MA,01519,(508) 839-5335
760,Grafton Job Corps,100 Pine Street,North Grafton,MA,01536,(508) 887-7338
761,Grafton Job Corps Career Academy,100 Pine Street,North Grafton,MA,01536,(508) 839-6904
762,Graves Accounting & Tax,783 Southbridge Street,Auburn,MA,01501,(508) 832-5839
763,Great Wolf Lodge & Resort of NE,150 Great Wolf Drive,Fitchburg,MA,01420,(978) 343-9653
764,Greater Good Imperial Brewing Company,"55 Millbrook Street, 1st Floor",Worcester,MA,01606,(508) 926-8736
765,Greater Worcester Community Foundatio...,One Mercantile Street,Worcester,MA,01608,(508) 755-0980
766,Green Leaf Construction,98 Adams Street,Leominster,MA,01453,(978) 401-2053
767,Green Meadows Farm,64 Mill St,Southbridge,MA,01550-1178,(508) 909-5880
768,Green Team Junk Removal ,24 Water Street,Holliston,MA,01745,(508) 361-0519
769,"Greenberg, Rosenblatt, Kull & Bitsoli","306 Main Street, Suite 400",Worcester,MA,01615-0034,(508) 791-0901
770,Greendale Owner LLC,545 Boylston Street,Boston,MA,02116,(617) 274-5660
771,"Greenwood Industries, Inc.",640 Lincoln St,Worcester,MA,01605,(508) 865-4040
772,Grifols Biomat USA,403 Belmont Street,Worcester,MA,01604,(508) 793-2905
773,Grimes & Company,110 Turnpike Road,Westborough,MA,01581,(508) 366-3883
774,Grow Better Smarter,P.O. Box 1,Jefferson,MA,01522,(508) 410-9655
775,Guaranty Management Company,370 Main Street,Worcester,MA,01608,(508) 752-0433
776,Guertin Graphics & Awards,134 Southbridge Street,Worcester,MA,01608,(508) 754-0200
777,Guide-A-Guest Hospitality Media Solut...,1635 Foxtrail Dr,Loveland,CO,80538,(774) 701-9244
778,Guild of St. Agnes (Wor),19 Harvard Street,Worcester,MA,01609,(508) 755-2238
779,"GVC Construction, Inc.",305 Leominster Shirley Road,Lunenburg,MA,01462,(978) 840-9700
780,Habitat for Humanity (Wor),640 Lincoln Street,Worcester,MA,01605,(508) 799-9259
781,Halstead Holden ,90 Central Park,Holden,MA,01520,(774) 224-8779
782,Halstead Insurance,11 Electric Ave,Fitchburg,MA,01420,(978) 345-2505
783,Hamilton Rod & Gun Club,P.O. Box 954,Sturbridge,MA,01566,(508) 347-3389
784,Hampton Inn & Suites Worcester,65 Prescott Street,Worcester,MA,01605,(508) 886-9005
785,Hampton Inn of Sturbridge,328 Main Street,Sturbridge,MA,01566,(508) 347-6466
786,Hang 10 Car Wash,1059 Grafton Street,Worcester,MA,01604,(508) 944-1450
787,Hanks Package Store,94 East Main Street,Webster,MA,01570,(508) 943-5085
788,Hanover Theatre for the Performing Ar...,2 Southbridge Street,Worcester,MA,01608-2014,(508) 831-0800
789,Happy Sloth Balloons,1 Rivers Edge Rd,Blackstone,MA,01504,(508) 952-9898
790,Harbro Sales and Service Inc.,546 Providence Road,Whitinsville,MA,01588,(508) 234-6767
791,Harmony Place LLC,497 Lancaster St,Leominster,MA,01453,(978) 786-0555
792,Harrington Memorial Hospital,100 South Street,Southbridge,MA,01550-4047,(508) 765-9771
793,Harrington Oil/Brideau Energy ,752 Main Street,Holden,MA,01520,(508) 829-0044
794,Harte's Home,771 Washington St,Auburn,MA,01501,(508) 438-4400
795,Harvard Pilgrim Health Care,1 Wellness Way,Canton,MA,02120,(888) 888-4742
796,Hawk Hill Orchards,79 Carleton Road,Millbury,MA,01527,(508) 865-4905
797,Health New England,One Monarch Place,Springfield,MA,01144,(800) 842-4464
798,HealthAlliance-Clinton Hospital,201 Highland St.,Clinton,MA,01510,(978) 466-4094
799,Hear Joy Audiology,43 Main Street,South Grafton,MA,01560,(774) 293-1515
800,Hearthstone Market & Catering,630 Main Street,Fiskdale,MA,01518,(508) 347-7077
801,Hemlock Ridge Golf Course,220 Holland Road,Fiskdale,MA,01518,(508) 347-9935
802,Herbie's,1028 Southbridge Street,Worcester,MA,01610,(508) 757-5083
803,Heritage Country Club (CMS),P.O. Box 220,Charlton,MA,01507,(508) 248-5111
804,Heritage Country Club (WDO),P.O. Box 220,Charlton,MA,01507,(508) 248-5111
805,"Hershman, Fallstrom & Crowley, Inc.",255 Park Ave.,Worcester,MA,01609,(508) 754-0800
806,HestiaLiving Corporation,16 Benefit Street 3R,Worcester,MA,01610,(774) 437-2503
807,High Purity Natural Products,"328 Main Street, Unit 3",Southbridge,MA,01550,(508) 450-8902
808,Hillside Veterinary Clinic,9 Howe st,Auburn,MA,01501,(508) 832-3132
809,Hilton Garden Inn - Worcester,35 Major Taylor Boulevard,Worcester,MA,01608,(508) 753-5700
810,Hitchcock Academy Community Center,2 Brookfield Road,Brimfield,MA,01010,(413) 245-9977
811,HNO LLC,319A SOUTHBRIDGE STREET,Auburn,MA,01501,(508) 612-0296
812,HNTB,31 St. James Avenue,Boston,MA,02116,(617) 542-6900
813,"Hodge~Podge, LLC",140 Reservoir Street,Holden,MA,01520,(508) 210-0463
814,Hoey Wealth Management,12 Rice Road,Auburn,MA,01501,(508) 571-1777
815,Holden Brattle Market Inc.,1 Brattle Street,Worcester,MA,01606-2577,(508) 853-1442
816,Holden Dental Arts,1116 Main Street,Holden,MA,01520,(508) 829-5435
817,Holden Discount Liquors,673 Main Street,Holden,MA,01520,(508) 829-2902
818,Holden Discount Oil,140 Reservoir Street,Holden,MA,01520,(508) 829-9585
819,Holden Hearing Aid Center,695 Main Street,Holden,MA,01520,(508) 829-5566
820,"Holden Home Modernizing, Inc.",57 Putnam Lane,Holden,MA,01520,(508) 829-3754
821,"Holden Realty, Inc.",42 Zottoli Road,Holden,MA,01520,(508) 829-2857
822,Holden Rehabilitation and Nursing Cen...,52 Boyden Road,Holden,MA,01520,(508) 450-6902
823,Hole In One Promotions,16 Ashwood Circle,Shrewsbury,MA,01545,(617) 470-4088
824,Holiday Inn Express & Suites (Aub),10-12 Johnson Street,Auburn,MA,01501,(508) 832-2500
825,Holmes-Shusas Florist,1 Ararat Street,Worcester,MA,01606,(508) 853-2550
826,Home Decor Group,240 Shrewsbury St.,Worcester,MA,01604,(508) 365-2973
827,Homefield Credit Union,86 Worcester Street,North Grafton,MA,01536-1047,(508) 839-5493
828,Homewood Suites by Hilton Worcester,1 Washington Square,Worcester,MA,01604,(508) 262-4359
829,Hope for Worcester,30 Tyler Prentice Rd,Worcester,MA,01606,(508) 272-5567
830,HOPEBRIDGE HEALTHCARE GROUP,360 West Boylston Street,West Boylston,MA,01583,(978) 420-4600
831,Horizon Alarms,27 Sterling Street,West Boylston,MA,01583,(800) 467-1832
832,Hospital for Behavioral Medicine,100 Century Drive,Worcester,MA,01606-1244,(844) 319-0000
833,House of Colour West Side Worcester,412 Chapel Street,Holden,MA,01520,(508) 615-8333
834,Howard Stein Hudson,446 Main Street,Worcester,MA,01608,(508) 500-7041
835,Howell Marketing,22 Warren Road,Brimfield,MA,01010,(413) 245-3246
836,"Hubbard Health Systems, Inc.",P.O. Box 1240,Webster,MA,01570,(508) 943-6800
837,"Hueson Wire & Cable, LLC",134 Ferry Street,South Grafton,MA,01560,(508) 234-6372
838,Human Power Solutions,"11 Apex Drive, Suite 300A",Marlborough,MA,01752,(617) 575-9959
839,Humble Hive Media,134 Main Street,Rutland,MA,01543,(978) 808-8450
840,Husson's Spot,25 Francis St,Worcester,MA,01606,(774) 303-1899
841,Hyde Tools,54 Eastford Road,Southbridge,MA,01550,(508) 764-4344
842,Hydrangea Home Decor,538 Main Street,Fiskdale,MA,01518,(508) 347-7757
843,I Am Tshirts Screen Printing & Embroi...,45 Sturbridge Road,Charlton,MA,01507,
844,i Sun International Group,235 West Boylston Street,West Boylston,MA,01583,(508) 835-9000
845,I.B.E.W. Local 96,242 Mill Street,Worcester,MA,01602,(508) 753-8635
846,IA Financial Advisors,800 Main Street,Holden,MA,01520,(774) 345-4044
847,"Iandoli Desai & Cronin,  P.C.","38 Third Avenue, Suite 100",Boston,MA,02129,(617) 482-1010
848,IBA INC,103 Gilmore Drive,Sutton,MA,01590,(508) 865-6911
849,IC Credit Union,947 W. Boylston Street,Worcester,MA,01606,(978) 353-1345
850,IC Credit Union (WACH),300 Bemis Road,Fitchburg,MA,01420,(978) 353-1345
851,Ideal Landscape Maintenance &Construc...,29 Hemlock Drive,Holden,MA,01520,(508) 829-1944
852,Ideal Siding Worcester,10 Nebraska Street,Worcester,MA,01604,(508) 981-1120
853,iHeartMedia ,96 Stereo Lane,Paxton,MA,01612,(508) 769-4435
854,ILA VERDE,420 main st,Worcester ,MA,01608,1-774-670-3322
855,IllustraVisions,12 Lanes End,Sutton,MA,01590,(508) 865-2427
856,Ilustre Party Rentals ,39 Edward st,Worcester,MA,01605,(774) 303-4321
857,"Imperial Distributors, Inc.",150 Blackstone River Road,Worcester,MA,01607,(508) 713-6500
858,In the Hour of Need Family Shelter,91 June Street,Worcester,MA,01602,(508) 755-2212
859,"Incom, Inc.",294 Southbridge Road,Charlton,MA,01507-5238,(508) 909-2200
860,Indian Ranch,200 Gore Road,Webster,MA,01570,(508) 943-3871
861,Indian Ranch (BV),200 Gore Road,Webster,MA,01570,(508) 943-3871
862,Industrial Hearing Testing,"19 Midstate Drive, Suite 220",Auburn,MA,01501-1858,(508) 832-8484
863,Infinity Events,14 Partridge Hill Road,Sutton,MA,01590,(508) 388-6685
864,Infused LLC,112 Harding st,Worcester,MA,01604,(508) 353-5389
865,Inland Home Mortgage,8 Denfield Road,Chalton,MA,01507,(508) 248-4445
866,"Inner Voice Outer Change for Youth, I...",114 Water Tower Plaza,Leominster,MA,01543,(978) 822-6501
867,Inner-Tite Corp.,110 Industrial Drive,Holden,MA,01520,(508) 829-6361
868,Insation Technologies,31B Thompson Road,Webster,MA,01570,(508) 422-0477
869,Insperity,28 State Street,Boston,MA,02109,(617) 966-9396
870,Insphere Insurance Solutions,26 Yew Street,Douglas,MA,01516,(774) 280-2729
871,Inspire Family Medicine,45 Sterling Street,West Boylston,MA,01583,(774) 772-5161
872,Instacart,50 Beale Street,San Francisco,CA,94105,1-888-246-7822
873,Insurance Marketing Agencies,306 Main Street,Worcester,MA,01608,(508) 471-1183
874,Integrated Martial Arts,342A West Boylston St.,West Boylston,MA,01583,(508) 251-9469
875,Integrated Pharmacy Solutions,50 Tremont St,Melrose,MA,02176,(781) 333-6040
876,Integrity Modular Design & Constructi...,229 Southbridge Street,Worcester,MA,01608,
877,Interstate Specialty Products (BV),55 Gilmore Drive,Sutton,MA,01590,(800) 984-1811
878,"Interstate Specialty Products, Inc.",55 Gilmore Drive,Sutton,MA,01590,(800) 984-1811
879,"Intransit Container, Inc.",53 Wiser Avenue,Worcester,MA,01607,(508) 752-2012
880,IPG Photonics Corporation,50 Old Webster Road,Oxford,MA,01540,(508) 373-1100
881,Island Fin Poke Company,41 Park Ave,Worcester,MA,01605,(508) 304-6809
882,isolved,7 Forestdale Road,Paxton,MA,01612,(774) 321-6510
883,isolved (Wach),7 Forestdale Rd.,Paxton,MA,01612,(508) 204-9933
884,Israel Real Estate Company,352 West Boylston Street,West Boylston,MA,01583,(508) 853-2414
885,Ita's Pizza Kitchen,453 Lincoln St,Worcester,MA,01605,(508) 926-8000
886,J. Anthony's Italian Grill,917 Southbridge Street,Auburn ,MA,01501,(508) 832-9705
887,J. Anthony's Italian Grill (WDO),917 Southbridge Street,Auburn,MA,01501,(508) 832-9705
888,J.E. Cunningham & Associates,218 Shrewsbury Street,Worcester,MA,01604,(978) 578-1734
889,"J.F. Cove Insurance Agency, Inc.",9 North Main Street,Uxbridge,MA,01569,(508) 278-5544
890,"J.J. Bafaro, Inc. ",9-13 Winter Street/P.O. Box 943,Worcester,MA,01604,(508) 757-7429
891,J.M. Scully Jewelers,697 Main St,Holden,MA,01520,(508) 210-0554
892,"J.R. Prunier Capital Management, LLC",4 Boyden Road,Holden,Massachusetts,01520,(508) 756-8080
893,Jabil ,101 union st,clinton,MA,01510,(978) 368-4524
894,Jackson Group Media,2308 Mt. Vernon Ave,Alexandria,VA,22301,(703) 548-3100
895,JAM Corporation,60 Canterbury Street,Worcester,MA,01610,(508) 852-4119
896,James Monroe Wire & Cable Corp.,767 Sterling Road,Lancaster,MA,01523,1-978-368-0131
897,James Perez Electric Inc.,45 Sterling st,worcester,MA,01610,(774) 242-1106
898,Jamon y Queso Charcuteria by Anaithe,17 Federal St,Worcester,MA,01608,(570) 780-8050
899,"Janice Mitchell Real Estate, Inc.",1023-25 Main Street,Holden,MA,01520,(508) 829-6315
900,Jax Seafood,21 Field Pond Road,Milford,MA,01757,(774) 462-0665
901,"JaxStone, Inc.",297 Dennison Drive,Southbridge,MA,01550,(508) 284-4002
902,Jaz-Yoga/Health and Wellness ,40 Roger Street,Southbridge,MA,01550,(508) 981-4081
903,JEES,P.O. Box 940,Charlton City,MA,01508-0940,(508) 523-5923
904,"Jeff D. Helgerson Excavating, Inc.",79 Baypath Road,Charlton,MA,01507,(508) 248-7242
905,"Jeff Helgerson Excavating, Inc. (WDO)",79 Baypath Road,Charlton,MA,01507,(508) 248-7242
906,"Jeffco Fibres, Inc.",12 Park Street,Webster,MA,01570,(508) 943-0440
907,Jennifer Leonard Bookkeeping,56 Dodge Rd,Sutton,MA,01590,(508) 873-1563
908,Jeremiah's Finest Soft Serve,2 Inverness Avenue,Worcester,MA,01604,(508) 450-8009
909,"Jeremiah's Inn, Inc.",P.O. Box 30035,Worcester,MA,01603,(508) 755-6403
910,JetBlue Airways,300 Terminal C,Boston,MA,02128,
911,Jeviado Health Care,"370 Main St , Suite 1141",Worcester ,MA,01604,(774) 386-3439
912,"JF Marketing, Inc./Go Green Solutions...",P.O. Box 173,S. Grafton,MA,01560,(978) 852-7977
913,JF MORAN,475 Douglas Pike,Smithfield,RI,02917,(401) 830-5200
914,Jidoka LLC,82 WENDELL AVE. STE 100,Pittsfield,MA,01201,(508) 498-7168
915,Jill Cofsky Voice,22 Larnerd Hill Road,Charlton,MA,01507,(508) 233-8971
916,Jim Black Group - eXp Realty,101 Auburn St.,Auburn,MA,01501,(508) 365-3532
917,JJEC TRANSPORTATION INC ,15 Tyson Road,Worcester ,MA,01606,(774) 530-1387
918,"JJM Insurance Agency, Inc",623 Chandler Street,Worcester,MA,01602,(508) 791-1141
919,"JK March Construction, LLC",4 Autumn Harvest Court,Grafton,MA,01519,(508) 736-6640
920,"JMMO Company, LLC",249 W HAVEN RD,MANCHESTER,NH,03104-2829,(603) 540-4090
921,Jones & Jones Realty Inc.,P.O. Box 773,Sturbridge,MA,01566,(774) 696-7002
922,Joseph's Lock & Safe Co.,55 Green Street,Worcester,MA,01604,(508) 757-1434
923,"Journal Communications, Inc.",6550 Carothers Parkway,Franklin,TN,37067,(615) 771-0080
924,Joy Guru Humanitarian Services,"446 Main Street, 16th Floor",Worcester,MA,01608,(508) 797-0005
925,JPMorgan Chase & Co.,70 Fargo St,Boston,MA,02210,(617) 366-0991
926,JP's Restaurant Pub,166 Milk Street,Westborough,MA,01581-1114,(508) 366-0627
927,Juniper Outreach Foundation,PO Box 91,PAXTON,MA,01612,1-508-450-8828
928,JV Mechanical Contractors,929 School Street,Webster,MA,01570,(508) 943-3222
929,K & K Thermoforming LLC,380 Elm Street,Southbridge,MA,01550,(508) 764-7700
930,K Sense Co LLC,44 Portland St,Worcester,MA,01604,(508) 233-3484
931,K. Ebner Creative,38 Tainter Hill Road,Millbury,MA,01527,(413) 478-2457
932,"KARL STORZ Endoscopy America, Inc. (A...",28 Millbury Street,Auburn,MA,01501,774-318-2899
933,Karl Storz Endovision,91 Carpenter Hill Road,Charlton,MA,01507,(508) 248-9011
934,Karynsue Realty Inc.,318 Pakachoag Street,Auburn,MA,01501,(508) 410-8464
935,Katalina's Boutique,1682 Providence Road,Northbridge,MA,01534,(508) 234-2247
936,KC Tax Professionals,27 West Mountain Street,Worcester,MA,01606,(508) 480-5692
937,"Kearney, Donovan & McGee, P.C.",40 Court Street,Boston,MA,02108,(617) 263-1400
938,"Keating Enterprises, Inc.",9 Halmstad Street,Worcester,MA,01607,(508) 753-6415
939,Kelleher & Sadowsky Assoc (BV),120 Front Street,Worcester,MA,01608,(508) 635-6781
940,Kelleher & Sadowsky Assoc (Wor),120 Front Street,Worcester,MA,01608,(508) 755-0707
941,Keller Williams Realty,60 Shrewsbury St,Worcester,MA,01604,(774) 289-7369
942,Keller Williams Realty (CMS),60 Cricket Drive,Sturbridge,MA,01566,(774) 230-0539
943,Kelly's Roast Beef ,70 Gold Star Blvd,Worcester,MA,01606,(774) 344-5700
944,"Kelsey M. Buccelli, CPA, LLC",11 Sunrise Shores Road,Dudley,MA,01571,(774) 200-6466
945,"Kendall Homes, Inc.",P.O. Box 766,Southborough,MA,01772,(508) 393-6062
946,Kennedy Donovan Center,486 Worcester Street,Southbridge,MA,01550,(508) 765-0292
947,Keolis Commuter Services,53 State Street,Boston,MA,02109,(617) 222-8001
948,Kevin P. Landry Law Offices,300 Main Street,Worcester,MA,01608,(508) 540-0004
949,Key Construction Solutions,1290 Worcester Road,Framingham,MA,01702,(508) 230-0028
950,"Kid Power Gymnastics, Inc.",221 Sturbridge Road,Charlton,MA,01507,(508) 439-9987
951,"Kids in the Congo, Inc.",P.O. Box 584,Fiskdale,MA,01518,(413) 209-6526
952,Kinefac Corporation,156 Goddard Memorial Drive,Worcester,MA,01603-1260,(508) 754-6891
953,Kingside Development,108 Wheeler Road,Princeton,MA,01541,(508) 556-7427
954,Kiva Centers,427 Main Street,Worcester,MA,01608,(508) 751-9600
955,Kleinfelder,"One Beacon Street, Suite 8100",Boston,MA,02108,(617) 497-7800
956,Klem's,117 West Main Street,Spencer,MA,01562,(508) 885-2708
957,"KMB IT Consulting, Inc.",3 Jackson Lane,Millbury,MA,01527,(508) 581-5021
958,"Knight-Dik Insurance Agency, Inc.",120 Front Street,Worcester,MA,01608,(508) 753-6353
959,Knight's Airport Limousine Service (W...,390 Hartford Turnpike,Shrewsbury,MA,01545-4023,(508) 839-6252
960,Kokorikos Pizza & Fried Chicken ,819 Main Street,Worcester,MA,01610,(508) 459-1550
961,"Koopman Lumber Company, Inc.",665 Church Street,Whitinsville,MA,01588,(508) 234-4545
962,Kristen Warner Realtor,826 Main St,Holden,MA,01520,(508) 579-8571
963,Krush It Marketing Inc.,242 Sycamore Drive,Holden,MA,01520,(774) 535-1458
964,Kubala Home Improvement,5 Pell Street,Ludlow,MA,01056,(413) 589-1010
965,Kyocera Document Solutions,1 Jewel Dr,Wilmington,MA,01887,(781) 404-5324
966,"L & R Sales, Inc.","1040 Southbridge Street, Unit 1",Worcester,MA,01610-2235,(508) 752-8757
967,La colombiana hamburger ,937 main street,Fitchburg,MA,01420,(978) 413-7149
968,Laborers Local 243,882 Southbridge Street,Auburn,MA,01501,(508) 832-4649
969,Ladybugz Interactive Agency,"43 Broad Street, A407",HUDSON,MA,01749,(978) 376-7878
970,Lake Pizza & Family Restaurant,39 Thompson Road,Webster,MA,01570,(508) 612-5339
971,Lake Road Living,59 Lake Road,Brookfield,MA,01506,(501) 743-0435
972,"Lake Shore Legal, LLC",154 Thompson Road,Webster,Massachusetts,01570,508-943-7800
973,Lakeside Bar and Grill,97 Boston Turnpike,Shrewsbury,MA,01545,(508) 425-3543
974,Lakeview Marine,311 Thompson Road,Webster,MA,01570,(508) 461-6020
975,"Lamacchia Realty, Inc",465 Waverley Oaks Road,Waltham,MA,02452,(617) 924-6563
976,Lambert's Landcare,41 Campground Road,West Boylston,MA,01583,(508) 523-7854
977,Lamoureux Ford,P.O. Box 691,E. Brookfield,MA,01515,(508) 867-6453
978,Lamoureux Pagano & Associates Archite...,108 Grove Street,Worcester,MA,01605,(508) 752-2831
979,"Lamparth Consulting, Inc.",16 Blueberry Ln,Sturbridge,MA,01566,(774) 230-0847
980,Lampin Corporation,P.O. Box 327,Uxbridge,MA,01569-0327,(508) 278-2422
981,Lancaster Family Dental,387 Sterling St,Lancaster,MA,01523,(978) 365-5302
982,"Land Planning, Inc.",214 Worcester Street,N. Grafton,MA,01536,(508) 839-9526
983,Lane & Hamer,"100 Main Street, #105",Whitinsville,MA,01588-0496,(508) 234-4400
984,Lanoco Specialty Wire Products,Seven John Road,Sutton,MA,01590,(508) 865-1500
985,Lanza Tax Advisers,81 Merriam Ave,Leominster,MA,01453,(978) 549-0431
986,Lanza Tax Advisers PLLC (WACH),81 Merriam Ave,Leominster,MA,01453,(978) 549-0431
987,LaPrade Sign & Design,950 Wachusett Street,Holden,MA,01520,(508) 829-4867
988,LaQuinta Inn & Suites (CMS),478 Main Street,Sturbridge,MA,01566,(508) 347-5141
989,Larry Pearson,17 Granite Circle,Millville,MA,01529,(508) 944-7783
990,Lase-X,3 Winding Brook Road,Goffstown,NH,03045,(617) 794-7669
991,"Last Green Valley, Inc.",203B Main Street (2nd Floor),Danielson,CT,06239,(860) 774-3300
992,Latin Financial LLC,78 Beaver Road,Wethersfield,CT,06106,(877) 287-7826
993,"Laura Dilts, HR Consultant ",17 Briarwood Road,Rutland,MA,01543,(508) 797-7121
994,"Lauring Construction Co., Inc.",23 Brigham Rd,Worcester,MA,01609,508-755-0754
995,"Lavana-Karkhanis, P.C.",581 Pleasant Street,Paxton,MA,01612,508-755-2905
996,Law Office of Michele F. Kasabula PLL...,156 Worcester Providence Tpke Ste 31 Sut,Sutton,MA,01590,(508) 865-8500
997,"Law Office of Robert J. Hennigan, Jr.","390 Main Street, Suite 600",Worcester,MA,01608,(508) 795-7550
998,"Leader Bank, N.A. (WACH)",61 Boyden Road,Holden,MA,01520,(781) 641-8600
999,"Leahy Excavating Co., Inc.",1403 Wachusett Street,Jefferson,MA,01522,(508) 829-2180
1000,Learning First Charter Public School,50 Richland Street,Worcester,MA,01610,(774) 420-7651
1001,Leftfield,225 Franklin Street,Boston,MA,02110,508-380-3386
1002,"Legacy Publishing Group, Inc.",75 Green Street,Clinton,MA,01510,(978) 368-8711
1003,Legendary Legacies Inc. ,40 Southbridge St,Worcester,MA,01608,(508) 615-8060
1004,Leggat McCall Properties LLC,10 Post Office Square,Boston,MA,02109,(508) 366-6510
1005,LEI Corporation,200 Shrewsbury Street,Boylston,MA,01505,(508) 865-4367
1006,Lenze Americas,630 Douglas Street,Uxbridge,MA,01569-2060,(508) 278-9100
1007,Leonard D. Rea Tax & Financial Servic...,17 Glendale Road,Fiskdale,MA,01518,(508) 347-2436
1008,Les Gardner Photography,453A Main Street,Fiskdale,MA,01518,(508) 347-7177
1009,Liberty Square Group,90 Sherman Street,Cambridge,MA,02140,1-617-695-0369
1010,LIBERTY TAX SERVICE,1280 Main Street,Worcester,MA,01603,(508) 799-6031
1011,Liberty Tax Service (Wach),697 Main Street,Holden,MA,01520,(774) 544-1065
1012,LidCo Electrical Contractor,452 Main Street,Holden,MA,01520,(508) 829-6226
1013,Life Care Center of Auburn,14 Masonic Circle,Auburn,MA,01501,(508) 832-4800
1014,"Life-Skills, Inc.",44 Morris Street,Webster,MA,01570,(508) 943-4892
1015,Lights Planner Action,9 Main St,Sutton,MA,01590,(508) 450-3536
1016,"Lilly Legal, LLC",1108 Main Street,Worcester,MA,01603,(508) 443-1788
1017,Lilly's Restoration,83 Comins Pond Road,Warren,MA,01083,(413) 213-3980
1018,Lincoln Precision Machining,121 Creeper Hill Road,North Grafton,MA,01536,(508) 839-2175
1019,Lindblom Landscaping & Home Repair,1 Eames Drive,Auburn,MA,01501,(774) 262-4712
1020,Linder's Inc.,211 Granite Street,Worcester,MA,01607-1295,(508) 756-5125
1021,"Line Bore Industries, Inc.",3 Harlan Drive,Oxford,MA,01540,(508) 987-6509
1022,Linwood Mill Apartments,670 Linwood Avenue,Whitinsville,MA,01588,(508) 372-9500
1023,Linwood Mill LLC,670 Linwood Avenue,Northbridge,MA,01588,(508) 266-0630
1024,Literacy Volunteers of SCM,236 Main Street,Southbridge,MA,01550,(508) 765-3880
1025,Live Action Escapes Inc.,415 Main Street,Worcester,MA,01608,(508) 753-1856
1026,Live Well Elder Care Management,7 Bacon Street,Westminster,MA,01473,(941) 587-5362
1027,Livia's Dish,1394 Main Street,Worcester,MA,01603,(508) 926-8861
1028,LLB Architects,"40 Southbridge Street, Suite 303",Worcester,Massachusetts,01608,(508) 556-4648
1029,loanDepot,898 Grafton Street,Worcester,MA,01604,(508) 453-7021
1030,LOCALiQ - USA Today Network,"100 Front Street, FL#3",Worcester,MA,01608,(800) 922-8200
1031,"Lohxa, LLC",600 Main St.,Worcester,MA,01608,(800) 641-5564
1032,Loly's Chicken LLC,446 main st,Worcester,MA,01608,(774) 519-8194
1033,Long Subaru,P.O. Box 549,Webster,MA,01570,(508) 943-7070
1034,Los Matatanes Chimis and More ,25 francis st,Worcetser ,MA,01606,(774) 420-0255
1035,Love Your Home Interiors,22 Nottingham Dr,Jefferson,MA,01522,(508) 735-6995
1036,"Loving Hearts Learning Center, LLC",1 Church Street,Paxton,MA,01612,(508) 579-6906
1037,Lowell Interiors,34 Crowningshield Drive,Paxton,MA,01612,(508) 272-1540
1038,"Luk, Inc.",545 Westminster Street,Fitchburg,MA,01420,(978) 345-0685
1039,Lupus Foundation New England,290 W. Boylston Streete,Worcester,MA,01606,508-872-5200
1040,"Lutco, Inc.",677 Cambridge Street,Worcester,MA,01610,(508) 756-6296
1041,Lutheran Rehab & Skilled Care Center,26 Harvard Street,Worcester,MA,01609,(508) 754-8877
1042,Luxe Headshots,40 Jackson St,Worcester,MA,01608,(774) 385-0793
1043,Luxo Executive Rentals,284 Highland Street,Worcester,MA,01602,(508) 389-4412
1044,Lydia Taft House,60 Quaker Highway,Uxbridge,MA,01569,(508) 278-9500
1045,"Lyft, Inc. ",185 Berry Street,San Francisco,CA,94107,(774) 223-0846
1046,"M&A Supplier Diversity Consultants, L...",197 Winthrop St,Taunton,MA,02780,(508) 298-2251
1047,M&T Bank,120 Front Street,Worcester,MA,01608,(508) 890-5199
1048,"M. Love & Associates, LLC",795 Main Street,Holden,MA,01520,(508) 829-5544
1049,M. Pope & Co. Fine Jewelers,365 Shrewsbury Street,Worcester,MA,01604,(508) 304-8833
1050,M.I.R.A.C.L.E. MAMAS INC.,9 Eastwood Rd.,Shrewsbury,MA,01545,(774) 778-7600
1051,Machado Consulting,"32 Franklin Street, 5th Floor",Worcester,MA,01608,(508) 453-4700
1052,Made from Jewlry LLC,43 Arthur St,Worcester ,MA,01604,(774) 888-7425
1053,Madison Properties,667 Boylston Street,Boston,MA,02116,(617) 986-0016
1054,Maggie's Foods for Pets LLC,67 West Boylston Street,West Boylston,MA,01583,(508) 835-2323
1055,"Magic Lamp Consulting, Inc",114 Water Tower Plaza #1049,Leominster,Massachusetts,01453,(978) 728-3397
1056,Main Street Automotive Service Inc,676 Main Street,Clinton,MA,01510,(978) 368-7211
1057,Main Street Bank,81 Granger Boulevard,Marlborough,MA,01752,(508) 481-8300
1058,Main Street Endodontics,303 Main St.,Worcester,MA,01608,(508) 425-4787
1059,Maine Energy Systems,20 Boulder Park Way,N. Oxford,MA,01608,(207) 824-6749
1060,Majestic Nails and Spa,1057 Main Street,Holden,MA,01520,(508) 267-3006
1061,Major Bloom,76 Millbury Street,Worcester,MA,01610,(774) 420-2904
1062,Major League Barber Shop,"670 Linwood Ave, Suite 10",Whitinsville,MA,01588,(508) 372-9229
1063,Make-A-Wish Massachusetts & Rhode Isl...,181 Park Ave,West Springfield,MA,01089,(413) 252-4936
1064,Mama's Kitchen,595 South Main Street,Webster,MA,01570,(774) 452-4054
1065,"Manafort-Precision, LLC",261 Southwest Cutoff,Worcester,MA,01604,(774) 512-3800
1066,Manchaug Mills Inc,"9 MAIN STREET, SUITE 2-B2",Sutton,MA,01590,(508) 476-1928
1067,"Manchaug Mills, Inc.","9 Main Street, Suite 1A",Sutton,MA,01590,(508) 476-1928
1068,Manzella Bookkeeping,216 West Main Street,Millbury,MA,01527,(508) 282-5585
1069,MAPFRE Insurance,211 Main Street,Webster,MA,01570,(508) 943-9000
1070,"Marchand Insurance Agency, Inc.",505 South Main Street,Webster,MA,01570,(508) 949-7942
1071,Marcia's Elegant LED Rental Logistics...,25 Francis Street,Worcester,MA,01606,(508) 644-1060
1072,Maria Hopkins Associates,23 Lake View Drive,Spencer,MA,01562,(508) 885-5310
1073,Maria Milagros,P.O.Box 74,Fitchburg,MA,01420,(978) 590-0216
1074,Marine Corps League Detachment 1094,P.O.Box 336,Southbridge,MA,01550,(413) 627-0378
1075,"Marino Law, PC",49 Main Street,Sturbridge,MA,01566,(508) 347-5669
1076,"Mark Twombly Lee, Counsellor at Law",221 Main Street,Oxford,MA,01540,(508) 987-3939
1077,Marketing with Russ Inc.,15 Pinewood Drive,West Boylston,MA,01583,(774) 437-8113
1078,Markopoulos Development ,347 Chandler St,Worcester,MA,01602,(774) 437-2313
1079,"Marois Brothers, Inc.",115 Blackstone River Road,Worcester,MA,01607-1491,(508) 791-8134
1080,Marsh McLennan Agency,"100 Front Street, Suite 800",Worcester,MA,01608-1435,(508) 852-8500
1081,Martha Convers,2306 Talbot Way,Westborough,MA,01581,(774) 288-9521
1082,Marty's of Dudley,119 W. Main Street,Dudley,MA,01571,(508) 943-0101
1083,Masis Staffing Solutions,1331 Grafton Street,Worcester,MA,01604,(508) 422-7452
1084,Mass Audubon's Broad Meadow Brook Con...,414 Massasoit Road,Worcester,MA,01604,(508) 753-6087
1085,Mass Concrete & Aggregate Producers A...,5 Bruce Street,Grafton,MA,01519,(508) 320-3070
1086,Mass General Brigham Health Plan,399 Revolution Drive,Somerville,MA,02145,(617) 755-3434
1087,Mass Media Resources,664 South Street,Shrewsbury,MA,01545,(508) 842-4900
1088,Mass. Truck Refrigeration Service,47 Sword Street,Auburn,MA,01501-2146,(508) 767-1616
1089,Massachusetts Biomedical Initiatives ,17 Briden Street,Worcester,MA,01605,(508) 797-4200
1090,Massachusetts Growth Capital Corp.,529 Main Street,Charlestown,MA,02129,(617) 337-2819
1091,Massachusetts League of Community Hea...,16 Brooks Street,Worcester,MA,01606,(508) 365-6348
1092,Massachusetts Women of Color Coalitio...,19 Liberty Street,Worcester,MA,01605,(508) 873-9252
1093,MassDevelopment,427 Main Street,Worcester,MA,01608,(617) 330-2000
1094,MassHire Central Region Workforce Boa...,554 Main Street,Worcester,MA,01608,(508) 799-1600
1095,MassHire North Central Workforce Boar...,100 Erdman Way,Leominster,MA,01453,(978) 534-1023
1096,MassLive Media,10 Mechanic Street,Worcester,MA,01608,(508) 570-8163
1097,MassMEP,27A Midstate Drive,Auburn,MA,01501,(508) 831-7020
1098,Masterman's,11 C Street/P.O. Box 411,Auburn,MA,01501-0411,(508) 755-7861
1099,Master's Touch Cleaning ,,Worcester,MA,01608,(774) 232-9777
1100,Mastodon Moving,191 Flanders Road,Westborough,MA,01581,(774) 421-9004
1101,"Matkim Industries, Inc.",2 Hawksley Dr,Oxford,MA,01540,(508) 987-3599
1102,"Matteo Gentile - Real Broker MA, LLC",16 Winchester Avenue,Auburn,MA,01501,(508) 981-6556
1103,Matt's Hydroponics LLC ,125 East Main Street,Webster,MA,01570,(508) 461-5850
1104,Matty-Os,310 Pleasant Street,Leicester ,MA,01524,(774) 452-1433
1105,Maugel DeStefano Architects,200 Ayer Rd,Harvard,MA,01451,(978) 456-2800
1106,Maureen Massad,411 Cross Street,Boylston,MA,01505,(508) 869-0596
1107,Maxwell Luciano's,2 Washington Square,Worcester,MA,01604,(508) 755-6408
1108,"Mayflower Advisors, LLC","287 Turnpike Road, Suite 250",Westborough,MA,01581,(508) 948-4053
1109,May's Antique Market,10 Palmer Road,Brimfield,MA,01010,(413) 245-9271
1110,McCurdy Group,212 Main St,Sturbridge,MA,01566,(508) 347-9343
1111,McDonald's (The Hurley Org LLC),638 Main Street,Holden,MA,01520,(508) 829-5615
1112,McGrath Insurance - A Division of Sta...,258 Main Street,Sturbridge,MA,01566,(508) 347-6850
1113,McHugh Junk Removal ,131 Main St.,Lancaster ,MA,01523,(978) 501-7061
1114,"McLean Coaching and Consulting, LLC","100 Front St, Suite 401",Worcester,MA,01608,(508) 414-0290
1115,McNally & Watson Funeral Home,304 Church Street,Clinton,MA,01510,(978) 365-3144
1116,McNamara Waste Services LLC.,24 East Longmeadow Road,Hampden,MA,01036,(413) 566-8322
1117,MCPHS University,19 Foster Street,Worcester,MA,01608,(508) 890-8855
1118,Meadowbrook Orchards,209 Chace Hill Road,Sterling,MA,01564,(978) 365-7617
1119,Mechanics Hall (Wor),321 Main Street,Worcester,MA,01608,(508) 752-5608
1120,Medline,81 Campanelli Drive,Uxbridge,MA,01569,(508) 526-3971
1121,Megan Akatu Coaching & Culture,24 Ptarmigan Dr,Shrewsbury,MA,01545,(908) 892-2988
1122,Mejor Distribution,6 Industrial Drive,Exeter,NH,03833,(917) 944-1116
1123,"Melissa Hadley, Realtor, S.C.E. Real ...",76 Old Farm Road,Douglas,MA,01516,(508) 667-4057
1124,Melody L. Beach Consulting Group,63 Newell Avenue,Southbridge,MA,01550,(508) 330-0343
1125,Menkiti Group,554 Main Street,Worcester,MA,01608,(202) 733-5455
1126,Mercadante Funeral Home,370 Plantation Street,Worcester,MA,01605,(508) 754-0486
1127,"Mercier Electric Co., Inc.",139 Southbridge Street/Box 357,Auburn,MA,01501,(508) 792-9200
1128,Merrill Lynch,"100 Front Street, 9th Floor",Worcester,MA,01608,(508) 926-3708
1129,Meryl's Safe Haven,,Worcester,MA,01602,(508) 304-6158
1130,Metta Heart Kitchen,3 3rd St,Worcester,MA,01602,(508) 925-0415
1131,Mexicali Cantina Grill (El Mercado In...,700 Main Street,Holden,MA,01520,(508) 829-7700
1132,Mexicali Mexican Grill (CMS),117 Main Sreet,Spencer,MA,01562,(704) 941-5777
1133,Mexicali's Fresh Mex Grill (WDO),41 Worcester Road,Webster,MA,01570,(508) 461-5070
1134,MEYER INC.,1 Woodmeister Way,Holden,MA,01520,(508) 847-5172
1135,MG2 Group,50 Franklin Street,Boston,MA,02110,(617) 412-3200
1136,MGB General Contractor,5 Lucian Street,Worcester,MA,01603,(857) 346-5364
1137,MGM Springfield,One MGM Way,Springfield,MA,01103,(413) 273-5670
1138,MIAA,33 Forge Parkway,Franklin,MA,02038,(508) 541-7997
1139,MI-BOX of Greater Worcester,710 Fort Pond Road,Lancaster,MA,01523,(508) 954-0403
1140,Michael DeLuca - Coldwell Banker,Coldwell Banker,Worcester,MA,01605,978-973-2702
1141,Michael L. Wales Painting Company Inc...,P.O. Box 4,Brimfield,MA,01010,(413) 335-2412
1142,"Michelle Haggstrom, Keller Williams R...",670 Mechanic Street,Leominster,MA,01453,(978) 660-9912
1143,Middlesex Savings Bank,120 Flanders Road,Westborough,MA,01581-5210,(508) 599-5877
1144,Midstate Auto Group,810 Washington Street,Auburn,MA,01501,(508) 832-8886
1145,Midstate Wealth Mgmt.,23 Midstate Drive,Auburn,MA,01501,(508) 792-1540
1146,Mike Mitchell Consulting LLC,21 Kings Mountain Dr,West Boylston,MA,01583,(774) 261-0571
1147,Mike Perotto Insurance Agency,318 Plantation Street,Worcester,MA,01604,(508) 791-2088
1148,Miles Funeral Homes,1158 Main Street/P.O. Box 81,Holden,MA,01520,(508) 829-4434
1149,"Miles Press, Inc. (AUB)","14 Sword Street, Suite E",Auburn,MA,01501,(508) 752-6430
1150,"Miles Press, Inc. (Wach)",14 Sword Street,Auburn,MA,01501,(508) 752-6430
1151,Miles-Sterling Funeral & Tribute Cent...,100 Worcester Road,Sterling,MA,01564,(978) 422-0100
1152,Milford Federal Bank,246 Main Street,Milford,MA,01757,(508) 634-2500
1153,Mill Street Motors,253 Mill Street,Worcester,MA,01602,(508) 799-2622
1154,Millbury Federal Credit Union,MILLBURY FEDERAL CREDIT UNION,Millbury,MA,01527,(508) 865-7621
1155,Millbury Federal Credit Union ,56 Auburn Street,Auburn,MA,01501,(508) 852-7510
1156,Millbury National Bank,18 Main Street,Millbury,MA,01527,(508) 865-9521
1157,Millbury-Sutton Chronicle,"100 Front Street, 5th Floor",Worcester,MA,01608,(508) 865-1645
1158,Miller Fence Company,333 Southwest Cutoff,Worcester,MA,01604-2713,(508) 753-8581
1159,Mint Kitchen & Bar,79 Maywood St,Worcester ,MA,01603,(508) 365-8299
1160,Minuteman Press (Wor),122 Green Street,Worcester,MA,01604,(508) 757-5690
1161,Miphie Yakusu,25 Francis street,worcester,MA,01610,(774) 578-4011
1162,"MIRA, Inc.",414 Quaker Highway,Uxbridge,MA,01569,(508) 278-7877
1163,Mirick O'Connell,"100 Front Street, Fl. 17",Worcester,MA,01608-1477,(508) 791-8500
1164,Mirick O'Connell (WACH),"100 Front Street, Ste 1700",Worcester,MA,01608,(508) 791-8500
1165,"Miss Cookie Packaging, Inc.",One Main Street,Whitinsville,MA,01588,(508) 523-5612
1166,Mission MA,640 Lincoln Street,Worcester,Massachusetts,01605,(774) 285-1729
1167,MLS Property Information Network Inc,904 Hartford Turnpike,Shrewsbury,MA,01545,508-845-1011
1168,Mobile Car Pro,697 Hartford Turnpike,Shrewsbury,MA,01545,(800) 627-0501
1169,"MobileMed Transportation, Inc.",171 Charlton Rd.,Sturbridge,MA,01566,1-508-347-5000
1170,"Monalex Manufacturing, Inc.",10 Riedell Road,Douglas,MA,01516,(508) 476-1200
1171,"Monette Landscaping & Construction, I...",133 Wilson Street,Spencer,MA,01562,(508) 885-2579
1172,Montigney Landscaping,P.O. Box 903,Sturbridge,MA,01566,(508) 347-5682
1173,Montilla Plastic Surgery,123 Summer Street,Worcester,MA,01608,(508) 948-4030
1174,Moon Magick Cafe by Chey LLC,210 Hamilton Street,Southbridge,MA,01550-3026,(774) 318-8776
1175,Morataya's Cleaning LLC ,325 Redemption rock Trail,Sterling,MA,01564,(978) 648-1326
1176,Morin Jewelers,409 Main Street,Southbridge,MA,01550-3728,(508) 764-7250
1177,"Morris Auto Radiator Co., Inc.",375 Franklin Street,Worcester,MA,01604,(508) 755-6240
1178,Mortgage Network Inc.,99 Conifer Hill Drive,Danvers,MA,01923,(978) 777-7500
1179,Moscow Nights,808 Pleasant Street,Worcester,MA,01602,(508) 799-0751
1180,"Mountain, Dearborn & Whiting LLP","MDW, 370 MAIN STREET",Worcester,MA,01608,(508) 756-2423
1181,"Moura's Cleaning Service, Inc.",349 Lunenburg Street,Fitchburg,MA,01420,(978) 562-1839
1182,Movement Works Massage Therapy,672 Main St,Holden,MA,01520,(508) 713-5606
1183,"Moynagh's Tavern, Inc.",25 Exchange St.,Worcester ,MA,01608,5087539686
1184,"MSG Staffing, Inc",562 Lincoln st,Worcester,MA,01605,(508) 799-6674
1185,MSM Wealth Management Group,181 Main St,Shrewsbury,MA,01545,(508) 842-6222
1186,"Mt. Wachusett Veterinary Hospital, In...",11 Mayo Drive,Holden,MA,01520,(508) 829-0419
1187,Mulroy Family Dental,1072 Main Street,Holden,MA,01520,(508) 829-3698
1188,Multiscale Systems,49 Canterbury St,Worcester,MA,01610,(855) 955-7900
1189,"Mungeam Cornish Golf Design, Inc.",195 SW Main Street,Douglas,MA,01516,(508) 873-0103
1190,Munq LLC,92 SPRING ST,SHREWSBURY,MA,01545,(774) 275-4067
1191,Munro Associates dba The Vault,70 Worcester Road,Webster,MA,01570,(774) 520-2420
1192,Murray & Murray LLP,688 Pleasant Street,Worcester,MA,01602,(508) 754-4900
1193,Murray Outdoor Communications,167B Memorial Drive,Shrewsbury,MA,01545,(508) 842-7764
1194,Museum of Worcester,30 Elm Street,Worcester,MA,01609,(508) 753-8278
1195,myKidzDay LLC,7 Orchard Hill Drive,Westborough,MA,01581,(860) 593-2955
1196,NAI Glickman Kovago & Jacobs,"One Mercantile Street, Suite 510",Worcester,MA,01608,(508) 753-9100
1197,Nandy's Cleaning Service,41 West St,Paxton,MA,01612,(508) 873-5373
1198,Napoli Shkolnik PLLC ,Post Office Box 128,Clinton,MA,01510,(212) 397-1000
1199,Nathan Goodale Bed & Breakfast,11 Warren Road,Brimfield,MA,01010-0094,(413) 245-9228
1200,"National Glass Works, Inc.",372 Park Avenue,Worcester,MA,01610,(508) 753-7209
1201,National Grid (BV),245 South Main Street,Hopedale,MA,01747-1499,(508) 482-1283
1202,National Grid (Wor),939 Southbridge Street,Worcester,MA,01610,(508) 860 6000
1203,Nativity School of Worcester,67 Lincoln Street,Worcester,MA,01605,(508) 799-0100
1204,Nature's Classroom Inc.,Prindle Pond Conference Center,Charlton,MA,01507,(508) 248-2741
1205,NEADS Inc.,P.O. Box 1100,Princeton,MA,01541,(978) 422-9064
1206,Neal Glatt,110 Genivieve Drive,Whitinsville,MA,01588,(805) 340-9311
1207,Neet Meals ,422 plantation st,worcester,MA,01605,(508) 444-2166
1208,Neil Payne - Lamacchia Realty,130 SIngletary Ave,Sutton,MA,01590,(774) 418-6432
1209,NEPM,15 Main St,Wilbraham,MA,01095,(413) 596-4800
1210,New American Funding LLC,259 Park Avenue,Worcester,MA,01609,508-755-9881
1211,New England Botanic Garden at Tower H...,11 French Drive,Boylston,MA,01505,(508) 869-6111
1212,New England Certified Development Cor...,"500 Edgewater Drive, Suite 555",Wakefield,MA,01880,(781) 928-1100
1213,"New England Economic Development, Inc...",80 Orange Street,Douglas,MA,01516,(508) 476-3900
1214,New England Home Buyers,800 Broadway,Haverhill,MA,01832,(978) 228-1068
1215,New Hope ,140 Park Street,Attleboro,MA,02703,(508) 226-4015
1216,New Worcester Motors,440A Shrewsbury Street,Worcester,MA,01604,(508) 752-4422
1217,New York Life (Wach),"1174 Main Street, Suite 203",Holden,MA,01520,(774) 345-4258
1218,New York Life Insurance Company (CMS),1700 West Park Dr,Westborough,MA,01581,(404) 840-5988
1219,New York Life-Shannon Brown,201 Jones Rd. 5th Floor,Waltham,MA,02451,(863) 738-4590
1220,Next Junk Removal Inc,716 WEST BOYLSTON ST,Worcester,MA,01606,(774) 578-7088
1221,Nexus Property Management,859 W Boylston St,Worcester,MA,01606-3075,(508) 687-3001
1222,Nichi Cocina,12 Paradox Dr,Worcester,MA,01602,(857) 919-8594
1223,"Nicholas Tretter, DDS",694 Main Street,Holden,MA,01520,(508) 829-6665
1224,Nichols College,121 Center Road,Dudley,MA,01571,(800) 470-3379
1225,Nichols College (WDO),Center Road/P.O. Box 5000,Dudley,MA,01571,(508) 213-2289
1226,Nikki's Nigerian Special Meals,25 francis street,worcester,MA,01606,(774) 641-1100
1227,Nitsch Engineering,"370 Main Street, Suite 850",Worcester,MA,01608,(508) 365-1030
1228,Noamesco Bar and Lounge,43 Pleasant Street,Worcester,MA,01609,(508) 926-8844
1229,North Brookfield Savings Bank,35 Summer Street,North Brookfield,MA,01535,(866) 711-6272
1230,North End Motor Sales,927 West Boylston Street,Worcester,MA,01606,(508) 853-7665
1231,North Pointe Wealth Management,"1 Mercantile Street, Ste 530",Worcester,MA,01608,(508) 799-2196
1232,Northeast Battery,4 Westec Drive,Auburn,MA,01501,(800) 441-8824
1233,"Northeast Home & Energy, Inc.",21 North Main Street,North Grafton,MA,01536,(508) 839-7001
1234,"Northeast Insurance Agency, Inc.",567 Southbridge Street,Auburn,MA,01501,(508) 832-0404
1235,Northeast Properties Management,250 Commercial St,Worcester,MA,01608,(508) 757-0499
1236,Notre Dame Academy,425 Salisbury Street,Worcester,MA,01609,508-757-6200
1237,Notre Dame Health Care,559 Plantation Street,Worcester,MA,01605,(508) 852-5800
1238,"Notre Dame Health Care Center, Inc. (...",559 Plantation Street,Worcester,MA,01605,(508) 852-5800
1239,Nouria Energy Corporation,326 Clark St,Worcester,MA,01606-1214,(508) 762-3700
1240,Novalarm Systems Inc,65 Tanzio Rd,Leominster,MA,01453,(978) 728-9990
1241,"Nu-England Services Co., Inc.",190 Worcester Providence Road,Sutton,MA,01590,(508) 865-9810
1242,NuLife Behavioral Health,359 Main Street,Worcester,MA,01608,(888) 409-0089
1243,Nuovo Restaurant ,92 Shrewsbury Street,Worcester,MA,01604,(508) 796-5915
1244,NV Creations LLC,50 Cranberry Meadow Road,Charlton,MA,01507,(508) 797-7973
1245,Oak Barrel Tavern,229 Grove street,Worcester,MA,01605,(508) 755-8047
1246,Oakdale Rehabilitation & Skilled Nurs...,76 N. Main Street,West Boylston,MA,01583,(508) 835-6076
1247,Oasis Cleaning LLC,12 Susan Drive,Dudley,MA,01571,(508) 333-6965
1248,O'Brien & Gibbons Ins. Agency,20 Park Avenue,Worcester,MA,01605,(508) 752-7504
1249,OC Marketing Service,36 Mill St,Quincy,MA,02169,(774) 773-8273
1250,Ocean First Bank,Ocean First Bank,Boston,MA,02,1-508-422-6960
1251,"O'Connell & O'Connell, P.C.",425 Pakachoag Street,Auburn,MA,01501,(508) 832-5872
1252,O'Connell Care at Home,325 Southbridge st,Auburn,MA,01501,(413) 301-3846
1253,O'Connell Development Group Inc.,800 Kelly Way,Holyoke,MA,01040,(413) 540-1327
1254,O'Connor & Company Insurance Agency,16 Village Street/P.O. Box 1458,Dudley,MA,01571,(508) 943-9594
1255,O'Connor & Company Insurance Agency (...,16 Village Street,Dudley,MA,01571,(508) 943-3333
1256,"O'Connor, Maloney & Company, P.C.",1 Mercantile Street,Worcester,MA,01608,(508) 757-6391
1257,O'Connor's Restaurant & Bar,1160 W Boylston St,Worcester,MA,01606,(508) 853-0789
1258,Off the Common Antiques,4 worcester Street,Grafton,MA,01519,(508) 839-1700
1259,Off The Rails LLC,90 Commercial Street,Worcester,MA,01608,(508) 304-6411
1260,"OFS Fitel, LLC",50 Hall Road,Sturbridge,MA,01566-1251,(508) 347-6011
1261,"O'Hara-Buthray Associates, Inc.",1 West Boylston Street,Worcester,MA,01609,(508) 757-9381
1262,Old Sturbridge Village,One Old Sturbridge Village Road,Sturbridge,MA,01566,(800) 733-1830
1263,"Olympic Trophy & Awards, LLC",1078 West Boylston Street,Worcester,MA,01606,(508) 754-3293
1264,Omama Services Incorporated,370 Main Street,Worcester,MA,01608,(508) 459-1549
1265,Omni Control Technology Inc.,P.O. 01588,Whitinsville,MA,01588,(508) 234-9121
1266,"Omni Services, Inc.",12 East Worcester Street,Worcester,MA,01604,508-799-2746
1267,One Dao Acupuncture,"512 Main St, Suite B",Holden,MA,01520,(774) 535-0973
1268,One Eleven Chop House,111 Shrewsbury St.,Worcester,MA,01604,(508) 799-4111
1269,OneDigital,250 Royall Street,Canton,MA,02021,(774) 272-2613
1270,O'Neill and Associates,18 Tremont Street,Boston,MA,02108,(617) 646-1000
1271,"On-Line Credit Card Services, Inc. (C...",237 Cedar Street,Fiskdale,MA,01518,(508) 347-1041
1272,Onyx Capital Ventures LLC,59 Eastern Ave,Worcester,MA,01605,(774) 262-4855
1273,"Opacum Land Trust, Inc.",P.O. Box 233,Sturbridge,MA,01566,
1274,Open Sky Community Services,4 Mann Street,Worcester,MA,01602,(508) 755-0333
1275,Open Sky Community Services (BV),50 Douglas Road,Whitinsville,MA,01588,(508) 234-6232
1276,OPRCH - The Office of Penn Ruderman A...,110 Gleasondale Road,Stow,MA,01775,(617) 855-5277
1277,Optical Heritage Museum,12 Crane Street,Southbridge,MA,01550,(508) 765-4801
1278,"Optimum Investment Realty, LLC",75 State Street,Boston,MA,02109,(617) 906-8055
1279,Orange Salon,70 Worcester Providence Turnpike,Millbury,MA,01527,(508) 865-5599
1280,Orloff Tree Service & Excavation Inc,313 Henshaw St,Leicester,MA,01524,(508) 320-9080
1281,"Ostrow Electrical Company, Inc.",9 Mason Street,Worcester,MA,01609,(508) 754-2641
1282,Oswaldo Pimentel Agent With New York ...,2 Lakeshore Center 2nd Floor,Bridgewater,MA,02324,(305) 587-8615
1283,"Our Bright Future, Inc.(CMS)",254 Little Alum Road,Brimfield,MA,01010,(774) 578-5111
1284,Overhead Door Company of Worcester,60 Sunderland Road,Worcester,MA,01604,(508) 791-3912
1285,Owl's Eye Technologies,PO Box 624,South Lancaster,MA,01561,(508) 556-3079
1286,Oxford Fire & Emergency Services,181 Main Street,Oxford ,MA,01540,(508) 987-6012
1287,Oxford Insurance Agency,300 Main Street,Oxford,MA,01540,(508) 987-0333
1288,Oyster Enterprise,40 Orne St,Worcester,MA,01605,(339) 214-8039
1289,P.O.P Services,,Worcester,MA,01604,(774) 333-1509
1290,P2M2 Payroll Service,30 Heritage Road,Uxbridge,MA,01569,(508) 943-3444
1291,Packard Law Office,"47 Harvard Street, Suite 220",Worcester,MA,01609,(508) 926-8987
1292,"Pagano Media, Inc.",11 Millbrook Street,Worcester,MA,01606,(508) 595-9200
1293,Page Chiropractic Health Center,P.O. Box 1187,Webster,MA,01570,(508) 943-8895
1294,Pakachoag Church,203 Pakachoag Street,Auburn,MA,01501,(508) 755-8718
1295,Palley Advertising,100 Grove Street,Worcester,MA,01605,(508) 792-6655
1296,Palomino Colombian Restaurant ,29 Westland St,Worcester ,MA,01602,(508) 410-6775
1297,"Panzix Global HR Solutions, LLC",34 Cedar Street,Worcester,MA,01609,(508) 219-6271
1298,"Paradis-Givner Funeral Home, Inc.",357 Main Street,Oxford,MA,01540,(508) 987-2100
1299,Paragus Strategic IT,112 Russell Street,Hadley,MA,01035,1-413-587-2666
1300,Paramount Realty Group,P.O. Box 538,N. Grafton,MA,01536,(508) 839-5200
1301,Paridae Beauty ,65 Central Street,West Boylston ,MA,01583,(978) 464-2312
1302,Party Time Caricatures,39 Borkum Road,Spencer,MA,01562,(508) 885-9410
1303,Pat Hoey Productions,7 Chestnut Ave,Auburn,MA,01501,(508) 832-3300
1304,Path to Mastery LLC ,7 Holman Road,Millbury,MA,01527,(774) 696-3656
1305,Pathways for Change Inc.,588 Main Street,Worcester,MA,01608-2014,(508) 852-7600
1306,"Patient, Aiken & Associates, PC ",50 Lake Ave,Worcester,MA,01604,(508) 791-7982
1307,Patricia Westberg,"27 Mount Vernon Street, Apt 708",Worcester,MA,01605,
1308,Patsie Dugan's LLC,49 Millbury Street,Worcester,MA,01610,(508) 755-4155
1309,Paul Odgren,27 Wiltshire Drive,Worcester,MA,01609,(774) 364-5155
1310,PayMore,68 Stafford St,Worcester,MA,01603,1-508-870-5100
1311,PCA CONCRETE & CONSTRUCTION INC,16 Harrington Ave,Shrewsbury,MA,01545,(857) 205-3125
1312,"Penta Communications, Inc.",208 Turnpike Road,Westborough,MA,01581,(508) 616-9900
1313,Peppercorn's Grille & Tavern,455 Park Avenue,Worcester,MA,01610,(508) 752-7711
1314,Peppers Artful Events ,43 Hudson Street,Northborough,MA,01532,(508) 393-6844
1315,Pepsi-Cola Bottling Company,90 Industrial Drive,Holden,MA,01520,(508) 829-6551
1316,Percy's TV & Appliance,19 Glennie Street,Worcester,MA,01605,(508) 755-5269
1317,Peregrine Property Management,20 Newman Ave - Suite 1005,Rumford,RI,02916,(401) 270-0600
1318,Perfect Fit Tailoring,246 Commercial Street,Worcester,MA,01608,(508) 753-6669
1319,Performance Health Clinics of Shrewsb...,415 Boston Turnpike,Shrewsbury,MA,01545,(888) 926-1223
1320,"Pernet Family Health Service, Inc.",237 Millbury Street,Worcester,MA,01610,(508) 755-1228
1321,Perrone Landscaping Inc,876 Salisbury Street,Holden,MA,01520,(508) 735-9814
1322,Perro's Flowers,284 Grafton St,Worcester,MA,01604,(508) 755-7744
1323,Perro's Service Center & Auto Body,354 Harding Street,Worcester,MA,01610,
1324,"Peter B. Plumb, CPA",83 Church Street,Whitinsville,MA,01588,(508) 234-8311
1325,Peters & Sowyrda,One Mercantile Street,Worcester,MA,01608,(508) 755-4300
1326,Petersen & Ryan PLLC,11 Maple Avenue,Shrewsbury,MA,01545,(508) 842-2540
1327,"Peterson Oil Service, Inc. (CMS)",75 Crescent Street,Worcester,MA,01605,(508) 368-1000
1328,"Peterson Oil Service, Inc. (Wor)",75 Crescent Street,Worcester,MA,01605,(508) 368-1000
1329,"Petricore, Inc.",67 Millbrook Street,Worcester,MA,01606,(508) 642-0928
1330,Phil Smith Photography,135 Franklin Street,Douglas,MA,01516,(508) 498-7728
1331,Philbin & O'Neil LLC,43 High St,Clinton,MA,01510,(978) 365-4587
1332,Philip Morris International,677 Washington Blvd,Stamford,CT,06901,(202) 705-2192
1333,Phillips Medisize,1 Union Street,Clinton,MA,01510,(978) 365-1200
1334,Phoenix Communications,25 Bowditch Drive,Shrewsbury,MA,01545,(508) 438-0360
1335,Phoenix Marketing and Advertising Inc,64 dewey st,Worcester,MA,01610,(508) 755-6713
1336,Photography by John Cannon,31 Winslow St,Lancaster,MA,01523,(978) 602-6154
1337,Piccolo's Restaurant,157 Shrewsbury Street,Worcester,MA,01604,(508) 754-1057
1338,Pickle Barrel Deli,305 Pleasant Street,Worcester,MA,01609,(508) 754-0921
1339,Piercing Emporium,205 Shrewsbury Street,Worcester,MA,01604,(508) 754-0564
1340,Pinch of Africa,40 Country club Boulevard #12,Worcester MA,MA,01605,(508) 736-5355
1341,Pine Ridge Country Club,28 Pleasant Street,North Oxford,MA,01537,(508) 892-9188
1342,Pinecrest Builders,18 Burncoat St.,Leicester,MA,01524,(508) 753-8180
1343,Pinnacle Unemployment Services and Co...,100 Grove Street,Worcester,MA,01605,(508) 425-6991
1344,Pioneer Valley Environmental,1 East Main St.,Ware,MA,01082,(413) 477-6984
1345,PJ Lombardo Insurance Agency,789 Wachusett St,Holden,MA,01520,508-829-7100
1346,"Place Motor, Inc.",19 Thompson Road,Webster,MA,01570,(508) 943-8012
1347,Pleasant Valley Country Club,95 Armsby Road,Sutton,MA,01590,(508) 865-4441
1348,Pleasant View Potties,214 Sterling St,Clinton,MA,01510,(978) 765-3001
1349,PM Group,200 Summit Dr,Burlington,MA,01803,(617) 293-6940
1350,"POBCO, Inc.",99 Hope Avenue,Worcester,MA,01603,(508) 791-6376
1351,Point Breeze Restaurant,114 Point Breeze Road,Webster,MA,01570,(508) 943-0404
1352,Polar Beverages (Wor),P.O. Box 15011,Worcester,MA,01615-0011,(508) 753-6383
1353,Polar views llc ,39 Lamartine Street,Worcester ,MA,01610,(774) 303-9860
1354,Polito Development Corporation,587C Hartford Turnpike,Shrewsbury,MA,01545-4002,(508) 842-2802
1355,Polyvinyl Films,38 Providence Rd,Sutton,MA,01590,(508) 865-3558
1356,Portatree Timing Systems Inc.,594 Blackstone Street,Uxbridge,MA,01569,(508) 278-2189
1357,Porter and Chester Institute,220 Brooks Street,Worcester,MA,01606,(508) 304-6500
1358,Positively Suzanne LLC,103 Orient Street,Worcester,MA,01604,1-774-253-8552
1359,Power Computers,96 Longmeadow Drive,Pomfret Center,CT,06259,(774) 230-5734
1360,"Power Engineering Co., Inc.",P.O. Box 4548,Shrewsbury,MA,01545-7548,(508) 842-3954
1361,Powerplay Energy Group,65 James Street,Worcester,MA,01603,7742892218
1362,Pratt Trucking,22 Town Forest Road,Oxford,MA,01540,(508) 987-1187
1363,Precious Ones Child Care Center & Pre...,130 Douglas Street,Uxbridge,MA,01569,(508) 779-7365
1364,"Precision Engineering, Inc.",P.O. Box 546,Uxbridge,MA,01569-0546,(508) 278-5700
1365,Prematech Advanced Ceramics,160 Goddard Memorial Drive,Worcester,MA,01603,1-508-791-9549
1366,Premeer Real Estate,"40 Douglas Street, Unit 2",Uxbridge,MA,01569,(508) 278-5390
1367,Premier Exteriors & Design,500 Main Street,Fiskdale,MA,01518,(413) 207-6074
1368,Prestige Salon LLC,118 Main Street,Webster,MA,01570,(508) 671-0069
1369,Price 4 Limo Boston,198 Tremont St. #1253,Boston,MA,02116,(866) 265-5479
1370,"PRIMETALS TECHNOLOGIES USA, LLC",93 Gilmore Drive,Sutton,MA,01590,(508) 849-6300
1371,Prince Lobel Tye LLP,120 Front St.,Worcester,MA,01608,
1372,Printer Pro Solutions,174 Davis St,Douglas,MA,01516,(508) 476-9003
1373,Priority Fire and Security Inc ,60 Water St Unit C-7,Clinton,MA,01510,(508) 481-8909
1374,Prism of Brilliance,"696 Grafton Street, Apt 1",Worcester,MA,01604,(774) 261-3126
1375,Private Client Capital Partners,800 Boylston Street,Boston,MA,02199,(617) 264-0064
1376,Pro Automotive,626 South Main Street,Webster,MA,01570,(508) 461-5535
1377,Project Psyclone Productions,23 Stoneland Rd #3,Worcester,MA,01603,(774) 633-6449
1378,Promo Print Plus LLC (WACH),800 Main Street,Holden,MA,01520,(781) 389-0852
1379,Promoting Good,56 Williams Street,Worcester,MA,01609,(617) 529-2119
1380,PROTECH LASER,PO Box 616,Auburn,MA,01501,508-799-2432
1381,Pro-Tech PEST CONTROL,541 Pleasant St,WORCESTER,MA,01602-2757,(508) 757-2409
1382,Providence & Worcester Railroad Co.,75 Hammond Street,Worcester,MA,01610,(508) 755-4000
1383,PTTRANSPORTATION,"100 Front Street, Suite 401",Worcester,MA,01608,(718) 419-3532
1384,"Public Health Solutions, LLC",15 Coventry Road,Worcester,MA,01608,(774) 261-2315
1385,Publick House Historic Inn,Main Street,Sturbridge,MA,01566,(508) 347-3313
1386,PuroClean Certified Restoration Speci...,482 Southbridge St. Suite 331,Auburn,MA,01501,(774) 321-3232
1387,Quaboag Valley Community Development ...,"23 West Main Street, Suite 1",Ware,MA,01082,(413) 967-3001
1388,Quadrant Home Care Inc.,31 Fairhaven Rd,Worcester,MA,01606,(774) 535-5716
1389,Quality Beverage L.P.  - Auburn Divis...,12 St. Mark Street,Auburn,MA,01501,(508) 832-5311
1390,"Quality Contracting, Inc.",211 Southbridge Street,Auburn,MA,01501,(508) 756-8800
1391,Quality Physical Therapy,179 Main Street,Sturbridge,MA,01566-1284,(508) 347-8141
1392,"Quilla Health, LLC",70 James Street,Worcester,MA,01602,(508) 963-5299
1393,Quinn's Irish Pub,715 West Boylston St,Worcester,MA,01606,508-459-2025
1394,Quinsigamond Community College (BV),670 West Boylston Street,Worcester,MA,01606,(508) 854-2733
1395,Quinsigamond Community College (CMS),670 West Boylston Street,Worcester,MA,01606,(508) 854-2733
1396,Quinsigamond Community College (Wor),670 West Boylston Street,Worcester,MA,01606-2092,(508) 854-4203
1397,R J Paquette LLC,1395 Wachusett Street,Jefferson,MA,01522,(508) 829-5052
1398,R. W. Mura & Company,70 James Street,Worcester,MA,01603,(508) 340-6963
1399,"R.D. Berthiaume Business Consultants,...",13 Rochdale Street,Auburn,MA,01501,(508) 832-0660
1400,R.H. White Construction Co.,41 Central Street,Auburn,MA,01501,(508) 832-3295
1401,R.H. White Construction Co. (Aub),41 Central Street,Auburn,MA,01501,(508) 832-3295
1402,"R.P. Masiello, Inc.",38 Main Street,Boylston,MA,01505,(508) 869-6501
1403,Radio Worcester,134 Gold St.,Worcester,MA,01608,508-404-5509
1404,Rahila's Kitchen,2C Oliver Street,Worcester,MA,01603,(774) 251-7042
1405,Raices Latin Dance,120 Westboylston St,Worcester,MA,01606,(917) 838-9891
1406,"Rampco Construction Company, Inc.",120 Schofield Avenue,Dudley,MA,01571,(508) 943-8818
1407,Ramsey Money Coach,147 Northgate Road,NORTHBOROUGH,MA,01532,(508) 439-3034
1408,Rand-Whitney Container LLC,1 Rand-Whitney Way,Worcester,MA,01607,(508) 791-2301
1409,Rapscallion,195 Arnold Road,Fiskdale,MA,01518,(617) 869-5701
1410,Rasky Partners,14 Beacon St.,Boston,MA,02108,(617) 443-9933
1411,Raviolis Restaurant LLC ,45 River Street,Millbury ,MA,01527,(508) 581-4088
1412,"Raymond James Restoration, Inc.",100 North Street,Worcester,MA,01608,(508) 753-5230
1413,RCAP Solutions (Clin),191 May Street,Worcester,MA,01602-4353,(800) 488-1969
1414,"RCAP Solutions, Inc.",191 May Street,Worcester,MA,01602,(800) 488-1969
1415,Re/Max Advantage 1,50 Lakeview Avenue,Dudley,MA,01571,(508) 864-8163
1416,Re/Max Advantage 1 (WDO),21 Schofield Avenue,Dudley,MA,01571,(508) 943-7669
1417,RE/MAX Bell Park Realty,610 Hartford Pike,Dayville,CT,06241,(860) 774-7600
1418,RE/MAX Diverse,124 Shrewsbury Street,Worcester,Massachusetts,01604,(774) 823-3441
1419,RE/MAX Partners,164 Harding Street,Worcester ,MA,01604,(774) 696-1810
1420,RE/MAX Professional Associates (CMS),49 Main Street,Sturbridge,MA,01566,(508) 347-9595
1421,RE/MAX Vision,1 West Boylston,Worcester,MA,01605,(508) 842-3000
1422,RE/MAX Vision - Diane Casey-Luong,25 Union Street,Worcester,MA,01608,(774) 239-2937
1423,Ready 2 Run Graphics & Signs,240 Barber Avenue Ste R,Worcester,MA,01606,(508) 459-9977
1424,Real Estate Investing Bot,137 Woodhouse Ave,Northford,CT,06472,(203) 800-6814
1425,REALTOR Association of Central MA,492 Washington Street,Auburn,MA,01501,(508) 832-6600
1426,Realty Vision ,2 High Street,Clinton,MA,01510,(978) 368-8741
1427,Recovery Centers of America,9 Village Inn Road,Westminster,MA,01473,(774) 708-9313
1428,Redfin,PO Box 16282,Worcester,MA,01601,(508) 425-1245
1429,Redgate,265 Franklin Street,Boston,MA,02110,(617) 686-4608
1430,"Reed Machinery, Inc.",10A New Bond Street,Worcester,MA,01606,(508) 595-9090
1431,RE-ENVISION CONSULTING,78 Wilde Willow Drive,Holden,MA,01520,(508) 331-4309
1432,"Reeves Lavallee, P.C.",250 Commercial Street,Worcester,MA,01608,(508) 425-6945
1433,Refined Image,175 W Main St,Millbury,MA,01527,(413) 530-2462
1434,"Regional Environmental Council, Inc.",42 Lagrange Street,Worcester,MA,01610,(508) 799-9139
1435,Regional Industrial Services Corp.,113 Hill Street,Shrewsbury,MA,01545,(508) 922-3366
1436,Regus,198 Charlton Rd,Sturbridge ,MA,01550,(508) 233-7710
1437,Rehoboth Immigration Law,255 Park Ave,Worcester,MA,01609,(929) 497-6727
1438,Reimagined Roots LLC,71 Lee St,West Boylston,MA,01583,(508) 450-7179
1439,Rejuvenate Aesthetics & Wellness,210 Lincoln street,Worcester,MA,01605,(508) 818-4737
1440,RELIABLE TILE & REMODELING,44 LONGEDGE ROAD,CLINTON,MA,01510,(978) 870-4536
1441,Reliant Foundation,"311 Main Street, Suite 202",Worcester,MA,01608,508-231-4663
1442,"Reliant Medical Group, Inc.","100 Front Street, 14th Floor",Worcester,MA,01608,(800) 283-2556
1443,Remedy Physical Therapy ,1 Swanson Road,Auburn,MA,01501,774-772-7070
1444,Republic Service (AUB),845 Burnett Road,Chicopee,MA,01020,(508) 922-4446
1445,Residence Inn by Marriott - Worcester,503 Plantation Street,Worcester,MA,01605,(508) 753-6300
1446,Residences at Wells School,80 Marcy Street,Southbridge,MA,01550,(508) 834-8880
1447,"Resilient Properties Group, Ltd",148 Cedar St,Sturbridge,MA,01566,(413) 264-6481
1448,Restaurant Superstore,172 Stafford Street,Worcester,MA,01603,(508) 755-2200
1449,Restrepo Properties LLC,5 Greenside Lane,"Worcester, MA",MA,01609,(508) 353-4932
1450,Revive Therapeutic Services,845 N Main St.,Providence,RI,02904,(401) 648-7172
1451,Rex Monuments,120 Webster Street,Worcester,MA,01603,(508) 755-4035
1452,RFK Community Alliance,971 Main Street,Lancaster,MA,01523,(978) 368-6401
1453,Rich Trifone-RE/MAX Vision,1 West Boylston St,Worcester,MA,01605,(508) 450-2152
1454,Richard Burke,20 Chamberlain Parkway,Worcester,MA,01602,(508) 769-4204
1455,RightSized Living,13 Jaimie Ann Drive,Rutland,MA,01543,(774) 764-7725
1456,Ripple Fiber,6000 Fairview Rd,Charlotte,NC,28210,(800) 359-5767
1457,"Riptide, LLC",12 A Leonard Way,Chatham,MA,02633,1-646-418-2712
1458,Risk Strategies Company,"446 Main Street, 9th Floor",Worcester,MA,01608,(508) 798-0893
1459,Rita Schiano - Live A Flourishing Lif...,511 Main St,Fiskdale,MA,01518,(772) 230-5670
1460,River-Air HVAC,171 Warren Road,Brimfield,MA,01010,(774) 230-6880
1461,Riverdale Mills Corporation,130 Riverdale Street,Northbridge,MA,01534,(508) 234-8715
1462,"Roastmeisters Coffee, LLC",3 BRUSSELS STREET,WORCESTER,MA,01610,(857) 233-8172
1463,Rob Roy Academy,150 Pleasant Street,Worcester,MA,01609,(508) 799-2111
1464,Robert A. Parker Insurance & Financia...,174 Church Street,Whitinsville,MA,01588,(508) 234-3439
1465,"Robert C. Alario, CPA PC",75 North Main Street,Leominster,MA,01453,(978) 534-1999
1466,Robert T. Craver,P.O. Box 634,Webster,MA,01570,(508) 341-0900
1467,Robinson and Jalbert,P.O. Box 754,Webster,MA,01570,(508) 943-6500
1468,Rockland Trust,100 Front St. Floor 7,Worcester,MA,01608,(781) 982-6563
1469,Rollstone Bank & Trust,780 Main Street,Fitchburg,MA,01420,(800) 640-1166
1470,Ronn Tech Web Solutions,60 E Temple St,Boylston,MA,01505,(774) 515-0062
1471,Root and Press LLC,156 Shrewsbury St,Worcester,MA,01604,(774) 823-3878
1472,Rossi Development,345 Boylston Street,Newton,MA,02459,(617) 889-3366
1473,Route 20 Animal Clinic,84 Southwest Cutoff,Worcester,MA,01604,(508) 791-7765
1474,Rove Pest Control,1285 Main St,Holden,MA,01520,(774) 701-0341
1475,RT. 12 Pickle,184 West Boylston St.  Suite 1,West Boylston,MA,01583,1-774-261-8121
1476,"Ruben Transportation, LLC",238 Charlton Street,Southbridge,MA,01550,(508) 765-0043
1477,Rubicon Builders,800 S. Main Street,Mansfield,MA,02048,(508) 823-4530
1478,Rubicon Builders (BV),792 South Main Street,Mansfield,MA,02048,(508) 823-4530
1479,Rucker Investments LLC,"500 Cummings Center, Suite 6050",Beverly,MA,01915,(978) 338-6250
1480,Rudolph JeanBaptiste,56 Wilbur st,worcester,MA,01606,(508) 371-5640
1481,Ruse Financial,800 High Street,Clinton,MA,01510,(978) 365-3125
1482,Ruth's Chris Steak House,4 mercantile street,Worcester,MA,01608,(508) 492-0525
1483,Rutland Bookkeeping LLC,51B River Road,Rutland,MA,01543,(978) 514-2132
1484,Sabrosa Venezuela Inc.,152 Green Street,Worcester,MA,01604,(774) 641-2987
1485,"Sadick Public Adjusters, Inc.","255 Park Avenue, Suite 806",Worcester,MA,01609,(508) 756-9781
1486,Safe Exit Initiative,534 Cambridge Street,Worcester,MA,01610,(617) 312-0848
1487,Safety Smart Gear,240 Sturbridge Road,Charlton,MA,01507,(508) 248-3141
1488,Safety Source of New England,29 Gillespie Road,Charlton,MA,01507,(508) 248-4265
1489,"Safeway Luxury Transportation, LLC",112 Grove Street Rear,Worcester,MA,01605,(508) 799-5500
1490,Sagacious Services Consulting,721 Grove St.,Worcester,MA,01605,(774) 734-0556
1491,Saint Anne's Shrine & Gift Shop,16 Church Street,Fiskdale,MA,01518-1111,(508) 347-7339
1492,Saint John's High School,378 Main Street,Shrewsbury,MA,01545,508-842-8934
1493,Saint Vincent Hospital,123 Summer Street,Worcester,MA,01608,(508) 363-6211
1494,"Saint-Gobain Abrasives, Inc.",One New Bond Street,Worcester,MA,01605,(508) 795-5338
1495,Salem Cross Inn,260 West Main Street,West Brookfield,MA,01585,(508) 867-2345
1496,Salisbury Construction Company,453 Chandler Street,Worcester,MA,01602,(508) 752-3505
1497,"Salisbury Management, Inc.",120 Shrewsbury Street,Boylston,MA,01505,(508) 869-0746
1498,Salmon Health and Retirement,37 Birch Street,Milford,MA,01757,(800) 446-8060
1499,Sam Pappas CPA,P.O. Box 839,Webster,MA,01570,(508) 943-7252
1500,Samuel Slater Experience,31 Ray Street,Webster,MA,01570,(508) 461-2955
1501,"Sara's Auto Sales, Inc.",1122 Main Street,Worcester,MA,01603,(508) 373-2235
1502,"Sarkisian Builders, Inc.",122 Winter Hill Road,Holden,MA,01520,(508) 886-6478
1503,Sassoon Cymrot Law LLC,84 State Street,Boston,MA,02109-2210,(617) 720-0099
1504,Savers Bank (Aub),38 Auburn Street,Auburn,MA,01501,(508) 832-3251
1505,Savers Bank (BV),6 North Main Street,Uxbridge,MA,01569,(508) 278-2426
1506,Savers Bank (CMS),270 Main Street,Southbridge,MA,01550,(508) 764-4329
1507,Savers Bank (WDO),270 Main Street,Southbridge,MA,01550-0250,(508) 765-7383
1508,Sazon Bar & Grill,795 Main Street,Worcester,MA,01610,(508) 373-6420
1509,"SB Life Coaching, LLC",,,,,(508) 251-9087
1510,Sbrogna's Artistic Promotions (CMS),9 Diane Ave.,Auburn,MA,01501,(508) 318-3267
1511,"Sbur, Inc.",396 Washington St,Wellesley,MA,02114,(617) 504-3414
1512,Scattered Packets,129 E Main Street,Webster,MA,01570,(888) 740-3928
1513,"Schotanus Design Center, LLC",83 Church Street,Whitinsville,MA,01588,(508) 887-8777
1514,ScoopDrip,140 Millbury st,Worcester,MA,01610,(508) 726-9774
1515,SCORE Worcester Region Chapter,"311 Main Street, Suite 200",Worcester,MA,01608,(508) 753-2929 ext.292
1516,Scouting America,394 Pleasantdale Road,Rutland,MA,01543,(508) 752-3769
1517,ScrubaDub Auto Wash Centers,172 Worcester Street,Natick,MA,01760-2229,(508) 650-1155
1518,Scruffy Murphy's,638 D Chandler Street,Worcester,MA,01602,(508) 796-5614
1519,Seaman Engineering Corporation,Seaman Engineering Corporation,Millbury,MA,01527,(508) 865-1400
1520,"Sean Brady, Financial Planning, New Y...",7 Tamar Ave,"Worcester, Massachusetts, Unit",MA,01604,(603) 568-6810
1521,Second Chance Animal Shelter,111 Young Road,East Brookfield,MA,01515,(508) 867-5525
1522,Securitas,134 Flanders Rd,Westborough,MA,01581,(508) 330-7501
1523,"Seder and Chandler, LLP.",339 Main Street,Worcester,MA,01608,(508) 757-7721
1524,Seeds of Hope Family Chiropractic,"15 West Street, 2nd Floor",Douglas,MA,01516,(508) 476-5577
1525,Senior Helpers of Worcester,"405 Grove Street,",Worcester,MA,01605,(508) 425-4909
1526,Sequel Law LLC,250 Commercial Street,Worcester,MA,01608,(508) 986-9966
1527,ServiceMaster by Williams,P.O. Box 905,Sterling,MA,01564,(800) 835-6591
1528,SERVPRO of  Worcester (Wach),10 Pullman Street,Worcester,Massachusetts,01606,(508) 757-7885
1529,Seven Hills Foundation & Affiliates,81 Hope Ave,Worcester,MA,01603,(508) 755-2340
1530,Seven Saws Brewing Co.,1148 Main St,Holden,MA,01520,(540) 560-5283
1531,Sevenpair Studios,,Holland,MA,01521,(860) 878-2764
1532,Shake Up,175 West Boylston St.,West Boylston,MA,01583,(774) 285-1415
1533,Shakti Studios,17 Warner Ave,Worcester,MA,01604,(774) 232-4696
1534,"Sharfmans, Inc.","19 Glennie Street, Suite B",Worcester,MA,01605,(508) 791-2211
1535,Sharinna Travieso,11 vinton street,Worcester,MA,01605,(508) 304-2663
1536,Shawmut Design & Construction,20 Franklin Street,Worcester,MA,01608,(401) 752-6500
1537,"Shawna E Shea Memorial Foundation, In...",194 Granite Street,Uxbridge,MA,01569,(508) 282-9847
1538,Sheehans Office Interiors,120 Front Street,Worcester,MA,01608,(800) 429-8511
1539,Sheldon's Harley-Davidson,"914 Southbridge Street, Rts. 12 & 20",Auburn,MA,01501-1321,(508) 721-9876
1540,Sheppard Envelope Mfg. Company,133 Southbridge Street,Auburn,MA,01501,(508) 791-5588
1541,Shi Shi's Lounge/Eurayshia Williams S...,376 Chandler Street,Worcester,MA,01602,(508) 304-7870
1542,Shrewsbury Crossings,311 Main Street,Shrewsbury,MA,01545,(508) 845-2100
1543,Shrewsbury Street Italian Heritage Pa...,24 Amanola Avenue,Worcester,MA,01604,(774) 253-7015
1544,SideChannel,146 Main Street,Worcester,MA,01608,(508) 925-0114
1545,Signature HR Solutions,P.O. Box 183,Boylston,MA,01505,(774) 345-0254
1546,SilverBrick SkyHouse,340 Main Street,Worcester,MA,01608,(774) 243-6020
1547,"Simply Delight Baked Goods, LLC",137C commonwealth ave,Worcester,MA,01604,(774) 701-1992
1548,Simply Orthodontics Inc.,70 Elm Street,Worcester,MA,01609,(508) 757-3173
1549,Skane Marketing Studio,,Fiskdale,MA,01518,(860) 858-4033
1550,Skanksa USA Building Inc.,101 Seaport Blvd,Boston,MA,02210,(857) 283-0383
1551,Ski with Charlie,201 Carpenter Road,Whitinsville,MA,01588,(508) 234-1230
1552,Skilltrak AI Technologies,"50 Prescott Street,",Worcester,MA,01605,(508) 304-5229
1553,SlimeWare,18 Cherry Ave,Stoneham,MA,02180,(401) 378-4186
1554,Slowey McManus Communications LLC,11 Beacon Street,Boston,MA,02108,(617) 413-9232
1555,Small Business Insurance Agency,38 Austin Street,Worcester,MA,01609,(508) 795-0635
1556,Smart Shopper (CMS),"31 Thompson Rd., Unit G",Webster,MA,01570,(508) 943-5300
1557,Smith Company,195 Thompson Road,Webster,MA,01570,(508) 943-0040
1558,Smoke,25 Francis Street,Worcester,MA,01606,(508) 826-2295
1559,SNAPCHEF,P.O. Box 732,Holden,MA,01520,(774) 535-1201
1560,Sneaker Sapphire,354 West Boylston St,West Boylston,MA,01583,(774) 622-9234
1561,Sneakerama,12 Lake Ave,Worcester,MA,01604,(508) 799-7278
1562,SnowGo,509 plantation Street,Worcester,MA,01605,(978) 962-1609
1563,Social Perspectives 4 Everyone,10 River Rd,Uxbridge,MA,01516,(203) 394-9489
1564,Soderlund Inspections,136 Plantation St,Worcester,MA,01604,(774) 276-9868
1565,Solect Energy Development,89 Hayden Rowe Street,Hopkinton,MA,01748,(508) 598-3511
1566,Solvus Global,104 Prescott St,Worcester,MA,01605,(508) 373-2750
1567,Soul Food Paradise,83 Mill street,Worcester,MA,01603,(774) 535-6976
1568,Soundshine Productions,47 Bay State Road,Worcester,MA,01606,(508) 269-1728
1569,South Central Mass Elderbus Inc.,124 Southbridge Road,Charlton,MA,01507,(508) 248-4299
1570,South Coast Improvement Company,13 Marconi Lane,Marion,MA,02738,(508) 748-6545
1571,South Grafton Water District,370 Providence Road,So. Grafton,MA,01560,(508) 839-0512
1572,Southbridge Business Partnership,P.O. Box 587,Southbridge,MA,01550,
1573,Southbridge Credit Union (Aub),732 Southbridge Street,Auburn,MA,01501,(508) 832-7290
1574,Southbridge Credit Union (CMS),P.O. Box F,Southbridge,MA,01550-2563,(508) 765-5454
1575,Southbridge Hotel and Conference Cent...,14 Mechanic Street,Southbridge,MA,01550,(508) 765-8000
1576,Southbridge Rotary Club,14 Mechanic Street,Southbridge,MA,01550,(508) 765-5585
1577,Southbridge Tool & Manufacturing,181 Southbridge Road,Dudley,MA,01571,(508) 764-2779
1578,Southeast Asian Coalition of Central ...,50 Portland St.,Worcester,MA,01608,(508) 782-8827
1579,"Southwest Properties, LLC",PO Box 483,Boylston,MA,01590,(508) 320-3554
1580,Southwick's Zoo,Two Southwick Street,Mendon,MA,01756,(508) 883-9182
1581,"Spectrum Health Systems, Inc.",149 Oak Street,Westborough,MA,01581,(508) 792-5400
1582,Spellane Auto Body,18 Wellington Street,Worcester,MA,01610,(508) 756-0842
1583,Spicy Water Distillery,108 Elm St,Millbury,MA,01527,(508) 581-4234
1584,Spider Event Services Inc.,983 Millbury St.,Worcester,MA,01607,(401) 447-5254
1585,Spillane & Spillane LLP,23 Institute Road,Worcester,MA,01609,(508) 756-4342
1586,"Spinelli CPA, PC",146 West Boylston Drive,Worcester,MA,01606,(508) 365-6522
1587,Square One Contracting Services Inc,104 West Main Street,Dudley ,MA,01571,(508) 917-6500
1588,St. Cyr by Carbonneau,235 Park Ave,Worcester,MA,01609,(508) 756-5555
1589,St. Pierre Manufacturing Corp.,317 E. Mountain Street,Worcester,MA,01606,(508) 853-8010
1590,Stagedge,3 Radcliff Road,Tewksbury,Massachusetts,01876,(800) 423-7830
1591,Stageloft Repertory Theatre,450 Main Street,Sturbridge,MA,01566,(508) 347-9005
1592,Standing Stone Designs,73 Conrad Road,Marlborough,MA,01752,(508) 380-8549
1593,Stanley Woolen Mill,146 Mendon  Street,Uxbridge,MA,01569,(617) 423-0780
1594,Staples (CMS),Staples Office #1193,Sturbridge,MA,01566,(508) 347-5955
1595,Staples Connect (Aub),436 Southbridge Street,Auburn,MA,01501,(508) 721-9500
1596,Starkweather & Shepley Insurance,35 Hadwen Lane,Worcester,MA,01602,(508) 769-5388
1597,State Representative Kimberly Ferguso...,902 Oakwood Street Ext.,Holden,MA,01520,
1598,Stay Awhile Coffee,1237 Mendon Rd,Northbridge,MA,01534,(401) 524-0571
1599,Steel & Wire Cocktail Lounge,124 Millbury Street,Worcester,MA,01610,(508) 373-2225
1600,Stephen Benjamin Ins. Agency,497 Central Turnpike,Sutton,MA,01590,(508) 865-9534
1601,Stephen Fleshman Architect LLC,99 Apple Road,Brimfield,MA,01010,(508) 347-7188
1602,Sterling Concrete Corp.,10 Sterling Way,North Oxford,MA,01537,(978) 422-8282
1603,"Sterling Construction, Inc.",85 Swanson Rd,Boxborough,MA,01719,(781) 361-7500
1604,"Sterling Engineering Co., Inc.",79 Main Street,Sturbridge,MA,01566,(508) 347-9101
1605,Sterling National Country Club (Wach),33 Albright Road,Sterling,MA,01564,(978) 422-0275
1606,Sterling National Country Club-(CLIN),33 Albright Road,Sterling,MA,01564,9784220275 x106
1607,Sterling Storage Solutions,150 Clinton Road,Sterling,Massachusetts,01564,(978) 563-1243
1608,Sterling Street Brewery,175 Sterling Street,Clinton,MA,01510,(617) 800-7070
1609,Steve's Collision Center Inc.,210 Charlton Road,Sturbridge,MA,01566,(508) 347-9116
1610,Stevies Kitchen,3 Erie Ave,Worcester,MA,01605,(508) 686-1382
1611,"Stolberg, Ebbeling & Blanchette, LLP",41 Elm Street,Worcester,MA,01609,(508) 363-3000
1612,Stonebridge Press (WDO),25 Elm Street,Southbridge,MA,01550,508-909-4110
1613,"Stonebridge Press, Inc. (CMS)",25 Elm Street,Southbridge,MA,01550,(508) 764-4325
1614,Stop & Shop Supermarkets,1385 Hancock Street,Quincy,MA,02169,(617) 774-4418
1615,"Stowe & Degon, CPA and Consultants",95A Turnpike Road,Westborough,MA,01581,(508) 983-6700
1616,"Strategic Environmental Services, Inc...",362 Putnam Hill Rd.,Sutton,MA,01590,(508) 757-7782
1617,Studio 20/20,P.O. Box 913,Sturbridge,MA,01566,(860) 208-9914
1618,Studio Blue Jay,64 Morton Ave,Medford,MA,02155,(617) 949-9716
1619,Studio DiBella,15 Michigan Road,Worcester,MA,01606,(774) 232-0280
1620,"Sturbridge Antique Shops, LLC",128 Charlton Road,Sturbridge,MA,01566,(508) 347-2744
1621,Sturbridge Dental,P.O. Box 225,Sturbridge,MA,01566,(508) 347-9336
1622,Sturbridge Host Hotel & Conference Ce...,366 Main Street,Sturbridge,MA,01566,(508) 347-7393
1623,Sturbridge Pottery,99 New Boston Road,Sturbridge,MA,01566-1013,(508) 347-9763
1624,Sturbridge Retirement Cooperative,1 Kelly Road,Sturbridge,MA,01566,(508) 347-3212
1625,Sturbridge Rotary Club,P.O. Box 357,Sturbridge,MA,01566,(508) 347-2770
1626,Sturbridge Seafood,376 Main Street,sturbridge,MA,01566,(508) 347-2600
1627,"Sturbridge Service Center, Inc.",241 Main Street,Sturbridge,MA,01566-0033,(508) 347-3896
1628,"Stutman Contracting, Inc. (WDO)",18 Sutton Avenue,Oxford,MA,01540,(508) 987-9472
1629,Style and Comfort Corp,229 Fairmont ave,worcester,MA,01604,(774) 670-7990
1630,Suffolk Construction,65 Allerton Street,Boston,MA,02119,(646) 630-3532
1631,Sugar & Spice ,55 Botany bay rd,Worcester,MA,01602,(508) 612-7652
1632,Sullivan Insurance Group,1 Mercantile Street,Worcester,MA,01608,(508) 791-2241
1633,Sullivan Insurance Group (WACH),1 Mercantile St Suite 710,Worcester,MA,01608,1-508-471-9027
1634,Summit Energy,69 Summit Street,Clinton,MA,01510,(979) 320-9209
1635,"Sundeen Furniture, Inc.",241 Providence Road,Whitinsville,MA,01588,(508) 234-8777
1636,Sunrise Boutique Inc,62 High St,Clinton,MA,01510-2907,(978) 368-0227
1637,Sunshine Sign Company,121 Westboro Road,North Grafton,MA,01536,(508) 839-5588
1638,Superior Waste & Recycling,2 Kansas Street,Worcester,MA,01610,(508) 847-1513
1639,Supporting Strategies,37 Whaler Lane,Quincy,MA,02171-1559,(978) 266-8317
1640,Surface Experts MetroWest,4 Brewer Drive,Westborough,MA,01581,(781) 434-8666
1641,Sustainable Comfort,55 Linden Street,Worcester,MA,01609,(508) 713-6680
1642,Sutton Children's Dentistry & Orthodo...,27 Galaxy Pass,Sutton,MA,01590,(508) 792-8500
1643,Sweets and Java,1059 Main Street,Holden,MA,01520,(508) 829-7900
1644,"Swissturn/USA, Inc.",21 Dana Road,Oxford,MA,01540,(508) 987-6211
1645,Synergy Investments,Ten Post Office Square,Boston,MA,02109,(617) 204-9506
1646,Synergy Services  LLC,98 Indian Hill Road,Worcester,MA,01606,(302) 766-1626
1647,T.J. Maxx ,135 Goddard Drive,Worcester,MA,01603,(508) 797-8600
1648,T.L.C. Home Services LLC,62 Shepard Road,Sturbridge,MA,01566,(508) 347-3275
1649,Table 3 Restaurant Group,502 Main Street,Sturbidge ,MA,01566,(781) 697-5861
1650,"Table Talk Pies, Inc.",58 Gardner Street,Worcester,MA,01610,(508) 438-1500
1651,TAJ Tropicals & Trinkets Inc.,100 Grove St,Worcester,MA,01604,(508) 257-1690
1652,Tamara Merri Photography,11 Richards Ave,RUTLAND,MA,01543,(508) 688-4118
1653,Tantasqua Education Foundation,P.O. Box 222,Fiskdale,MA,01518,(508) 479-0828
1654,Tantasqua Regional School District,320A Brookfield Road,Fiskdale,MA,01518,(508) 347-5977
1655,Taqueria El Amigo 3,1 High Street,Clinton ,MA,01453,(978) 368-8000
1656,Tasse Fuel Corporation,P.O. Box 683,Southbridge,MA,01550-0683,(508) 765-0841
1657,Tatnuck Country Club,1222 Pleasant Street,Worcester,MA,01602,(508) 753-1986
1658,Tatnuck Park at Worcester,340 May Street,Worcester,MA,01602,(508) 755-7277
1659,TD Bank,370 Main Street,Worcester,MA,01608-1723,(508) 368-6500
1660,"Teajani,inc",17 Marilyn Dr,Auburn,MA,01501,(508) 826-5840
1661,TeamLift,280 Shrewsbury Street,Boylston,MA,01505,(774) 293-0290
1662,"TEC, Inc.",146 Dascomb Road,Andover,MA,01810,(978) 794-1792
1663,TechFocus LLC,11 Apex Drive,Marlborough,MA,01752,(508) 340-6555
1664,TechMD,1 Westec Drive,Auburn,MA,01501,(508) 756-9300
1665,Technical Education Products,36 Melissa Drive,Nashua,NH,03062,(800) 487-6825
1666,Technocopia,44 Portland St,Worcester,MA,01608-2023,(774) 420-2244
1667,Technology Learning Center,11 Buffum Dam Rd,Oxford,MA,01540-1411,(508) 987-1852
1668,"Teddy G's Pub & Grille, Inc.","179 Main Street, Unit 1",Sturbridge,MA,01566,(508) 347-1900
1669,Ted's Package Store,27 Worcester Road,Charlton City,MA,01508-0910,(508) 248-5538
1670,Tee's Deli and Catering,26 West Boylston Street,West Boylston,MA,01583,(978) 729-2337
1671,Tembo Grill Restaurant and Catering,1105 West Bolyston street,Worcester,MA,01606,(508) 304-6416
1672,Tempo Collaborative Business Services,85 Beth Ave,Leominster,MA,01453,(978) 413-4557
1673,Ten Mangoes Photography,11 Inwood Road,Auburn,MA,01501,508-864-0598
1674,Thai House of Holden,680 Main Street,Holden,MA,01520,(774) 345-4224
1675,The 016 LLC,20 Franklin Street,Worcester,MA,01608,(774) 364-0553
1676,The 1885,48-52 Green St,Worcester,MA,01604,(774) 312-1779
1677,The 228 in Sterling,228 Leominster Road,Sterling ,MA,01564,1-978-563-9228
1678,The 6Hundred,600 Main Street,Worcester,MA,01608,(508) 795-7651
1679,The Absolute Group of Companies,94 Gardner Street,Worcester,MA,01610,(508) 792-4305
1680,The Alliance for Nonprofit Growth,29 South Main Street,West Hartford,CT,06107,(877) 708-2646
1681,The Arbella at Bramble Hill,757 Salisbury Street,Worcester,MA,01609,(774) 670-4676
1682,The Bagel Inn,785 Main Street,Holden,MA,01520,(508) 829-3550
1683,"The Carpet Lover, Inc.",640 (Rt. 16) Douglas St,Uxbridge,MA,01569,(508) 278-5657
1684,The Cleaning Advantage,121 Mill Street,Lancaster,MA,01523,(978) 779-6646
1685,The Cove,99 Green Street,Worcester,MA,01604,(774) 519-5499
1686,The Dermatology Center of Worcester,255 Park Avenue,Worcester,MA,01609,(508) 890-5500
1687,The Dope Design Co.,12 Fox Meadow Drive,Worcester,MA,01602,(508) 241-0246
1688,The Employers Association of the Nort...,P.O. Box 1070,Agawam,MA,01001,(413) 789-6400
1689,The Feingold Companies,"446 Main Street, Suite 1403",Worcester,MA,01608,(508) 831-9500
1690,"The Fountain Confections, LLC",138 High Street,Clinton,MA,01510,(978) 878-1615
1691,The George F. & Sybil H. Fuller Found...,P.O. Box 757,Boylston,MA,01505-0757,(508) 755-1684
1692,The Glodis Group,66 Homers Dock Road,Yarmouth Port,MA,02675,(508) 479-4520
1693,The Goddard School,494 Washington St.,Auburn,MA,01501,(508) 832-7400
1694,The Graham Company,89 Richmond Ave,Worcester,MA,01602,(617) 203-1798
1695,"The Green Plate, LLC",167 Church Street,Whitinsville,MA,01588,(774) 813-0200
1696,The Guru Tax & Financial Services,"446 Main St., 16th Floor",Worcester,MA,01608,(508) 797-0005
1697,The Hanover Insurance Group Inc.,440 Lincoln Street,Worcester,MA,01653,(508) 855-1000
1698,The Haven Country Club,369 Cross Street,Boylston,MA,01505,(508) 869-2000
1699,The Health Foundation of Central Mass...,"446 Main Street, 20th Floor",Worcester,MA,01608,(508) 438-0009
1700,The HeartWell Institute,1015 Pleasant St,Worcester,MA,01602,(774) 243-6800
1701,The Icon Museum and Study Center,203 Union Street,Clinton,MA,01510,(978) 598-5000
1702,The Institute For Education and Profe...,452 East Street,Uxbridge,MA,01569,(508) 509-1384
1703,The Item/Cherry Road Media,114 Turnpike Road,Chelmsford,MA,01824,(978) 545-1050
1704,"The Journey Before Us, LLC",21 Ralph Road,Princeton,MA,01541,(802) 734-0879
1705,The Landmark (WACH),Circulation Dept.,Chelmsford,MA,01824,(978) 488-3590
1706,"The Law Office of Melissa A. Gleick, ...","61 Boyden Road, Suite 3",Holden,MA,01520,(774) 345-4560
1707,The Madras Flavors,,,,,
1708,The Manor Restaurant ,42 West Boylston Street,West Boylston,MA,01583,(508) 835-4722
1709,The Meadows of Central Massachusetts,111 Huntoon Memorial Highway,Rochdale,MA,01542,(508) 892-4858
1710,The Melody Maker,474 Main Street,Clinton,MA,01510,(413) 250-8120
1711,The Mercantile Rooftop Bar & Restaura...,2 Mercantile St,Worcester,MA,01608,(774) 389-5180
1712,The Mill 185 Restaurant & Lounge,185 West Boylston Street,West Boylston,MA,01583,(774) 261-8585
1713,The Muddy Mutt Dog Grooming LLC,1625 Main St,Holden,MA,01522,(774) 293-0404
1714,The N Point Group,433 S Main Street,West Harford,CT,06110,(203) 858-5288
1715,The Nerdy Salon,400 Grove Street Suite 208,Worcester,MA,01605,(508) 834-7375
1716,The New England Center for Children,33 Turnpike Road,Southborough,MA,01772,(508) 481-1015
1717,The New Uxbridge Times,P.O. Box 401,Uxbridge,MA,01569,(508) 278-2134
1718,The O Shop,10 Richmond Ave,Worcester,MA,01602,(508) 762-9060
1719,The Odd Fellows Home,104 Randolph Road,Worcester,MA,01606,(508) 853-6687
1720,The Overlook - Retirement Community &...,88 Masonic Home Road,Charlton,MA,01507,(866) 753-5429
1721,The Palladium,261 Main Street,Worcester,MA,01608,(508) 797-9696
1722,The Perfect Pot,18 Papineau Street,Worcester,MA,01603,(508) 289-1629
1723,The Pet Barn,785B Main Street,Holden,MA,01520,(508) 829-8200
1724,The Pros Real Estate Services,"672 Main Street, Suite 14",Holden,MA,01520,(508) 232-7926
1725,"The Proverbs 31 Project, Inc",6 Preservation Lane,Holden,MA,01520,(508) 735-8841
1726,The Retired Friend's Club of Greendal...,34 Leslie Road,Worcester,MA,01605,(860) 798-6272
1727,"The Right Paw, Inc",179 Sterling Rd,Princeton,MA,01541,(978) 422-0429
1728,The Rose Room Cafe,4 East Main Street,Webster,MA,01570,(508) 330-9839
1729,"The Savage Secrets, Inc.","482 Southbridge Street, Suite 352",Auburn,Massachusetts,01501,(508) 335-6264
1730,The School Yahd,216 W. Boylston Street,West Boylston,MA,01583,(508) 304-9502
1731,The Shine Initiative,44 Portland St,Worcester,MA,01608,(508) 762-3610
1732,The Sole Proprietor,118 Highland Street,Worcester,MA,01609,(508) 798-3474
1733,The Specialty Sandwich Company,624 Main Street,Holden,MA,01520,(508) 829-5858
1734,The Stone Cobblers,317 West Boylston Street,West Boylston,MA,01583,(774) 261-4445
1735,The Throne Depot,25 Republic Road,Billerica,MA,01862,(800) 404-4038
1736,The Uncommonwealth Group,100 Canterbury Street,Worcester,MA,01608,(774) 312-1788
1737,The UPS Store,800 Main Street,Holden,MA,01520,(508) 829-0566
1738,The UPS Store (Auburn),482 Southbridge Street,Auburn,MA,01501,(508) 721-9600
1739,The Vegan Nest Cafe ,54 High St,Clinton,MA,01510,(508) 292-0035
1740,The Vertex Cos. LLC,One Edgewater Drive,Norwood,MA,02072,(617) 455-7150
1741,The White Room LLC,138 Green St (lower level),Worcester,MA,01604,(508) 755-1383
1742,The Whiting-Turner Contracting Compan...,11 Apex Drive,Marlboro,MA,01752,(508) 875-4100
1743,The Willows at Worcester,101 Barry Road,Worcester,MA,01609,(508) 471-4619
1744,The Willows at Worcester (Wach),101 Barry Road,Worcester,MA,01609,(508) 755-0088
1745,The Yankee Xpress (WDO),168 Gore Road,Webster,MA,01570,(508) 943-8784
1746,Theatre Cafe,529 Main St,Worcester,MA,01608,(508) 799-7190
1747,theWorcesterWorkshop,6 Stoneland road,worcester,MA,01603,(774) 437-8567
1748,Thrive Support & Advocacy,65 Boston Post Road West,Marlborough,MA,017523,(508) 485-4227
1749,TidePool BookShop LLC,"372 Chandler Street, Unit 101",Worcester,MA,01609,(508) 753-2500
1750,"Tighe & Bond, Inc.",120 Front Street,Worcester,MA,01608,(508) 754-2201
1751,"Timber Trading, Inc.","One West Boylston Street, Suite 305",Worcester,MA,01605-1274,(508) 755-1555
1752,Timberline Construction,1 Mercantile Street,Worcester,MA,01608,(339) 502-5000
1753,"Timothy J. Harrington, CPA",560D Prospect Street,West Boylston,MA,01583,(508) 854-0460
1754,TJR CONSTRUCTION LLC,92 West Sutton Rd,Sutton,MA,01590,(800) 766-3514
1755,TK Elevator ,295 University Ave,Westwood,MA,02090,(339) 204-7451
1756,TLC Pet Haven,68 Worcester Providence Tpke.,Sutton,MA,01590,(508) 865-3180
1757,TMS Aerial Solutions,5 Old Depot Road,Oxford,MA,01540,9704492491
1758,To Life Enterprise,144 West St,worcester,MA,01609,(508) 484-3036
1759,"Todd Vitkos Plastering, Inc.",51 Bacon Hill Road,Spencer,MA,01562,(508) 885-4143
1760,"Tom Berkowitz Trucking, Inc",279 Douglas Road,Northbridge,MA,01534,(508) 234-2920
1761,Top Dog Painting,11 Lindsey Lane,Charlton,MA,01507,(774) 280-1703
1762,Topograph Apartments,One Ridge Road,Auburn,MA,01501,(774) 220-6334
1763,Torito Mexican Restaurant,537 Lincoln St,Worcester,MA,01605-1926,(301) 968-5934
1764,Toshiba Business Solutions,"133 Flanders Road, Westborough, MA 01581",Westborough,MA,01581,(508) 948-7978
1765,Total Trust Insurance Group Inc,210 Worcester St,Grafton,MA,01536,(508) 595-8112
1766,TOTALLIZE INSURANCE INC ,174 HIGH STREET,CLINTON,MA,01510,(978) 733-1527
1767,Town & Country Builders,88 Linwood Avenue,Whitinsville,MA,01588,(508) 234-6649
1768,Town of Auburn,104 Central Street,Auburn,MA,01501,(508) 832-7720
1769,Town of Clinton,242 Church Street,Clinton,MA,01510,(978) 365-4113
1770,Town of Dudley,71 Main Street,Dudley,MA,01571,(508) 949-8030
1771,Town of Dudley Fire Department,128 West Main Street,Dudley,MA,01571,(508) 949-8040
1772,Town of Holden,Starbard Building,Holden,MA,01520,(508) 210-5501
1773,Town of Leicester,Town of Leicester,Leicester,MA,01524,(508) 892-7077
1774,Town of Leicester (BV),3 Washburn Square,Leicester,MA,01524,(508) 892-7000
1775,Town of Oxford,325 Main Street,Oxford,MA,01540,(508) 987-6030
1776,Town of Oxford Police Department,503 Main Street,Oxford,MA,01540,(508) 987-0156
1777,Town of Webster,350 Main Street,Webster,MA,01570,(508) 949-3800
1778,TR Capital Partners,18 Fairbanks Street #3,Worcester,MA,01610,(978) 502-1025
1779,"Tracy LaRosa, REALTOR",525 Wauwinet Rd.,Barre,MA,01005,(774) 242-5314
1780,Tradewinds Clubhouse,309 Main Street,Southbridge,MA,01550,(508) 765-9947
1781,Tradiciones Peruvian Cuisine,11 Winchester St,Southborough,MA,01772,(774) 225-4301
1782,Tremont Development Partners LLC,38 Main Street,Andover,MA,01810,(617) 842-0600
1783,Tremont Strategies Group LLC,"One Beacon Street, Suite 16300",Boston,MA,02108,(617) 236-5830
1784,Tri-Community Exchange Club,P.O. Box 816,Sturbridge,MA,01566,(508) 347-3226
1785,Trigon Creative,7 Coppage Drive,Worcester,MA,01603,(508) 581-9560
1786,Trinity Catering Services,146 Vernon Street #3,Worcester,MA,01610,(508) 963-8307
1787,Trinity Financial ,"75 Federal Street, 4th Floor",Boston,MA,02110,(617) 720-8400
1788,"Tri-State Fasteners, Inc.",387 Cambridge Street,Worcester,MA,01603,(508) 755-5020
1789,"Tri-Valley, Inc. (CMS)",10 Mill Street,Dudley,MA,01571,(508) 949-6640
1790,"Tri-Valley, Inc. (WDO)",10 Mill Street,Dudley,MA,01571,(508) 949-6640
1791,Trivflic,40 Forest Park,Fitchburg,MA,01420,(978) 870-9966
1792,Tropical Smoothie Cafe,81 Gold Star Boulevard,Worcester,MA,01606,(508) 410-2925
1793,TRUEHOME Roofing Inc,71 Sterling St,West Boylston,MA,01583,(774) 261-4345
1794,Turning Leaves Editorial,191 Mason Road,Whitinsville,MA,01588,(774) 280-6801
1795,Twizted Beveragez,896 Main St,Whitinsville,MA,01588,1-774-242-0299
1796,U.S. Small Business Administration,10 Causeway Street,Boston,MA,02222,(617) 565-5590
1797,U-Haul,290 Belmont Street,Worcester,MA,01604,(508) 752-7005
1798,UMass Chan Medical School,55 Lake Avenue North,Worcester,MA,01655,(508) 856-3448
1799,UMass Memorial Health,One Biotech Park,Worcester,Massachusetts,01655,(508) 856-1184
1800,UMass Memorial Medical Center,"55 Lake Avenue, No.",Worcester,MA,01655,(774) 441-9880
1801,Unabridged Media,70 James St,Worcester ,MA,01603,(774) 535-6714
1802,Underwater Pool Masters Inc.,541 Prospect Street,West Boylston,MA,01583,(508) 852-0590
1803,UniBank,49 Church Street,Whitinsville,MA,01588,(508) 849-4363
1804,Unique Auto Center Inc.,24 Wells St,Worcester,MA,01604,(508) 459-1319
1805,Unique Cafe,322 Cambridge Street,Worcester ,MA,01603,(774) 253-0955
1806,Unique Nursing Staffing Agency Inc,121 Lincoln Street,Worcester,MA,01605,(774) 239-3925
1807,United Bank (BV),564 Main St,Shrewsbury,MA,01545,(508) 793-8366
1808,"United Lens Co., Inc.",259 Worcester Street,Southbridge,MA,01550,(508) 765-5421
1809,United Site Services,118 Flanders Road,Westborough,MA,01581,(508) 614-8262
1810,United Way of Central Mass.,18 Chestnut Street,Worcester,MA,01608,(508) 757-5631
1811,"United Way of Southbridge, Sturbridge...",178 Main Street,Southbridge,MA,01550,(508) 765-5491
1812,UnitedHealthcare Community Plan of MA,1325 Boylston Street,Boston,MA,02215,(781) 419-8315
1813,"Universal Electric Co., Inc.",79 Wayside Avenue,West Springfield,MA,01089,(413) 788-9473
1814,Universal Tag Printers (CMS),36 Hall Road,Dudley,MA,01571-1518,(508) 949-2411
1815,Universal Tag Printers (WDO),36 Hall Road,Dudley,MA,01571-1518,(508) 949-2411
1816,Uno's Chicago Grill (CMS),100 Charlton Road,Sturbridge,MA,01566,(508) 347-6420
1817,Uno's Chicago Grill (Wor),25 Major Taylor Blvd.,Worcester,MA,01608,(508) 762-9195
1818,Untamed Salon & Spa,4 Appleton Road,Auburn,MA,01501,(508) 721-7701
1819,Unum ,1 Mercantile Street,Worcester,MA,01608,(774) 437-6358
1820,Upright Design and Build Inc,234 SW Cutoff,Worcester,MA,01604,(508) 837-4634
1821,Urgent Care of Holden,"5 Shrewsbury St, Suite D",Holden,MA,01520,(508) 829-3800
1822,US Army Southbridge Recruiting Statio...,"128 Main Street, #2",Sturbridge,MA,01566,(508) 347-6347
1823,US Bank,600 Worcester Road,Framingham,MA,01702,(508) 320-4569
1824,USANA Health Sciences - Independent A...,41 Jolicoeur Ave.,Spencer,MA,01562,(978) 870-0878
1825,Vaillancourt Folk Art,9 Main Street Suite 1H,Sutton,MA,01590,(508) 476-3601
1826,"Valkyrie Company, Inc.",60 Fremont Street,Worcester,MA,01603,(508) 756-3633
1827,"Valley Insurance Partners, Inc.","1 Plummers Corner, #205",Whitinsville,MA,01588,(508) 266-2008
1828,Valmet Flow Control,44 Bowditch Drive,Shrewsbury,MA,01545,(508) 852-0200
1829,"VanderZicht Real Estate, Inc.",119 North Main Street,Whitinsville,MA,01588,(508) 400-7715
1830,Vandi Auto Supply,3 West Main Street,Dudley,MA,01571,(508) 943-0127
1831,Vanworx,120 davis st,douglas ,MA,01516,(508) 927-1165
1832,Vape Lounge,358 Shrewsbury Street,Worcester,MA,0160,(774) 243-1613
1833,"Ventry Associates, LLP","1 Walnut Street, 4th Floor",Boston,MA,02108,(617) 423-0028
1834,Venture Community Services,1 Picker Raod,Sturbridge,MA,01566,(508) 347-8181
1835,Venture X Worcester,100 Front Street,Worcester,MA,01608,(508) 578-4381
1836,Verde Events/World of Foods Worcester,369 chandler St.,Worcester,MA,01602,(508) 963-1304
1837,Verizon Communications,"15 Chestnut Street, 4th Floor",Worcester,MA,01609,(508) 480-2420
1838,Veterans Inc.,69 Grove Street,Worcester,MA,01605,(508) 791-1213
1839,Veterinary Emergency Group - Shrewsbu...,196 Boston Turnpike,Shrewsbury,MA,01545,(508) 653-4700
1840,Veterinary Urgent Care Center,70 Gold Star Blvd,Worcester,MA,01606,(781) 831-3042
1841,VHB,"120 Front Street, Suite 500",Worcester,MA,01610,(508) 752-1001
1842,Via Italian Table,89 Shrewsbury Street,Worcester,MA,01604,(508) 754-4842
1843,Vibrance Technology Corp.,P.O. Box 1424,Warren,MA,01083,(866) 842-7262
1844,Victory Bar & Cigar,56 Shrewsbury Street,Worcester,MA,01604,(508) 756-4747
1845,Village Green Campground,228 Sturbridge Road,Brimfield,MA,01010,(413) 245-3504
1846,"Village House of Pizza, Inc.",199 North Main Street,Whitinsville,MA,01588,(508) 234-4691
1847,Village Photo & Portrait Studio,345 Main Street,Southbridge,MA,01550-3734,(508) 765-0058
1848,Village Toastmasters,175 Flagg Road,East Brookfield ,MA,01515,(508) 735-7164
1849,Visions by Baker Portrait Art LLC,3 Marsh Ave,Worcester,MA,01605,(508) 769-6113
1850,Visual Edge IT,80 Cypress Street,Warwick,RI,02888,781-727-5303
1851,Vitra Health,150 Wood Road,Braintree,MA,02184,(508) 297-2022
1852,Vitra Health ,150 Wood RD Ste. 201,Braintree,MA,02184,(508) 297-2200
1853,VJM Chocolates,25 Francis Street,Worcester,MA,01606,(508) 410-9711
1854,"Vocero Hispano Newspaper, Inc.",44 Hamilton Street,Southbridge,MA,01550,(508) 792-1942
1855,Voltage Fashion Boutique,834 Main Street,Worcester,MA,01610,(508) 667-2085
1856,"Votacall, Inc.",1504 Providence Highway,Norwood,MA,02062,(781) 693-0624
1857,W R T Management,1 Main Street,Whitinsville,MA,01588,(508) 234-6301
1858,"W.J. Hoey Tire Company, Inc.",P.O. Box 60157,Worcester,MA,01606,(508) 755-6666
1859,Wachusett Area Rotary Club,42 West Boylston St.,West Boylston,MA,01583,(508) 304-4764
1860,Wachusett Botox LLC,206 Worcester Rd,Princeton,MA,01541-1706,(978) 464-0058
1861,Wachusett Country Club (Hol),187 Prospect Street,West Boylston,MA,01583,(508) 835-4484
1862,Wachusett Regional High School,1401 Main Street,Holden,MA,01520,(508) 829-6771
1863,Wagner Family Dealerships,760 Boston Turnpike,Shrewsbury,MA,01545,(508) 581-5619
1864,Wake the Way LLC,6 Cutting Avenue,Worcester,MA,01606,774-462-0772
1865,Washburn House,1183 Main Street,Worcester,MA,01603,
1866,Washington Mills Electro Minerals Cor...,20 North Main Street,North Grafton,MA,01536-0428,(508) 839-6511
1867,Waterfront Mary's LLC,103 Birch Island Road,Webster,MA,01570,(508) 943-2222
1868,Waters Corporation,34 Maple Street,Milford,MA,01757,(508) 478-2000
1869,Wattson Home Solutions,100 Lamartine Street,Worcester,MA,01608,(508) 796-5525
1870,Wattson Home Solutions (WDO),311 Main Street,Worcester,MA,01608,(508) 796-5525
1871,Wayside Youth & Family Support Networ...,1 Frederick Abbott Way,Framingham,MA,01519,(508) 469-3231
1872,WAZOBIA DINER,65 Gage street,Worcester,MA,01605,(774) 420-8732
1873,WCCA TV ,415 Main Street,Worcester ,MA,01608,(508) 755-1880
1874,WCOC,,Worcester,MA,01608,
1875,WCRN AM 830 (BV),276 Turnpike Road,Westborough,MA,01581,(508) 792-5803
1876,Webco Chemical Corp.,420 West Main Street,Dudley,MA,01571,(508) 943-2337
1877,Webster Dudley Oxford Chamber of Comm...,505 South Main Street,Webster,MA,01570,(508) 943-9700
1878,Webster Fire-Rescue,55 Thompson Road,Webster,MA,01570,(508) 949-3875
1879,Webster First Federal Credit Union (A...,547 Southbridge Street,AUBURN,MA,01501,(508) 671-5180
1880,Webster First Federal Credit Union (B...,1298 Providence Road,Whitinsville,MA,01588,(508) 671-5166
1881,Webster First Federal Credit Union (C...,29 Trolley Crossing Road,Charlton,MA,01507,(508) 671-5176
1882,Webster First Federal Credit Union (W...,149 West Boylston Street,West Boylston,MA,01583,(508) 835-1675
1883,Webster First Federal Credit Union (W...,1 North Main Street,Webster,MA,01570,(508) 943-1433
1884,Webster First Federal Credit Union (W...,16 Airport Road,Dudley,MA,01571,(508) 949-1990
1885,Webster First Federal Credit Union (W...,271 Greenwood Street,Worcester,MA,01607,1-800-962-4452
1886,Webster Five (Aub),35 Millbury Street,Auburn,MA,01501,(508) 832-5971
1887,Webster Five (Wach),136 Thompson Road,Webster,MA,01570,(800) 696-9401
1888,Webster Five (WDO),136 Thompson Road,Webster,MA,01570,(508) 943-9401
1889,Webster Five (WDO),208 West Main Street,Dudley,MA,01571,(508) 943-9091
1890,Webster Five (WDO),343 Main Street,Oxford,MA,01540,(508) 987-6433
1891,Webster Five (Wor),35 Millbury Street,Auburn,MA,01501,(508) 943-9401
1892,Webster Police Department,357 Main Street,Webster,MA,01570,(508) 949-3827
1893,Webster Public Schools,P.O. Box 430,Webster,MA,01570,(508) 943-0104
1894,Webster Square Medical Center,255 Park Avenue - Suite 400,Worcester,MA,01609-1989,(508) 755-9776
1895,Webster Square Vision Inc,120 Stafford Street,Worcester,MA,01603,(508) 754-3121
1896,WeCare 365,528 Pleasant Street,Brockton,Massachusetts,02301,(508) 584-2131
1897,Wegmans ,P.O. Box 30844,Rochester,NY,14603-0844,
1898,Well Rested Massage,118 Elm Street,Millbury,MA,01527,(774) 708-2055
1899,WELLhood Publishing,11 Brooks Road,Paxton,MA,01612,(508) 450-0269
1900,WellnessWave Radio,14 Brookline St,Worcester,MA,01603,(508) 864-9299
1901,Wellpoint,500 Unicorn Park Drive,Woburn,MA,01801,(978) 474-5108
1902,Wells Fargo Advisors,100 Front Street,Worcester,MA,01608-1412,(508) 752-6773
1903,Wells Healthcare,435 Shrewsbury St,Worcester,MA,01604,(508) 556-1040
1904,Wellspring Staffing Solutions,101 Pleasant Street Suite 114,Worcester,MA,01609,(508) 723-6917
1905,West End Creamery & Family Farm,481 Purgatory Road,Whitinsville,MA,01588,(508) 234-2022
1906,West Side Steak & BBQ,2A Richmond Avenue,Worcester,MA,01602,(508) 756-6317
1907,West Street Tavern,263 West Street,Berlin,MA,01503,(978) 415-0044
1908,Western New England University ,1215 Wilbraham Rd.,Springfield,MA,01119,(413) 782-1406
1909,Westfield Bank,141 Elm Street,Westfield,MA,01085,(413) 594-6698
1910,Westview Farm Creamery,111 East Hill Road,Monson,MA,01057-9638,(413) 267-5355
1911,WFPB Health Coaching by Mike Scott,311 Princeton Street,Jefferson,MA,01522,(774) 772-4834
1912,WGC Pest Control,33 Waldo Street Suite 3L,Worcester,MA,01608,(774) 696-4876
1913,Wheat Community Connections,P. O. Box 847,Clinton,MA,01510,(508) 370-4943
1914,White Eagle Association of Worcester,118 GREEN STREET,Worcester,MA,01604,(508) 753-9612
1915,Whitin Community Center,60 Main Street,Whitinsville,MA,01588,(508) 234-8184
1916,Whitinsville Christian School,279 Linwood Avenue,Whitinsville,MA,01588,(508) 372-3278
1917,"Whitinsville Family Dentistry, PC",12 Prospect Street,Whitinsville,MA,01588-1458,(508) 234-8107
1918,Whitinsville Golf Club Inc.,179 Fletcher Street,Whitinsville,MA,01588,(508) 234-6210
1919,Whitinsville Water Company,P.O. Box 188,Whitinsville,MA,01588,(508) 234-7358
1920,Whitney Bros. Oil Corp.,969 Main St.,CLINTON,MA,01510,(978) 365-2644
1921,"Whittier Farms, Inc.",90 Douglas Road,Sutton,MA,01590,(508) 865-1096
1922,"Wicked Fruitful, LLC",11 Prospect St,Upton,MA,01568,(508) 808-5634
1923,Wicked Modern Websites,178 Eleanor Road,Raynham,MA,02767,(508) 535-5105
1924,"Wickstrom Morse, LLP",60 Church Street,Whitinsville,MA,01588,(508) 234-4551
1925,WICN Public Radio,50 Portland Street,Worcester,MA,01608,508 752 0700
1926,Wiersma Insurance Agency,"781 Main Street, Suite 2",Whitinsville,MA,01588-1712,(508) 234-6800
1927,"Wilcox & Barton, Inc.",1B Commons Drive,Londonderry,NH,03053,(603) 369-4190
1928,Wilkinsonville Water District,13A Providence Road,Sutton,MA,01590,(508) 865-0060
1929,Willard House & Clock Museum,11 Willard Street,North Grafton,MA,01536,(508) 839-3500
1930,William F Riley Electrician Inc,59 Darrow St,Worcester,MA,01606,(774) 261-3924
1931,William J. Funk Procurement Consultin...,"74 East Main Street, Unit 2",Gloucester,MA,01930-3881,(857) 919-1039
1932,William Stark Photography,24 Hyde Park Circle,Uxbridge,MA,01569,(508) 868-0789
1933,Wilson Language Training Corp.,47 Old Webster Road,Oxford,MA,01540,(508) 368-6627
1934,Win Waste Innovations,331A SW Cutoff,Millbury,MA,01527,1-978-569-7005
1935,Windover Construction,66 Cherry Hill Drive,Beverly,MA,01915,(617) 828-7120
1936,Window Designs Etc by Marie Mouradian,800 Main St Suite 207,Holden,MA,01520,(508) 868-2270
1937,"Wingspan Properties, LLC",1 Blackwell Lane,Worcester,MA,01609,(774) 314-0108
1938,WinnCompanies,"One Washington Mall, Suite 500",Boston,MA,02108,(617) 239-4402
1939,"Wirefab, Inc.",75 Blackstone River Road,Worcester,MA,01607,(508) 754-5359
1940,Wise Construction ,21 East Street,Winchester ,MA,01890,(781) 307-5270
1941,Wise Pro Cleaning,57 Vale St,Worcester,MA,01604,(774) 381-1853
1942,Withum,500 Unicorn Park Drive,Woburn,MA,01801,(617) 227-3333
1943,"Wong Dynasty and Yankee Grill, Inc.",176 Reservoir Street,Holden,MA,01520,(508) 829-2188
1944,Woo Juice,145 Front Street,Worcester,MA,01608,(508) 667-3883
1945,Wood Partners ,91 Hartwell Ave,Lexington,MA,02421,(978) 369-8111
1946,Worc. Educational Development Foundat...,210 Park Avenue,Worcester,MA,01609,(774) 389-0740
1947,Worcester Academy,81 Providence Street,Worcester,MA,01604,(508) 754-5302
1948,Worcester Advisors,"446 Main Street, 19th Floor",Worcester,MA,01608,(508) 753-7300
1949,Worcester Animal Rescue League ,139 Holden Street,Worcester ,MA,01606,(508) 853-0030
1950,Worcester Area Mission Society,6 Institute Road,Worcester,MA ,01609,(508) 755-2329
1951,Worcester Art Museum (Wor),55 Salisbury Street,Worcester,MA,01609,(508) 799-4406
1952,Worcester Bravehearts,1331 Grafton St,Worcester,MA,01604,(508) 438-3773
1953,Worcester Business Development Corp.,"89 Shrewsbury Street, Suite 300",Worcester,MA,01604,(508) 755-5734
1954,Worcester Business Journal (Wor),172 Shrewsbury Street,Worcester,MA,01604,(508) 755-8004
1955,Worcester Center For Crafts,25 Sagamore Road,Worcester,MA,01605,(508) 753-8183
1956,"Worcester Community Action Council, I...",18 Chestnut Street,Worcester,MA,01608,(508) 754-1176
1957,Worcester Community Housing Resources,"11 Pleasant Street, Suite 300",Worcester,MA,01609,(508) 799-0322
1958,Worcester Community Midwifery,70 James Street,Worcester,MA,01603,(508) 578-2010
1959,Worcester Country Club (Wor),2 Rice Street,Worcester,MA,01606,(508) 853-8064
1960,"Worcester County Airfreight, Inc.",P.O. Box 374,Auburn,MA,01501,(508) 755-8572
1961,Worcester County Civil Process,P.O. Box 1066,Worcester,MA,01613,(508) 752-1100
1962,Worcester County Memorial Park (Aub),217 Richards Avenue,Paxton,MA,01612,(508) 791-0350
1963,Worcester County Memorial Park (WACH),217 Richards Avenue,Paxton,MA,01612,(508) 791-0350
1964,Worcester County St Patrick's Parade ...,40 Chatanika Ave,Worcester,MA,01602-1110,(508) 847-7100
1965,Worcester Credit Union,520 W. Boylston Street,Worcester,MA,01606,(508) 853-9966
1966,Worcester District Medical Society,321 Main Street,Worcester,MA,01608,(508) 753-1579
1967,Worcester Education Collaborative,18 Chestnut Street,Worcester,MA,01608,(508) 615-6998
1968,Worcester Envelope Company,22 Millbury Street,Auburn,MA,01501,(774) 221-1325
1969,Worcester Fitness (Wor),440 Grove Street,Worcester,MA,01605,(508) 852-8209
1970,"Worcester Funeral, Inc. DBA Dirsa Mor...",298 Grafton Street,Worcester,MA,01604,(508) 753-4211
1971,Worcester Hibernian Cultural Centre,19 Temple Street,Worcester,MA,01604,(508) 792-3700
1972,Worcester Housing Authority,630A Plantation Street,Worcester,MA,01605,508-635-3000
1973,Worcester Ice Center,112 Harding Street,Worcester,MA,01604,(774) 530-6217
1974,Worcester Interactive,27 W Mountain Street,Worcester,MA,01606,(978) 804-4707
1975,Worcester Irish Cultural Festival,351 Spring Street,Shrewsbury,MA,01545,(617) 308-6198
1976,Worcester JCC,633 Salisbury Street,Worcester,MA,01609,(508) 756-7109
1977,Worcester Latino Dollars for Scholars...,444 Massasoit Rd.,Worcester,MA,01604,(508) 414-2079
1978,Worcester Majors Llc,36 honeysuckle rd,Worcester,MA,01607,(774) 232-7445
1979,Worcester Multi Inc.,12 Old Tavern Lane,Sutton,MA,01590,(508) 868-0927
1980,Worcester Physicians and Nurses Servi...,111 Elm Street,Worcester,MA,01609,(508) 556-1072
1981,Worcester Polytechnic Institute (WPI),100 Institute Road,Worcester,MA,01609-2280,(508) 831-5200
1982,Worcester Railers HC,105 Commercial Street,Worcester,MA,01608,(508) 365-1750
1983,Worcester Red Sox,P.O. Box 3180,Worcester,MA,01613,(508) 500-8888
1984,Worcester Regional Airport ,375 Airport Drive,Worcester,MA,01602,(508) 849-5550
1985,Worcester Regional Transit Authority,60 Foster Street,Worcester,MA,01608,(508) 791-2389
1986,Worcester Restaurant Group,118 Highland Street,Worcester,MA,01609,(508) 798-3474
1987,Worcester RISE for Health,51 Gage Street,Worcester,MA,01605,(617) 529-4978
1988,Worcester School Committee,455 Main Street,Worcester,MA,01608,
1989,Worcester State University,486 Chandler Street,Worcester,MA,01602-2597,(508) 929-8000
1990,Worcester Symphony Orchestra,Worcester Symphony Orchestra,Leominster,MA,01453,(508) 573-8841
1991,Worcester Telegram & Gazette (CMS),100 Front Street,Worcester,MA,01615-0012,(508) 793-9296
1992,Worcester Wares,DCU Center,Worcester,MA,01608,(508) 929-0561
1993,Worcester Youth Center,326 Chandler Street,Worcester,MA,01602-3440,(508) 791-4702
1994,WorcLab,44 Portland Street,Worcester,MA,01608,(508) 344-1608
1995,Work of Art Cookies,264 Cedar Street,Fiskdale,MA,01518,(617) 967-1169
1996,Workbar,526 Main St.,Worcester,MA,01608,(857) 444-6226
1997,Workers Credit Union,119 Russell St.,LITTLETON,MA,01460,(978) 345-1021
1998,Workplace Resource,162 Prescott Street,Worcester,MA,01605,508.770.1900 x 123
1999,World Financial Group / Get Quote IB,255 Park Ave,Worcester,MA,01609,(508) 981-3318
2000,Wormtown Brewery,72 Shrewsbury Street,Worcester,MA,01604,(774) 239-1555
2001,worX printing cooperative,41 Jackson Street,Worcester,MA,01608,(508) 659-2419
2002,WOW Dancewear,771 Southbridge St,Auburn,MA,01501,(508) 832-7600
2003,WPKZ Radio - The K-Zone,762 Water Street,Fitchburg,MA,01420,(978) 343-3766
2004,Wright Photo Studios,44 Portland Street,Worcester,MA,01608,(774) 230-7725
2005,WS Development,33 Boylston Street,Chestnut Hill,MA,02467,(617) 646-3110
2006,WuXi Biologics,1 Reactory Drive,Worcester,MA,01604,
2007,Xceedance ,1 Mercantile Street,Worcester ,MA,01608,(833) 899-1041
2008,Xerox Business Solutions,2 Hampshire Street,Foxborough,MA,02035,(978) 257-1920
2009,X-Golf Worcester,"287 Grove Street, Worcester, MA, USA",Worcester,MA,01605,(774) 389-4653
2010,Yankee Spirits,"376 Main Street, Rt. 20",Sturbridge,MA,01566,(508) 347-2231
2011,Yatco Energy and Food Mart,313 Boston Post Road West,Marlboro,MA,01752,508-786-5670
2012,Yellow Iris Farm,44 Emil Drive,Thompson,CT,06277,(508) 868-3892
2013,YMCA for Central MA,43 Everett Street,Southbridge,MA,01550,(508) 765-5466
2014,YMCA of Central MA,766 Main Street,Worcester,MA,01610,(508) 755-6101
2015,"YOU, Inc.",81 Plantation Street,Worcester,MA,01604,(508) 849-5600
2016,"YOU, Inc.",328 Main Street,Southbridge,MA,01550,(508) 765-9102
2017,YOUR RIDE INC ,716 West Boyston st,Worcester ,MA,01606,(508) 459-3272
2018,Youth Villages,400 Donald J Lynch Blvd.,Marlborough ,MA,01752,(603) 413-2866
2019,Yummy Tummy Bakery and Sweets,24 Sampson street,South Grafton,MA,01560,(774) 303-2096
2020,Yurogen Biosystems LLC,1 Innovation Drive,WORCESTER,MA,01605,(508) 753-4822
2021,"YWCA of Central Mass., Inc.",One Salem Square,Worcester,MA,01608,(508) 791-3181
2022,"Zawada Insurance Agency, Inc",131 Millbury Street,Worcester,MA,01610,(508) 831-0133
2023,ZDS Architecture & Interior Design,2 Charles Street,Providence,RI,02904,(401) 680-6699
2024,Zemaitis-Baker Insurance,"108 Shrewsbury Street, #201",Worcester,MA,01604,(508) 752-7777
2025,ZenBusiness,"5511 Parkcrest Drive, Suite 103",Austin,TX,78731,(844) 493-6249
2026,Zorba's,132 Sturbridge Road,Charlton,MA,01507,(508) 248-0433
2027,"Zukas Hilltop Barn, Inc.",89 Smithville Road,Spencer,MA,01562-1338,(508) 885-5320
